{"type":"FeatureCollection","name":"CoMOR-FairCalendars","collection_id":"COL0095","records":9,"download_user":"admin","download_date":"2026-08-10T18:45:52.024+02:00","readme":"See the readme file included in this download for details about this file.","features":[{"type":"Feature","properties":{"source_id":"SRC000709","event_no":"5","event_type":"fair_calendar","place_id":"PLC001267","place_name_modern":"Geneva","place_name_historic":"Geneve, Genefus, GENEVORA, Geneva","place_type":"settlement","date":"1423-04-04","date_year":1423,"date_month":4,"date_day":4,"date_orig_text":"","duration":null},"geometry":{"type":"point","coordinates":[6.146025385329027,46.202093660486575]}},{"type":"Feature","properties":{"source_id":"SRC000710","event_no":"8","event_type":"fair_calendar","place_id":"PLC003594","place_name_modern":"Vevey","place_name_historic":"Vevey, Vevay","place_type":"settlement","date":"1423-04","date_year":1423,"date_month":4,"date_day":0,"date_orig_text":"","duration":null},"geometry":{"type":"point","coordinates":[6.858268254354235,46.474377612187915]}},{"type":"Feature","properties":{"source_id":"SRC000713","event_no":"7","event_type":"fair_calendar","place_id":"PLC001267","place_name_modern":"Geneva","place_name_historic":"Geneve, Genefus, GENEVORA, Geneva","place_type":"settlement","date":"1423-06-29","date_year":1423,"date_month":6,"date_day":29,"date_orig_text":"","duration":null},"geometry":{"type":"point","coordinates":[6.146025385329027,46.202093660486575]}},{"type":"Feature","properties":{"source_id":"SRC000717","event_no":"14","event_type":"fair_calendar","place_id":"PLC001267","place_name_modern":"Geneva","place_name_historic":"Geneve, Genefus, GENEVORA, Geneva","place_type":"settlement","date":"1423-09-24","date_year":1423,"date_month":9,"date_day":24,"date_orig_text":"","duration":null},"geometry":{"type":"point","coordinates":[6.146025385329027,46.202093660486575]}},{"type":"Feature","properties":{"source_id":"SRC000721","event_no":"6","event_type":"fair_calendar","place_id":"PLC001267","place_name_modern":"Geneva","place_name_historic":"Geneve, Genefus, GENEVORA, Geneva","place_type":"settlement","date":"1423-10-28","date_year":1423,"date_month":10,"date_day":28,"date_orig_text":"","duration":null},"geometry":{"type":"point","coordinates":[6.146025385329027,46.202093660486575]}},{"type":"Feature","properties":{"source_id":"SRC000722","event_no":"3","event_type":"fair_calendar","place_id":"PLC001267","place_name_modern":"Geneva","place_name_historic":"Geneve, Genefus, GENEVORA, Geneva","place_type":"settlement","date":"1423-11-01","date_year":1423,"date_month":11,"date_day":1,"date_orig_text":"","duration":null},"geometry":{"type":"point","coordinates":[6.146025385329027,46.202093660486575]}},{"type":"Feature","properties":{"source_id":"SRC000725","event_no":"1","event_type":"fair_calendar","place_id":"PLC001788","place_name_modern":"Villeneuve","place_name_historic":"Villeneuve, Villeneuf","place_type":"settlement","date":"1423-12-06","date_year":1423,"date_month":12,"date_day":6,"date_orig_text":"die beati Nycolay","duration":null},"geometry":{"type":"point","coordinates":[6.926575271984825,46.39624744971097]}},{"type":"Feature","properties":{"source_id":"SRC000726","event_no":"9","event_type":"fair_calendar","place_id":"PLC001267","place_name_modern":"Geneva","place_name_historic":"Geneve, Genefus, GENEVORA, Geneva","place_type":"settlement","date":"1424-01-06","date_year":1424,"date_month":1,"date_day":6,"date_orig_text":"","duration":null},"geometry":{"type":"point","coordinates":[6.146025385329027,46.202093660486575]}},{"type":"Feature","properties":{"source_id":"SRC000729","event_no":"3","event_type":"fair_calendar","place_id":"PLC001267","place_name_modern":"Geneva","place_name_historic":"Geneve, Genefus, GENEVORA, Geneva","place_type":"settlement","date":"1424-02-22","date_year":1424,"date_month":2,"date_day":22,"date_orig_text":"","duration":null},"geometry":{"type":"point","coordinates":[6.146025385329027,46.202093660486575]}}]}