{"type":"FeatureCollection","name":"CoMOR-FairCalendars","collection_id":"COL0104","records":172,"download_user":"admin","download_date":"2026-08-10T18:45:55.989+02:00","readme":"See the readme file included in this download for details about this file.","features":[{"type":"Feature","properties":{"source_id":"SRC000872","event_no":"1","event_type":"fair_calendar","place_id":"PLC000230","place_name_modern":"Chur","place_name_historic":"Chur, Chrois","place_type":"settlement","date":"1585-01-25","date_year":1585,"date_month":1,"date_day":25,"date_orig_text":"Pa[uli] be[kehrung]","duration":null},"geometry":{"type":"point","coordinates":[9.51977281621111,46.849592088313315]}},{"type":"Feature","properties":{"source_id":"SRC000872","event_no":"2","event_type":"fair_calendar","place_id":"PLC001785","place_name_modern":"Fribourg","place_name_historic":"Fribourg, Freiburg, Fryburg, Friburg","place_type":"settlement","date":"1585-01","date_year":1585,"date_month":1,"date_day":0,"date_orig_text":"sans date","duration":null},"geometry":{"type":"point","coordinates":[7.149052273745331,46.80261276627797]}},{"type":"Feature","properties":{"source_id":"SRC000872","event_no":"3","event_type":"fair_calendar","place_id":"PLC002036","place_name_modern":"Hof","place_name_historic":"Hof, Hoff","place_type":"settlement","date":"1585-01-25","date_year":1585,"date_month":1,"date_day":25,"date_orig_text":"Pau[li] bek.[ehrung]","duration":null},"geometry":{"type":"point","coordinates":[11.914486845556718,50.31379172638024]}},{"type":"Feature","properties":{"source_id":"SRC000872","event_no":"4","event_type":"fair_calendar","place_id":"PLC001568","place_name_modern":"Leipzig","place_name_historic":"Leipzig, LIPCZ","place_type":"settlement","date":"1585-01-01","date_year":1585,"date_month":1,"date_day":1,"date_orig_text":"N[eu] Jahr","duration":null},"geometry":{"type":"point","coordinates":[12.374406700864903,51.34030646147477]}},{"type":"Feature","properties":{"source_id":"SRC000872","event_no":"5","event_type":"fair_calendar","place_id":"PLC000406","place_name_modern":"Lyon","place_name_historic":", Lyon, Leon, Lion","place_type":"settlement","date":"1585-01-06","date_year":1585,"date_month":1,"date_day":6,"date_orig_text":"Epipha[nia]","duration":null},"geometry":{"type":"point","coordinates":[4.832640613902609,45.758817110591664]}},{"type":"Feature","properties":{"source_id":"SRC000872","event_no":"6","event_type":"fair_calendar","place_id":"PLC003353","place_name_modern":"Freistadt","place_name_historic":"Freistadt, Freistat, Freistettlein","place_type":"settlement","date":"1585-01-25","date_year":1585,"date_month":1,"date_day":25,"date_orig_text":"Pau[li] bek[ehrung]","duration":null},"geometry":{"type":"point","coordinates":[14.50070187851283,48.51049677033371]}},{"type":"Feature","properties":{"source_id":"SRC000872","event_no":"7","event_type":"fair_calendar","place_id":"PLC002099","place_name_modern":"Nördlingen","place_name_historic":"Nördlingen, Norlingen, Nordlingen","place_type":"settlement","date":"1585-01-15","date_year":1585,"date_month":1,"date_day":15,"date_orig_text":"15. Jan[uar]","duration":null},"geometry":{"type":"point","coordinates":[10.49236007556872,48.8501423347542]}},{"type":"Feature","properties":{"source_id":"SRC000872","event_no":"8","event_type":"fair_calendar","place_id":"PLC002064","place_name_modern":"Nürnberg","place_name_historic":"Nürnberg, NURNBERG, Nuremberg","place_type":"settlement","date":"1585-01","date_year":1585,"date_month":1,"date_day":0,"date_orig_text":"Oberst","duration":null},"geometry":{"type":"point","coordinates":[11.076277748527682,49.45272813262063]}},{"type":"Feature","properties":{"source_id":"SRC000872","event_no":"9","event_type":"fair_calendar","place_id":"PLC000504","place_name_modern":"Paris","place_name_historic":"Paris, PARISIUS","place_type":"settlement","date":"1585-01-06","date_year":1585,"date_month":1,"date_day":6,"date_orig_text":"trium. Re.[gis]","duration":null},"geometry":{"type":"point","coordinates":[2.350731157935796,48.855283980547]}},{"type":"Feature","properties":{"source_id":"SRC000872","event_no":"10","event_type":"fair_calendar","place_id":"PLC000227","place_name_modern":"Schwyz","place_name_historic":"Schwyz, Suiz","place_type":"settlement","date":"1585-01-30","date_year":1585,"date_month":1,"date_day":30,"date_orig_text":"30. Jan.[uar]","duration":null},"geometry":{"type":"point","coordinates":[8.664473871708935,47.02815862980513]}},{"type":"Feature","properties":{"source_id":"SRC000872","event_no":"11","event_type":"fair_calendar","place_id":"PLC001820","place_name_modern":"Winterthur","place_name_historic":"Winterthur, Winterthür","place_type":"settlement","date":"1585-02","date_year":1585,"date_month":2,"date_day":0,"date_orig_text":"Don.[nerstag] v.[or] Liecht.[meß]","duration":null},"geometry":{"type":"point","coordinates":[8.738125702384234,47.49549613107648]}},{"type":"Feature","properties":{"source_id":"SRC000872","event_no":"12","event_type":"fair_calendar","place_id":"PLC005445","place_name_modern":"Gdańsk","place_name_historic":"","place_type":"settlement","date":"1585-01","date_year":1585,"date_month":1,"date_day":0,"date_orig_text":"sans date","duration":null},"geometry":{"type":"point","coordinates":[18.645278,54.3475]}},{"type":"Feature","properties":{"source_id":"SRC000872","event_no":"13","event_type":"fair_calendar","place_id":"PLC003755","place_name_modern":"Trani","place_name_historic":"Trani","place_type":"settlement","date":"1585-01","date_year":1585,"date_month":1,"date_day":0,"date_orig_text":"sans date","duration":null},"geometry":{"type":"point","coordinates":[16.418129,41.281981]}},{"type":"Feature","properties":{"source_id":"SRC000872","event_no":"14","event_type":"fair_calendar","place_id":"PLC003753","place_name_modern":"Taranto","place_name_historic":"Taranto","place_type":"settlement","date":"1585-01","date_year":1585,"date_month":1,"date_day":0,"date_orig_text":"sans date","duration":null},"geometry":{"type":"point","coordinates":[17.245866,40.466998]}},{"type":"Feature","properties":{"source_id":"SRC000873","event_no":"1","event_type":"fair_calendar","place_id":"PLC000113","place_name_modern":"Antwerpen","place_name_historic":", Antwerpen, Antverpe","place_type":"settlement","date":"1585-02-02","date_year":1585,"date_month":2,"date_day":2,"date_orig_text":"M.Liechtm.[eß]","duration":null},"geometry":{"type":"point","coordinates":[4.399684477601141,51.22083350522394]}},{"type":"Feature","properties":{"source_id":"SRC000873","event_no":"2","event_type":"fair_calendar","place_id":"PLC001991","place_name_modern":"Lübeck","place_name_historic":"Lübeck, LUBECK, Lubeck","place_type":"settlement","date":"1585-02","date_year":1585,"date_month":2,"date_day":0,"date_orig_text":"sans date","duration":null},"geometry":{"type":"point","coordinates":[10.686374277674663,53.869212018933936]}},{"type":"Feature","properties":{"source_id":"SRC000873","event_no":"3","event_type":"fair_calendar","place_id":"PLC005170","place_name_modern":"Granada","place_name_historic":", Granada, Euzugerola","place_type":"settlement","date":"1585-02","date_year":1585,"date_month":2,"date_day":0,"date_orig_text":"sans date","duration":null},"geometry":{"type":"point","coordinates":[-3.597581421971576,37.18255878856661]}},{"type":"Feature","properties":{"source_id":"SRC000873","event_no":"4","event_type":"fair_calendar","place_id":"PLC000263","place_name_modern":"Luzern","place_name_historic":"Luzern, LUCERN, Lucer, Lucern, Lucerna","place_type":"settlement","date":"1585-02","date_year":1585,"date_month":2,"date_day":0,"date_orig_text":"H.[eilige] Faß[nacht]","duration":null},"geometry":{"type":"point","coordinates":[8.300975853684587,47.05082258401305]}},{"type":"Feature","properties":{"source_id":"SRC000873","event_no":"5","event_type":"fair_calendar","place_id":"PLC000114","place_name_modern":"Mechelen","place_name_historic":", Mecheln, MECHEL, Mechelen, Machelen, Malines","place_type":"settlement","date":"1585-02","date_year":1585,"date_month":2,"date_day":0,"date_orig_text":"sans date","duration":null},"geometry":{"type":"point","coordinates":[4.478164783638704,51.02926524151676]}},{"type":"Feature","properties":{"source_id":"SRC000873","event_no":"6","event_type":"fair_calendar","place_id":"PLC004105","place_name_modern":"Praha","place_name_historic":"Praha, Prag","place_type":"settlement","date":"1585-02-02","date_year":1585,"date_month":2,"date_day":2,"date_orig_text":"M.[ariä] Liechtm[eß]","duration":null},"geometry":{"type":"point","coordinates":[14.421488530828533,50.0871993158607]}},{"type":"Feature","properties":{"source_id":"SRC000873","event_no":"7","event_type":"fair_calendar","place_id":"PLC000257","place_name_modern":"Solothurn","place_name_historic":"Solothurn, Solotoren, Sollathurn, Soloturn, Soleurne","place_type":"settlement","date":"1585-02","date_year":1585,"date_month":2,"date_day":0,"date_orig_text":"Faßnacht","duration":null},"geometry":{"type":"point","coordinates":[7.540755219724435,47.20682953081105]}},{"type":"Feature","properties":{"source_id":"SRC000873","event_no":"8","event_type":"fair_calendar","place_id":"PLC000554","place_name_modern":"London","place_name_historic":"London, Londres","place_type":"settlement","date":"1585-02","date_year":1585,"date_month":2,"date_day":0,"date_orig_text":"sans date","duration":null},"geometry":{"type":"point","coordinates":[-0.108399748915334,51.51796945806352]}},{"type":"Feature","properties":{"source_id":"SRC000873","event_no":"9","event_type":"fair_calendar","place_id":"PLC002758","place_name_modern":"L'Aquila","place_name_historic":"L'Aquila, Aquila, Aquiano, Aguila","place_type":"settlement","date":"1585-02","date_year":1585,"date_month":2,"date_day":0,"date_orig_text":"sans date","duration":null},"geometry":{"type":"point","coordinates":[13.389532105312798,42.34577631154731]}},{"type":"Feature","properties":{"source_id":"SRC000873","event_no":"10","event_type":"fair_calendar","place_id":"PLC000906","place_name_modern":"Toulouse","place_name_historic":"Toulouse, Tolose, TOLOSA, Tholouse","place_type":"settlement","date":"1585-02","date_year":1585,"date_month":2,"date_day":0,"date_orig_text":"sans date","duration":null},"geometry":{"type":"point","coordinates":[1.443256399950735,43.602347398954095]}},{"type":"Feature","properties":{"source_id":"SRC000873","event_no":"11","event_type":"fair_calendar","place_id":"PLC003728","place_name_modern":"Sevilla","place_name_historic":"Sevilla","place_type":"settlement","date":"1585-02","date_year":1585,"date_month":2,"date_day":0,"date_orig_text":"sans date","duration":null},"geometry":{"type":"point","coordinates":[-5.983299,37.388708]}},{"type":"Feature","properties":{"source_id":"SRC000873","event_no":"12","event_type":"fair_calendar","place_id":"PLC001962","place_name_modern":"Magdeburg","place_name_historic":"Magdeburg, MADBURG, Meydburg","place_type":"settlement","date":"1585-02","date_year":1585,"date_month":2,"date_day":0,"date_orig_text":"Septuage[sima]","duration":null},"geometry":{"type":"point","coordinates":[11.623753962503018,52.13510543562479]}},{"type":"Feature","properties":{"source_id":"SRC000873","event_no":"13","event_type":"fair_calendar","place_id":"PLC002737","place_name_modern":"Siena","place_name_historic":"Siena, Svena","place_type":"settlement","date":"1585-02","date_year":1585,"date_month":2,"date_day":0,"date_orig_text":"sans date","duration":null},"geometry":{"type":"point","coordinates":[11.323332789380474,43.31589023094549]}},{"type":"Feature","properties":{"source_id":"SRC000874","event_no":"1","event_type":"fair_calendar","place_id":"PLC004756","place_name_modern":"Bozen [Bolzano]","place_name_historic":"Bozen [Bolzano]","place_type":"settlement","date":"1585-03","date_year":1585,"date_month":3,"date_day":0,"date_orig_text":"Letare","duration":null},"geometry":{"type":"point","coordinates":[11.354967819139139,46.49655837493802]}},{"type":"Feature","properties":{"source_id":"SRC000874","event_no":"2","event_type":"fair_calendar","place_id":"PLC000043","place_name_modern":"Frankfurt Main","place_name_historic":"Frankfurt am Main, Frankfurt, Franckfurt Main, Francfurt; Francfort, Francfort","place_type":"settlement","date":"1585-03","date_year":1585,"date_month":3,"date_day":0,"date_orig_text":"Jud[ica]","duration":null},"geometry":{"type":"point","coordinates":[8.673089014562553,50.10997055280276]}},{"type":"Feature","properties":{"source_id":"SRC000874","event_no":"3","event_type":"fair_calendar","place_id":"PLC003474","place_name_modern":"Frankfurt Oder","place_name_historic":"Frankfurt an der Oder, Frankfurt, Franckfurt","place_type":"settlement","date":"1585-03","date_year":1585,"date_month":3,"date_day":0,"date_orig_text":"Re[miniscere]","duration":null},"geometry":{"type":"point","coordinates":[14.554735596537304,52.346012207043074]}},{"type":"Feature","properties":{"source_id":"SRC000874","event_no":"4","event_type":"fair_calendar","place_id":"PLC004105","place_name_modern":"Praha","place_name_historic":"Praha, Prag","place_type":"settlement","date":"1585-03","date_year":1585,"date_month":3,"date_day":0,"date_orig_text":"Letare","duration":null},"geometry":{"type":"point","coordinates":[14.421488530828533,50.0871993158607]}},{"type":"Feature","properties":{"source_id":"SRC000874","event_no":"5","event_type":"fair_calendar","place_id":"PLC000227","place_name_modern":"Schwyz","place_name_historic":"Schwyz, Suiz","place_type":"settlement","date":"1585-03-17","date_year":1585,"date_month":3,"date_day":17,"date_orig_text":"Gert[rud]","duration":null},"geometry":{"type":"point","coordinates":[8.664473871708935,47.02815862980513]}},{"type":"Feature","properties":{"source_id":"SRC000874","event_no":"6","event_type":"fair_calendar","place_id":"PLC001905","place_name_modern":"Würzburg","place_name_historic":"Würzburg, Würzpg, Würtzburg, Wurtzburg; Wirtzburg","place_type":"settlement","date":"1585-03","date_year":1585,"date_month":3,"date_day":0,"date_orig_text":"Letare","duration":null},"geometry":{"type":"point","coordinates":[9.931880566467216,49.79269425949147]}},{"type":"Feature","properties":{"source_id":"SRC000874","event_no":"7","event_type":"fair_calendar","place_id":"PLC004147","place_name_modern":"Wroclaw","place_name_historic":"Wroclaw, Presla, Breslau, Breslaw","place_type":"settlement","date":"1585-03","date_year":1585,"date_month":3,"date_day":0,"date_orig_text":"Letare","duration":null},"geometry":{"type":"point","coordinates":[17.034468311946632,51.107270165385934]}},{"type":"Feature","properties":{"source_id":"SRC000874","event_no":"8","event_type":"fair_calendar","place_id":"PLC005269","place_name_modern":"Bratislava","place_name_historic":"","place_type":"settlement","date":"1585-03","date_year":1585,"date_month":3,"date_day":0,"date_orig_text":"Letare","duration":null},"geometry":{"type":"point","coordinates":[17.130322223346724,48.14803369378461]}},{"type":"Feature","properties":{"source_id":"SRC000874","event_no":"9","event_type":"fair_calendar","place_id":"PLC002932","place_name_modern":"Vlissingen","place_name_historic":", Vissingen, Vlißingen","place_type":"settlement","date":"1585-03","date_year":1585,"date_month":3,"date_day":0,"date_orig_text":"sans date","duration":null},"geometry":{"type":"point","coordinates":[3.573670490798227,51.452576187145375]}},{"type":"Feature","properties":{"source_id":"SRC000874","event_no":"10","event_type":"fair_calendar","place_id":"PLC004899","place_name_modern":"Lisboa","place_name_historic":"Lisboa","place_type":"settlement","date":"1585-03","date_year":1585,"date_month":3,"date_day":0,"date_orig_text":"sans date","duration":null},"geometry":{"type":"point","coordinates":[-9.132767256234924,38.713088689914734]}},{"type":"Feature","properties":{"source_id":"SRC000874","event_no":"11","event_type":"fair_calendar","place_id":"PLC000124","place_name_modern":"Gent","place_name_historic":"Gent, GAND, Ghendt, Gand","place_type":"settlement","date":"1585-03","date_year":1585,"date_month":3,"date_day":0,"date_orig_text":"3. Mon.[tag] J.","duration":null},"geometry":{"type":"point","coordinates":[3.723300078558037,51.04793259798228]}},{"type":"Feature","properties":{"source_id":"SRC000874","event_no":"12","event_type":"fair_calendar","place_id":"PLC003331","place_name_modern":"Graz","place_name_historic":"Graz, Grecz, Gratz, Gracz","place_type":"settlement","date":"1585-03","date_year":1585,"date_month":3,"date_day":0,"date_orig_text":"Letare","duration":null},"geometry":{"type":"point","coordinates":[15.438406004509208,47.07058558727293]}},{"type":"Feature","properties":{"source_id":"SRC000874","event_no":"13","event_type":"fair_calendar","place_id":"PLC001665","place_name_modern":"Deventer","place_name_historic":"Deventer, DEVENTER, Deuenter","place_type":"settlement","date":"1585-03","date_year":1585,"date_month":3,"date_day":0,"date_orig_text":"sans date","duration":null},"geometry":{"type":"point","coordinates":[6.164591075216386,52.24986100387716]}},{"type":"Feature","properties":{"source_id":"SRC000874","event_no":"14","event_type":"fair_calendar","place_id":"PLC003362","place_name_modern":"Schwaz","place_name_historic":"Schwaz, Schwartz","place_type":"settlement","date":"1585-03","date_year":1585,"date_month":3,"date_day":0,"date_orig_text":"Berckwe[rk]","duration":null},"geometry":{"type":"point","coordinates":[11.705198713683737,47.34689938592145]}},{"type":"Feature","properties":{"source_id":"SRC000875","event_no":"1","event_type":"fair_calendar","place_id":"PLC001810","place_name_modern":"Baden","place_name_historic":", Baden, Paden","place_type":"settlement","date":"1585-04-23","date_year":1585,"date_month":4,"date_day":23,"date_orig_text":"G[eorgi].","duration":null},"geometry":{"type":"point","coordinates":[8.307728978733822,47.47437429294879]}},{"type":"Feature","properties":{"source_id":"SRC000875","event_no":"2","event_type":"fair_calendar","place_id":"PLC002223","place_name_modern":"Dinkelsbühl","place_name_historic":"Dinkelsbühl, Dunkelsbuhl, Dunkelspil, Dinckelsbuhl","place_type":"settlement","date":"1585-04-23","date_year":1585,"date_month":4,"date_day":23,"date_orig_text":"Georgi","duration":null},"geometry":{"type":"point","coordinates":[10.322550551930233,49.07041288691291]}},{"type":"Feature","properties":{"source_id":"SRC000875","event_no":"3","event_type":"fair_calendar","place_id":"PLC000406","place_name_modern":"Lyon","place_name_historic":", Lyon, Leon, Lion","place_type":"settlement","date":"1585-04","date_year":1585,"date_month":4,"date_day":0,"date_orig_text":"Quasi[modogeniti]","duration":null},"geometry":{"type":"point","coordinates":[4.832640613902609,45.758817110591664]}},{"type":"Feature","properties":{"source_id":"SRC000875","event_no":"4","event_type":"fair_calendar","place_id":"PLC001568","place_name_modern":"Leipzig","place_name_historic":"Leipzig, LIPCZ","place_type":"settlement","date":"1585-04","date_year":1585,"date_month":4,"date_day":0,"date_orig_text":"Jubila[te]","duration":null},"geometry":{"type":"point","coordinates":[12.374406700864903,51.34030646147477]}},{"type":"Feature","properties":{"source_id":"SRC000875","event_no":"5","event_type":"fair_calendar","place_id":"PLC002064","place_name_modern":"Nürnberg","place_name_historic":"Nürnberg, NURNBERG, Nuremberg","place_type":"settlement","date":"1585-04","date_year":1585,"date_month":4,"date_day":0,"date_orig_text":"Fr[eitag]. n.[ach] Oste.[rn]","duration":null},"geometry":{"type":"point","coordinates":[11.076277748527682,49.45272813262063]}},{"type":"Feature","properties":{"source_id":"SRC000875","event_no":"6","event_type":"fair_calendar","place_id":"PLC004771","place_name_modern":"Wil","place_name_historic":"Wil","place_type":"settlement","date":"1585-04","date_year":1585,"date_month":4,"date_day":0,"date_orig_text":"sans date","duration":null},"geometry":{"type":"point","coordinates":[9.04386122443198,47.463519912230005]}},{"type":"Feature","properties":{"source_id":"SRC000875","event_no":"7","event_type":"fair_calendar","place_id":"PLC003345","place_name_modern":"Linz","place_name_historic":"Linz, UNCZ, Lintz, Lincs","place_type":"settlement","date":"1585-04","date_year":1585,"date_month":4,"date_day":0,"date_orig_text":"Quasi.m[odogeniti]","duration":null},"geometry":{"type":"point","coordinates":[14.286684102572764,48.30560216143704]}},{"type":"Feature","properties":{"source_id":"SRC000875","event_no":"8","event_type":"fair_calendar","place_id":"PLC002022","place_name_modern":"Dresden","place_name_historic":"Dresden, DRESDEN, Dressert, Dresda","place_type":"settlement","date":"1585-04-23","date_year":1585,"date_month":4,"date_day":23,"date_orig_text":"Georg[i]","duration":null},"geometry":{"type":"point","coordinates":[13.736789314727282,51.04954366143809]}},{"type":"Feature","properties":{"source_id":"SRC000875","event_no":"9","event_type":"fair_calendar","place_id":"PLC000022","place_name_modern":"Köln","place_name_historic":"Köln, Colen, Coln, Colln, Colonia","place_type":"settlement","date":"1585-04","date_year":1585,"date_month":4,"date_day":0,"date_orig_text":"Miser[icordia]","duration":null},"geometry":{"type":"point","coordinates":[6.953663335122004,50.9358156163597]}},{"type":"Feature","properties":{"source_id":"SRC000875","event_no":"10","event_type":"fair_calendar","place_id":"PLC001423","place_name_modern":"Utrecht","place_name_historic":"Utrecht, Uterecht, Utert","place_type":"settlement","date":"1585-04","date_year":1585,"date_month":4,"date_day":0,"date_orig_text":"sans date","duration":null},"geometry":{"type":"point","coordinates":[5.112805422257821,52.09105368249999]}},{"type":"Feature","properties":{"source_id":"SRC000875","event_no":"11","event_type":"fair_calendar","place_id":"PLC002711","place_name_modern":"Ferrara","place_name_historic":"Ferrara, Femraria","place_type":"settlement","date":"1585-04","date_year":1585,"date_month":4,"date_day":0,"date_orig_text":"sans date","duration":null},"geometry":{"type":"point","coordinates":[11.608748795263347,44.83463645890352]}},{"type":"Feature","properties":{"source_id":"SRC000875","event_no":"12","event_type":"fair_calendar","place_id":"PLC005473","place_name_modern":"Krakau","place_name_historic":"","place_type":"settlement","date":"1585-04","date_year":1585,"date_month":4,"date_day":0,"date_orig_text":"sans date","duration":null},"geometry":{"type":"point","coordinates":[19.9448,50.0647]}},{"type":"Feature","properties":{"source_id":"SRC000875","event_no":"13","event_type":"fair_calendar","place_id":"PLC005649","place_name_modern":"Antiglia in Castilia","place_name_historic":"","place_type":"settlement","date":"1585-04","date_year":1585,"date_month":4,"date_day":0,"date_orig_text":"sans date","duration":null},"geometry":{"type":"point","coordinates":[0,0]}},{"type":"Feature","properties":{"source_id":"SRC000875","event_no":"14","event_type":"fair_calendar","place_id":"PLC005650","place_name_modern":"Madrid","place_name_historic":"","place_type":"settlement","date":"1585-04","date_year":1585,"date_month":4,"date_day":0,"date_orig_text":"sans date","duration":null},"geometry":{"type":"point","coordinates":[-3.703889,40.4125]}},{"type":"Feature","properties":{"source_id":"SRC000876","event_no":"1","event_type":"fair_calendar","place_id":"PLC000113","place_name_modern":"Antwerpen","place_name_historic":", Antwerpen, Antverpe","place_type":"settlement","date":"1585-05","date_year":1585,"date_month":5,"date_day":0,"date_orig_text":"Pfingst[en]","duration":null},"geometry":{"type":"point","coordinates":[4.399684477601141,51.22083350522394]}},{"type":"Feature","properties":{"source_id":"SRC000876","event_no":"2","event_type":"fair_calendar","place_id":"PLC002065","place_name_modern":"Amberg","place_name_historic":"Amberg","place_type":"settlement","date":"1585-05","date_year":1585,"date_month":5,"date_day":0,"date_orig_text":"Pfingst[en]","duration":null},"geometry":{"type":"point","coordinates":[11.856817136629498,49.445381792938804]}},{"type":"Feature","properties":{"source_id":"SRC000876","event_no":"3","event_type":"fair_calendar","place_id":"PLC000524","place_name_modern":"Brügge","place_name_historic":"Brügge, Bruges, Brugk, Brugge, Brugges","place_type":"settlement","date":"1585-05","date_year":1585,"date_month":5,"date_day":0,"date_orig_text":"sans date","duration":null},"geometry":{"type":"point","coordinates":[3.224798683805872,51.207851547571416]}},{"type":"Feature","properties":{"source_id":"SRC000876","event_no":"4","event_type":"fair_calendar","place_id":"PLC003341","place_name_modern":"Wien","place_name_historic":"Wien, VIEN","place_type":"settlement","date":"1585-05","date_year":1585,"date_month":5,"date_day":0,"date_orig_text":"Pfingst[en]","duration":null},"geometry":{"type":"point","coordinates":[16.37305500840773,48.20866498819257]}},{"type":"Feature","properties":{"source_id":"SRC000876","event_no":"5","event_type":"fair_calendar","place_id":"PLC001566","place_name_modern":"Erfurt","place_name_historic":"Erfurt, ERTEVERT","place_type":"settlement","date":"1585-05","date_year":1585,"date_month":5,"date_day":0,"date_orig_text":"Son[ntag]. n. [ach] Pf[ingsten]","duration":null},"geometry":{"type":"point","coordinates":[11.022879822475867,50.97652627499558]}},{"type":"Feature","properties":{"source_id":"SRC000876","event_no":"6","event_type":"fair_calendar","place_id":"PLC001454","place_name_modern":"Fulda","place_name_historic":"Fulda, Fuld","place_type":"settlement","date":"1585-06-05","date_year":1585,"date_month":6,"date_day":5,"date_orig_text":"Bonif[aci","duration":null},"geometry":{"type":"point","coordinates":[9.675917200984884,50.55146517423659]}},{"type":"Feature","properties":{"source_id":"SRC000876","event_no":"7","event_type":"fair_calendar","place_id":"PLC000082","place_name_modern":"Metz","place_name_historic":"Metz, METZ","place_type":"settlement","date":"1585-05","date_year":1585,"date_month":5,"date_day":0,"date_orig_text":"sans date","duration":null},"geometry":{"type":"point","coordinates":[6.17717265653057,49.11761309794051]}},{"type":"Feature","properties":{"source_id":"SRC000876","event_no":"8","event_type":"fair_calendar","place_id":"PLC002100","place_name_modern":"Ingolstadt","place_name_historic":"Ingolstadt, Inglstad, Ingelstadt, Inzelstat","place_type":"settlement","date":"1585-05-03","date_year":1585,"date_month":5,"date_day":3,"date_orig_text":"H.[eilig] Cr[eutz]. erf[unden]","duration":null},"geometry":{"type":"point","coordinates":[11.424291137914336,48.765191725161]}},{"type":"Feature","properties":{"source_id":"SRC000876","event_no":"9","event_type":"fair_calendar","place_id":"PLC002179","place_name_modern":"Kempten","place_name_historic":"Kempten","place_type":"settlement","date":"1585-05-10","date_year":1585,"date_month":5,"date_day":10,"date_orig_text":"10. May","duration":null},"geometry":{"type":"point","coordinates":[10.312434572990378,47.72663289946243]}},{"type":"Feature","properties":{"source_id":"SRC000876","event_no":"10","event_type":"fair_calendar","place_id":"PLC003338","place_name_modern":"Bruck an der Mur","place_name_historic":"Bruck an der Mur, Bruck, Pruck","place_type":"settlement","date":"1585-05","date_year":1585,"date_month":5,"date_day":0,"date_orig_text":"sans date","duration":null},"geometry":{"type":"point","coordinates":[15.265810697376745,47.4149904579293]}},{"type":"Feature","properties":{"source_id":"SRC000876","event_no":"11","event_type":"fair_calendar","place_id":"PLC000217","place_name_modern":"St. Gallen","place_name_historic":"St. Gallen, S. Galn, S. Gall","place_type":"settlement","date":"1585-05","date_year":1585,"date_month":5,"date_day":0,"date_orig_text":"Auf[fahrt]","duration":null},"geometry":{"type":"point","coordinates":[9.376679649666206,47.42463813888547]}},{"type":"Feature","properties":{"source_id":"SRC000876","event_no":"12","event_type":"fair_calendar","place_id":"PLC002712","place_name_modern":"Venezia","place_name_historic":"Venezia, Venzia","place_type":"settlement","date":"1585-05","date_year":1585,"date_month":5,"date_day":0,"date_orig_text":"sans date","duration":null},"geometry":{"type":"point","coordinates":[12.356655608613481,45.430392392445476]}},{"type":"Feature","properties":{"source_id":"SRC000876","event_no":"13","event_type":"fair_calendar","place_id":"PLC003336","place_name_modern":"Judenburg","place_name_historic":"Judenburg, iudenburg, Iudenburg, Judenborg","place_type":"settlement","date":"1585-05","date_year":1585,"date_month":5,"date_day":0,"date_orig_text":"Auffarth","duration":null},"geometry":{"type":"point","coordinates":[14.663231858146371,47.16886397880219]}},{"type":"Feature","properties":{"source_id":"SRC000876","event_no":"14","event_type":"fair_calendar","place_id":"PLC002059","place_name_modern":"Bamberg","place_name_historic":"Bamberg, BAMBERG","place_type":"settlement","date":"1585-05-16","date_year":1585,"date_month":5,"date_day":16,"date_orig_text":"Jo[hannis] v[or] d[er?em?]. Pf.[ingsten]","duration":null},"geometry":{"type":"point","coordinates":[10.882052171059986,49.890337281309336]}},{"type":"Feature","properties":{"source_id":"SRC000876","event_no":"15","event_type":"fair_calendar","place_id":"PLC000046","place_name_modern":"Worms","place_name_historic":"Worms, WORMS, Wormbs","place_type":"settlement","date":"1585-05","date_year":1585,"date_month":5,"date_day":0,"date_orig_text":"sans date","duration":null},"geometry":{"type":"point","coordinates":[8.358934085018452,49.63013408373285]}},{"type":"Feature","properties":{"source_id":"SRC000877","event_no":"1","event_type":"fair_calendar","place_id":"PLC001608","place_name_modern":"Eger","place_name_historic":"Eger, Egra","place_type":"settlement","date":"1585-06","date_year":1585,"date_month":6,"date_day":0,"date_orig_text":"Cor[pus] Chr[isti]","duration":null},"geometry":{"type":"point","coordinates":[12.363292335012977,50.079648451242846]}},{"type":"Feature","properties":{"source_id":"SRC000877","event_no":"2","event_type":"fair_calendar","place_id":"PLC000221","place_name_modern":"Feldkirch","place_name_historic":"Feldkirch, Feldkirchi, Veldkirch","place_type":"settlement","date":"1585-06-24","date_year":1585,"date_month":6,"date_day":24,"date_orig_text":"Jo[hann] Bap.[tista]","duration":null},"geometry":{"type":"point","coordinates":[9.59480202565481,47.23679995220749]}},{"type":"Feature","properties":{"source_id":"SRC000877","event_no":"3","event_type":"fair_calendar","place_id":"PLC001580","place_name_modern":"Naumburg","place_name_historic":"Naumburg, Nauburg","place_type":"settlement","date":"1585-06-29","date_year":1585,"date_month":6,"date_day":29,"date_orig_text":"P[etri] P[auli]","duration":null},"geometry":{"type":"point","coordinates":[11.812366154582973,51.15156434997887]}},{"type":"Feature","properties":{"source_id":"SRC000877","event_no":"4","event_type":"fair_calendar","place_id":"PLC002099","place_name_modern":"Nördlingen","place_name_historic":"Nördlingen, Norlingen, Nordlingen","place_type":"settlement","date":"1585-06","date_year":1585,"date_month":6,"date_day":0,"date_orig_text":"Corp.[us] Ch[risti]","duration":null},"geometry":{"type":"point","coordinates":[10.49236007556872,48.8501423347542]}},{"type":"Feature","properties":{"source_id":"SRC000877","event_no":"5","event_type":"fair_calendar","place_id":"PLC002188","place_name_modern":"Ravensburg","place_name_historic":"Ravensburg, Raispurg, Rauenspurg","place_type":"settlement","date":"1585-06-15","date_year":1585,"date_month":6,"date_day":15,"date_orig_text":"Viti","duration":null},"geometry":{"type":"point","coordinates":[9.60887332115687,47.78624547812796]}},{"type":"Feature","properties":{"source_id":"SRC000877","event_no":"6","event_type":"fair_calendar","place_id":"PLC000073","place_name_modern":"Strasbourg","place_name_historic":"Strasbourg, STRASBURG, Strasburg, Strassbourg","place_type":"settlement","date":"1585-06-24","date_year":1585,"date_month":6,"date_day":24,"date_orig_text":"Joh.[ann] Bap.[tista]","duration":null},"geometry":{"type":"point","coordinates":[7.747529973447003,48.584862875424925]}},{"type":"Feature","properties":{"source_id":"SRC000877","event_no":"7","event_type":"fair_calendar","place_id":"PLC001664","place_name_modern":"Zutphen","place_name_historic":"Zutphen, Zeulich","place_type":"settlement","date":"1585-06","date_year":1585,"date_month":6,"date_day":0,"date_orig_text":"sans date","duration":null},"geometry":{"type":"point","coordinates":[6.214120566323716,52.14331115951511]}},{"type":"Feature","properties":{"source_id":"SRC000877","event_no":"8","event_type":"fair_calendar","place_id":"PLC000225","place_name_modern":"Zürich","place_name_historic":"Zürich, Zurich","place_type":"settlement","date":"1585-06","date_year":1585,"date_month":6,"date_day":0,"date_orig_text":"14 tag nach Pf.[ingsten]","duration":null},"geometry":{"type":"point","coordinates":[8.542085565089215,47.373011068465786]}},{"type":"Feature","properties":{"source_id":"SRC000877","event_no":"9","event_type":"fair_calendar","place_id":"PLC004901","place_name_modern":"València","place_name_historic":"València, Valencia","place_type":"settlement","date":"1585-06","date_year":1585,"date_month":6,"date_day":0,"date_orig_text":"sans date","duration":null},"geometry":{"type":"point","coordinates":[-0.375285,39.467313]}},{"type":"Feature","properties":{"source_id":"SRC000877","event_no":"10","event_type":"fair_calendar","place_id":"PLC004147","place_name_modern":"Wroclaw","place_name_historic":"Wroclaw, Presla, Breslau, Breslaw","place_type":"settlement","date":"1585-06-24","date_year":1585,"date_month":6,"date_day":24,"date_orig_text":"Joh[ann]. Bap.[tista]","duration":null},"geometry":{"type":"point","coordinates":[17.034468311946632,51.107270165385934]}},{"type":"Feature","properties":{"source_id":"SRC000877","event_no":"11","event_type":"fair_calendar","place_id":"PLC001471","place_name_modern":"Hamburg","place_name_historic":"Hamburg, HAMBORG","place_type":"settlement","date":"1585-06-15","date_year":1585,"date_month":6,"date_day":15,"date_orig_text":"Viti","duration":null},"geometry":{"type":"point","coordinates":[9.992010381983704,53.55190784717287]}},{"type":"Feature","properties":{"source_id":"SRC000877","event_no":"12","event_type":"fair_calendar","place_id":"PLC000006","place_name_modern":"Nijmegen","place_name_historic":"Nijmegen, Nymegen, Nimegen, Nimmegen; Megen, unlabeled","place_type":"settlement","date":"1585-06","date_year":1585,"date_month":6,"date_day":0,"date_orig_text":"sans date","duration":null},"geometry":{"type":"point","coordinates":[5.838746010305109,51.82766879966484]}},{"type":"Feature","properties":{"source_id":"SRC000877","event_no":"13","event_type":"fair_calendar","place_id":"PLC002767","place_name_modern":"Roma","place_name_historic":"Roma","place_type":"settlement","date":"1585-06","date_year":1585,"date_month":6,"date_day":0,"date_orig_text":"sans date","duration":null},"geometry":{"type":"point","coordinates":[12.475752073096874,41.88768515603828]}},{"type":"Feature","properties":{"source_id":"SRC000877","event_no":"14","event_type":"fair_calendar","place_id":"PLC001623","place_name_modern":"Rostock","place_name_historic":"Rostock","place_type":"settlement","date":"1585-06","date_year":1585,"date_month":6,"date_day":0,"date_orig_text":"Trinit[atis]","duration":null},"geometry":{"type":"point","coordinates":[12.138399699553714,54.08824428507984]}},{"type":"Feature","properties":{"source_id":"SRC000877","event_no":"15","event_type":"fair_calendar","place_id":"PLC002033","place_name_modern":"Zwickau","place_name_historic":"Zwickau, Zwicka","place_type":"settlement","date":"1585-06","date_year":1585,"date_month":6,"date_day":0,"date_orig_text":"Tinitat[is]","duration":null},"geometry":{"type":"point","coordinates":[12.495202370611768,50.71924274409014]}},{"type":"Feature","properties":{"source_id":"SRC000877","event_no":"16","event_type":"fair_calendar","place_id":"PLC000344","place_name_modern":"Marseille","place_name_historic":"Marseille, MARSILIA","place_type":"settlement","date":"1585-06","date_year":1585,"date_month":6,"date_day":0,"date_orig_text":"sans date","duration":null},"geometry":{"type":"point","coordinates":[5.3712441977697,43.30071202892792]}},{"type":"Feature","properties":{"source_id":"SRC000878","event_no":"1","event_type":"fair_calendar","place_id":"PLC005651","place_name_modern":"Middelburg","place_name_historic":"","place_type":"settlement","date":"1585-07","date_year":1585,"date_month":7,"date_day":0,"date_orig_text":"sans date","duration":null},"geometry":{"type":"point","coordinates":[3.41595,51.25608]}},{"type":"Feature","properties":{"source_id":"SRC000878","event_no":"2","event_type":"fair_calendar","place_id":"PLC002215","place_name_modern":"Augsburg","place_name_historic":"Augsburg, AUGSBURG, Augspurg","place_type":"settlement","date":"1585-07-04","date_year":1585,"date_month":7,"date_day":4,"date_orig_text":"S.[ankt] Vlr.[ich]","duration":null},"geometry":{"type":"point","coordinates":[10.893103101485123,48.3707762940575]}},{"type":"Feature","properties":{"source_id":"SRC000878","event_no":"3","event_type":"fair_calendar","place_id":"PLC000591","place_name_modern":"Calais","place_name_historic":"Calais, CALAS, Cales","place_type":"settlement","date":"1585-07","date_year":1585,"date_month":7,"date_day":0,"date_orig_text":"sans date","duration":null},"geometry":{"type":"point","coordinates":[1.859171389536524,50.952352177673006]}},{"type":"Feature","properties":{"source_id":"SRC000878","event_no":"4","event_type":"fair_calendar","place_id":"PLC003062","place_name_modern":"Firenze","place_name_historic":"Fierenze, FLORENCIA, Fiorenza","place_type":"settlement","date":"1585-07","date_year":1585,"date_month":7,"date_day":0,"date_orig_text":"sans date","duration":null},"geometry":{"type":"point","coordinates":[11.255248675965612,43.77312735534385]}},{"type":"Feature","properties":{"source_id":"SRC000878","event_no":"5","event_type":"fair_calendar","place_id":"PLC003352","place_name_modern":"Krems an der Donau","place_name_historic":"Krems an der Donau, Krems, Crembs","place_type":"settlement","date":"1585-07-25","date_year":1585,"date_month":7,"date_day":25,"date_orig_text":"Jacobi","duration":null},"geometry":{"type":"point","coordinates":[15.60768377526018,48.40654638747437]}},{"type":"Feature","properties":{"source_id":"SRC000878","event_no":"6","event_type":"fair_calendar","place_id":"PLC002171","place_name_modern":"München","place_name_historic":"München, MUNGEN, Munchen","place_type":"settlement","date":"1585-07-25","date_year":1585,"date_month":7,"date_day":25,"date_orig_text":"Jacobi","duration":null},"geometry":{"type":"point","coordinates":[11.575561896285542,48.1372432211546]}},{"type":"Feature","properties":{"source_id":"SRC000878","event_no":"7","event_type":"fair_calendar","place_id":"PLC001923","place_name_modern":"Rothenburg ob der Tauber","place_name_historic":"Rothenburg ob der Tauber, Rotnburg, Rotenburg","place_type":"settlement","date":"1585-07-25","date_year":1585,"date_month":7,"date_day":25,"date_orig_text":"J.[acobi]","duration":null},"geometry":{"type":"point","coordinates":[10.184761887468422,49.37593424961579]}},{"type":"Feature","properties":{"source_id":"SRC000878","event_no":"8","event_type":"fair_calendar","place_id":"PLC000212","place_name_modern":"Überlingen","place_name_historic":"Überlingen, Uberlingen","place_type":"settlement","date":"1585-07","date_year":1585,"date_month":7,"date_day":0,"date_orig_text":"S.[ankt] Vl[rich]","duration":null},"geometry":{"type":"point","coordinates":[9.16577894445165,47.76702161249852]}},{"type":"Feature","properties":{"source_id":"SRC000878","event_no":"9","event_type":"fair_calendar","place_id":"PLC001905","place_name_modern":"Würzburg","place_name_historic":"Würzburg, Würzpg, Würtzburg, Wurtzburg; Wirtzburg","place_type":"settlement","date":"1585-07-08","date_year":1585,"date_month":7,"date_day":8,"date_orig_text":"Kiliani","duration":null},"geometry":{"type":"point","coordinates":[9.931880566467216,49.79269425949147]}},{"type":"Feature","properties":{"source_id":"SRC000878","event_no":"10","event_type":"fair_calendar","place_id":"PLC002730","place_name_modern":"Bologna","place_name_historic":"Bologna, Bononia","place_type":"settlement","date":"1585-07","date_year":1585,"date_month":7,"date_day":0,"date_orig_text":"sans date","duration":null},"geometry":{"type":"point","coordinates":[11.343363758061196,44.493908618234386]}},{"type":"Feature","properties":{"source_id":"SRC000878","event_no":"11","event_type":"fair_calendar","place_id":"PLC000121","place_name_modern":"Leuven [Löwen]","place_name_historic":", Löwen, Loeuen; Lueuen, Louvain","place_type":"settlement","date":"1585-07","date_year":1585,"date_month":7,"date_day":0,"date_orig_text":"sans date","duration":null},"geometry":{"type":"point","coordinates":[4.702133823350364,50.87893607245642]}},{"type":"Feature","properties":{"source_id":"SRC000878","event_no":"12","event_type":"fair_calendar","place_id":"PLC000529","place_name_modern":"Ypres","place_name_historic":"Ypres, Ypera, Iperen, Ipren","place_type":"settlement","date":"1585-07","date_year":1585,"date_month":7,"date_day":0,"date_orig_text":"sans date","duration":null},"geometry":{"type":"point","coordinates":[2.88897478356826,50.85100321024055]}},{"type":"Feature","properties":{"source_id":"SRC000878","event_no":"13","event_type":"fair_calendar","place_id":"PLC003474","place_name_modern":"Frankfurt Oder","place_name_historic":"Frankfurt an der Oder, Frankfurt, Franckfurt","place_type":"settlement","date":"1585-07-20","date_year":1585,"date_month":7,"date_day":20,"date_orig_text":"Marg[arethe]","duration":null},"geometry":{"type":"point","coordinates":[14.554735596537304,52.346012207043074]}},{"type":"Feature","properties":{"source_id":"SRC000878","event_no":"14","event_type":"fair_calendar","place_id":"PLC005652","place_name_modern":"Lund","place_name_historic":"","place_type":"settlement","date":"1585-07","date_year":1585,"date_month":7,"date_day":0,"date_orig_text":"sans date","duration":null},"geometry":{"type":"point","coordinates":[13.19321,55.70584]}},{"type":"Feature","properties":{"source_id":"SRC000878","event_no":"15","event_type":"fair_calendar","place_id":"PLC003296","place_name_modern":"Lucca","place_name_historic":"Lucca, Luca","place_type":"settlement","date":"1585-07","date_year":1585,"date_month":7,"date_day":0,"date_orig_text":"sans date","duration":null},"geometry":{"type":"point","coordinates":[10.50699972331629,43.83752638853935]}},{"type":"Feature","properties":{"source_id":"SRC000878","event_no":"16","event_type":"fair_calendar","place_id":"PLC002034","place_name_modern":"Annaberg","place_name_historic":"Annaberg, Anenberg","place_type":"settlement","date":"1585-07-25","date_year":1585,"date_month":7,"date_day":25,"date_orig_text":"Jacobi","duration":null},"geometry":{"type":"point","coordinates":[13.01132788904598,50.58054987531258]}},{"type":"Feature","properties":{"source_id":"SRC000879","event_no":"1","event_type":"fair_calendar","place_id":"PLC000406","place_name_modern":"Lyon","place_name_historic":", Lyon, Leon, Lion","place_type":"settlement","date":"1585-08-15","date_year":1585,"date_month":8,"date_day":15,"date_orig_text":"M.[ariä] him.[mmelfahrt]","duration":null},"geometry":{"type":"point","coordinates":[4.832640613902609,45.758817110591664]}},{"type":"Feature","properties":{"source_id":"SRC000879","event_no":"2","event_type":"fair_calendar","place_id":"PLC002036","place_name_modern":"Hof","place_name_historic":"Hof, Hoff","place_type":"settlement","date":"1585-08-10","date_year":1585,"date_month":8,"date_day":10,"date_orig_text":"Laur.[entius]","duration":null},"geometry":{"type":"point","coordinates":[11.914486845556718,50.31379172638024]}},{"type":"Feature","properties":{"source_id":"SRC000879","event_no":"3","event_type":"fair_calendar","place_id":"PLC003370","place_name_modern":"Landshut","place_name_historic":"Landshut, LACZHUT","place_type":"settlement","date":"1585-08-24","date_year":1585,"date_month":8,"date_day":24,"date_orig_text":"Barthol[omäus]","duration":null},"geometry":{"type":"point","coordinates":[12.15185994797194,48.53641918230154]}},{"type":"Feature","properties":{"source_id":"SRC000879","event_no":"4","event_type":"fair_calendar","place_id":"PLC003345","place_name_modern":"Linz","place_name_historic":"Linz, UNCZ, Lintz, Lincs","place_type":"settlement","date":"1585-05-24","date_year":1585,"date_month":5,"date_day":24,"date_orig_text":"Barth[omäus]","duration":null},"geometry":{"type":"point","coordinates":[14.286684102572764,48.30560216143704]}},{"type":"Feature","properties":{"source_id":"SRC000879","event_no":"5","event_type":"fair_calendar","place_id":"PLC000307","place_name_modern":"Genova","place_name_historic":"Genova, GNVA, Genoa","place_type":"settlement","date":"1585-08","date_year":1585,"date_month":8,"date_day":0,"date_orig_text":"sans date","duration":null},"geometry":{"type":"point","coordinates":[8.919970070544252,44.410872154601535]}},{"type":"Feature","properties":{"source_id":"SRC000879","event_no":"6","event_type":"fair_calendar","place_id":"PLC002022","place_name_modern":"Dresden","place_name_historic":"Dresden, DRESDEN, Dressert, Dresda","place_type":"settlement","date":"1585-08-24","date_year":1585,"date_month":8,"date_day":24,"date_orig_text":"Barth[omäus","duration":null},"geometry":{"type":"point","coordinates":[13.736789314727282,51.04954366143809]}},{"type":"Feature","properties":{"source_id":"SRC000879","event_no":"7","event_type":"fair_calendar","place_id":"PLC002161","place_name_modern":"Bruneck","place_name_historic":"Bruneck, Brunegk","place_type":"settlement","date":"1585-08-10","date_year":1585,"date_month":8,"date_day":10,"date_orig_text":"Lauren.[tius]","duration":null},"geometry":{"type":"point","coordinates":[11.925781522116312,46.794484200591384]}},{"type":"Feature","properties":{"source_id":"SRC000879","event_no":"8","event_type":"fair_calendar","place_id":"PLC003069","place_name_modern":"Aachen","place_name_historic":"Aachen, Ach, Acken, Aken, Aix la Chapelle","place_type":"settlement","date":"1585-08","date_year":1585,"date_month":8,"date_day":0,"date_orig_text":"sans date","duration":null},"geometry":{"type":"point","coordinates":[6.083960295768224,50.77318544274861]}},{"type":"Feature","properties":{"source_id":"SRC000879","event_no":"9","event_type":"fair_calendar","place_id":"PLC005313","place_name_modern":"Namur","place_name_historic":"","place_type":"settlement","date":"1585-08","date_year":1585,"date_month":8,"date_day":0,"date_orig_text":"sans date","duration":null},"geometry":{"type":"point","coordinates":[4.866561064393576,50.46380527899955]}},{"type":"Feature","properties":{"source_id":"SRC000879","event_no":"10","event_type":"fair_calendar","place_id":"PLC001657","place_name_modern":"Amsterdam","place_name_historic":"Amsterdam, AMSTARDA, Amstardam","place_type":"settlement","date":"1585-08","date_year":1585,"date_month":8,"date_day":0,"date_orig_text":"sans date","duration":null},"geometry":{"type":"point","coordinates":[4.907129177414069,52.37791570848451]}},{"type":"Feature","properties":{"source_id":"SRC000879","event_no":"11","event_type":"fair_calendar","place_id":"PLC000364","place_name_modern":"Avignon","place_name_historic":"Avignon, AVINION, Avinion","place_type":"settlement","date":"1585-08","date_year":1585,"date_month":8,"date_day":0,"date_orig_text":"sans date","duration":null},"geometry":{"type":"point","coordinates":[4.805265324707778,43.944598690336925]}},{"type":"Feature","properties":{"source_id":"SRC000879","event_no":"12","event_type":"fair_calendar","place_id":"PLC002090","place_name_modern":"Regensburg","place_name_historic":"Regensburg, REGENSBURG, Regenspurg","place_type":"settlement","date":"1585-09-22","date_year":1585,"date_month":9,"date_day":22,"date_orig_text":"S.[ankt] Hamaran.[i ?]","duration":null},"geometry":{"type":"point","coordinates":[12.098416655612326,49.02550547803124]}},{"type":"Feature","properties":{"source_id":"SRC000879","event_no":"13","event_type":"fair_calendar","place_id":"PLC005653","place_name_modern":"Tolosa","place_name_historic":"","place_type":"settlement","date":"1585-08","date_year":1585,"date_month":8,"date_day":0,"date_orig_text":"sans date","duration":null},"geometry":{"type":"point","coordinates":[-2.0750946,43.1347544]}},{"type":"Feature","properties":{"source_id":"SRC000879","event_no":"14","event_type":"fair_calendar","place_id":"PLC005654","place_name_modern":"Riga","place_name_historic":"","place_type":"settlement","date":"1585-08","date_year":1585,"date_month":8,"date_day":0,"date_orig_text":"sans date","duration":null},"geometry":{"type":"point","coordinates":[24.105078,56.946285]}},{"type":"Feature","properties":{"source_id":"SRC000879","event_no":"15","event_type":"fair_calendar","place_id":"PLC004147","place_name_modern":"Wroclaw","place_name_historic":"Wroclaw, Presla, Breslau, Breslaw","place_type":"settlement","date":"1585-09-14","date_year":1585,"date_month":9,"date_day":14,"date_orig_text":"Cr[eutz] erh.[ebung]","duration":null},"geometry":{"type":"point","coordinates":[17.034468311946632,51.107270165385934]}},{"type":"Feature","properties":{"source_id":"SRC000879","event_no":"16","event_type":"fair_calendar","place_id":"PLC000225","place_name_modern":"Zürich","place_name_historic":"Zürich, Zurich","place_type":"settlement","date":"1585-09-12","date_year":1585,"date_month":9,"date_day":12,"date_orig_text":"12 sept.","duration":null},"geometry":{"type":"point","coordinates":[8.542085565089215,47.373011068465786]}},{"type":"Feature","properties":{"source_id":"SRC000880","event_no":"1","event_type":"fair_calendar","place_id":"PLC000113","place_name_modern":"Antwerpen","place_name_historic":", Antwerpen, Antverpe","place_type":"settlement","date":"1585-09-01","date_year":1585,"date_month":9,"date_day":1,"date_orig_text":"Egydi","duration":null},"geometry":{"type":"point","coordinates":[4.399684477601141,51.22083350522394]}},{"type":"Feature","properties":{"source_id":"SRC000880","event_no":"2","event_type":"fair_calendar","place_id":"PLC002065","place_name_modern":"Amberg","place_name_historic":"Amberg","place_type":"settlement","date":"1585-09-21","date_year":1585,"date_month":9,"date_day":21,"date_orig_text":"Matthei","duration":null},"geometry":{"type":"point","coordinates":[11.856817136629498,49.445381792938804]}},{"type":"Feature","properties":{"source_id":"SRC000880","event_no":"3","event_type":"fair_calendar","place_id":"PLC002215","place_name_modern":"Augsburg","place_name_historic":"Augsburg, AUGSBURG, Augspurg","place_type":"settlement","date":"1585-09-29","date_year":1585,"date_month":9,"date_day":29,"date_orig_text":"Michael.[is]","duration":null},"geometry":{"type":"point","coordinates":[10.893103101485123,48.3707762940575]}},{"type":"Feature","properties":{"source_id":"SRC000880","event_no":"4","event_type":"fair_calendar","place_id":"PLC001471","place_name_modern":"Hamburg","place_name_historic":"Hamburg, HAMBORG","place_type":"settlement","date":"1585-09","date_year":1585,"date_month":9,"date_day":0,"date_orig_text":"sans date","duration":null},"geometry":{"type":"point","coordinates":[9.992010381983704,53.55190784717287]}},{"type":"Feature","properties":{"source_id":"SRC000880","event_no":"5","event_type":"fair_calendar","place_id":"PLC000214","place_name_modern":"Konstanz","place_name_historic":"Konstanz, COSTNICZ, Cosenitz, Constentz; Costnitz, Constanza","place_type":"settlement","date":"1585-09-09","date_year":1585,"date_month":9,"date_day":9,"date_orig_text":"9. Sept.","duration":null},"geometry":{"type":"point","coordinates":[9.177387497762808,47.666933063204986]}},{"type":"Feature","properties":{"source_id":"SRC000880","event_no":"6","event_type":"fair_calendar","place_id":"PLC001608","place_name_modern":"Eger","place_name_historic":"Eger, Egra","place_type":"settlement","date":"1585-09","date_year":1585,"date_month":9,"date_day":0,"date_orig_text":"S.[ontag] n.[ach] Ma[tthei]","duration":null},"geometry":{"type":"point","coordinates":[12.363292335012977,50.079648451242846]}},{"type":"Feature","properties":{"source_id":"SRC000880","event_no":"7","event_type":"fair_calendar","place_id":"PLC000043","place_name_modern":"Frankfurt Main","place_name_historic":"Frankfurt am Main, Frankfurt, Franckfurt Main, Francfurt; Francfort, Francfort","place_type":"settlement","date":"1585-09","date_year":1585,"date_month":9,"date_day":0,"date_orig_text":"M.ge","duration":null},"geometry":{"type":"point","coordinates":[8.673089014562553,50.10997055280276]}},{"type":"Feature","properties":{"source_id":"SRC000880","event_no":"8","event_type":"fair_calendar","place_id":"PLC004756","place_name_modern":"Bozen [Bolzano]","place_name_historic":"Bozen [Bolzano]","place_type":"settlement","date":"1585-09-01","date_year":1585,"date_month":9,"date_day":1,"date_orig_text":"Egidi","duration":null},"geometry":{"type":"point","coordinates":[11.354967819139139,46.49655837493802]}},{"type":"Feature","properties":{"source_id":"SRC000880","event_no":"9","event_type":"fair_calendar","place_id":"PLC002100","place_name_modern":"Ingolstadt","place_name_historic":"Ingolstadt, Inglstad, Ingelstadt, Inzelstat","place_type":"settlement","date":"1585-09-21","date_year":1585,"date_month":9,"date_day":21,"date_orig_text":"Math.[ei]","duration":null},"geometry":{"type":"point","coordinates":[11.424291137914336,48.765191725161]}},{"type":"Feature","properties":{"source_id":"SRC000880","event_no":"10","event_type":"fair_calendar","place_id":"PLC002186","place_name_modern":"Memmingen","place_name_historic":"Memmingen, Memingen","place_type":"settlement","date":"1585-09-21","date_year":1585,"date_month":9,"date_day":21,"date_orig_text":"Matthei","duration":null},"geometry":{"type":"point","coordinates":[10.15915251527869,47.99004671498059]}},{"type":"Feature","properties":{"source_id":"SRC000880","event_no":"11","event_type":"fair_calendar","place_id":"PLC002859","place_name_modern":"Salzburg","place_name_historic":"Salzburg, SALCZBURG, Saltzburg","place_type":"settlement","date":"1585-09-21","date_year":1585,"date_month":9,"date_day":21,"date_orig_text":"Matthei","duration":null},"geometry":{"type":"point","coordinates":[13.042854454362358,47.79948177177722]}},{"type":"Feature","properties":{"source_id":"SRC000880","event_no":"12","event_type":"fair_calendar","place_id":"PLC002064","place_name_modern":"Nürnberg","place_name_historic":"Nürnberg, NURNBERG, Nuremberg","place_type":"settlement","date":"1585-09-01","date_year":1585,"date_month":9,"date_day":1,"date_orig_text":"Egidi","duration":null},"geometry":{"type":"point","coordinates":[11.076277748527682,49.45272813262063]}},{"type":"Feature","properties":{"source_id":"SRC000880","event_no":"13","event_type":"fair_calendar","place_id":"PLC003644","place_name_modern":"Wangen im Allgäu","place_name_historic":"Wangen im Allgäu, Wangen","place_type":"settlement","date":"1585-09-21","date_year":1585,"date_month":9,"date_day":21,"date_orig_text":"Matthei","duration":null},"geometry":{"type":"point","coordinates":[9.82926675139476,47.68630337547671]}},{"type":"Feature","properties":{"source_id":"SRC000880","event_no":"14","event_type":"fair_calendar","place_id":"PLC001905","place_name_modern":"Würzburg","place_name_historic":"Würzburg, Würzpg, Würtzburg, Wurtzburg; Wirtzburg","place_type":"settlement","date":"1585-09-29","date_year":1585,"date_month":9,"date_day":29,"date_orig_text":"Michael","duration":null},"geometry":{"type":"point","coordinates":[9.931880566467216,49.79269425949147]}},{"type":"Feature","properties":{"source_id":"SRC000881","event_no":"1","event_type":"fair_calendar","place_id":"PLC001243","place_name_modern":"Basel","place_name_historic":"Basel, Basle, PASEL, Bassel, Basilea","place_type":"settlement","date":"1585-10-28","date_year":1585,"date_month":10,"date_day":28,"date_orig_text":"Si[mon] Jud.[e]","duration":null},"geometry":{"type":"point","coordinates":[7.585919621522472,47.5585013916897]}},{"type":"Feature","properties":{"source_id":"SRC000881","event_no":"2","event_type":"fair_calendar","place_id":"PLC002223","place_name_modern":"Dinkelsbühl","place_name_historic":"Dinkelsbühl, Dunkelsbuhl, Dunkelspil, Dinckelsbuhl","place_type":"settlement","date":"1585-10-21","date_year":1585,"date_month":10,"date_day":21,"date_orig_text":"Ursula","duration":null},"geometry":{"type":"point","coordinates":[10.322550551930233,49.07041288691291]}},{"type":"Feature","properties":{"source_id":"SRC000881","event_no":"3","event_type":"fair_calendar","place_id":"PLC001977","place_name_modern":"Lüneburg","place_name_historic":"Lüneburg, LUNEBORG, Lunenburg","place_type":"settlement","date":"1585-10","date_year":1585,"date_month":10,"date_day":0,"date_orig_text":"sans date","duration":null},"geometry":{"type":"point","coordinates":[10.410753773147903,53.25067868556676]}},{"type":"Feature","properties":{"source_id":"SRC000881","event_no":"4","event_type":"fair_calendar","place_id":"PLC003352","place_name_modern":"Krems an der Donau","place_name_historic":"Krems an der Donau, Krems, Crembs","place_type":"settlement","date":"1585-10-28","date_year":1585,"date_month":10,"date_day":28,"date_orig_text":"Sim.[on] Jud[e].","duration":null},"geometry":{"type":"point","coordinates":[15.60768377526018,48.40654638747437]}},{"type":"Feature","properties":{"source_id":"SRC000881","event_no":"5","event_type":"fair_calendar","place_id":"PLC001568","place_name_modern":"Leipzig","place_name_historic":"Leipzig, LIPCZ","place_type":"settlement","date":"1585-10","date_year":1585,"date_month":10,"date_day":0,"date_orig_text":"S.[onntag] n.[ach] Mi.[chalis]","duration":null},"geometry":{"type":"point","coordinates":[12.374406700864903,51.34030646147477]}},{"type":"Feature","properties":{"source_id":"SRC000881","event_no":"6","event_type":"fair_calendar","place_id":"PLC000209","place_name_modern":"Lindau","place_name_historic":"Lindau, Lindaw","place_type":"settlement","date":"1585-10-28","date_year":1585,"date_month":10,"date_day":28,"date_orig_text":"Si.[mon] J.[ude]","duration":null},"geometry":{"type":"point","coordinates":[9.682967456621624,47.54644077181661]}},{"type":"Feature","properties":{"source_id":"SRC000881","event_no":"7","event_type":"fair_calendar","place_id":"PLC000263","place_name_modern":"Luzern","place_name_historic":"Luzern, LUCERN, Lucer, Lucern, Lucerna","place_type":"settlement","date":"1585-10-02","date_year":1585,"date_month":10,"date_day":2,"date_orig_text":"2. Octob.[ris]","duration":null},"geometry":{"type":"point","coordinates":[8.300975853684587,47.05082258401305]}},{"type":"Feature","properties":{"source_id":"SRC000881","event_no":"8","event_type":"fair_calendar","place_id":"PLC000217","place_name_modern":"St. Gallen","place_name_historic":"St. Gallen, S. Galn, S. Gall","place_type":"settlement","date":"1585-10-16","date_year":1585,"date_month":10,"date_day":16,"date_orig_text":"Gal.[lus]","duration":null},"geometry":{"type":"point","coordinates":[9.376679649666206,47.42463813888547]}},{"type":"Feature","properties":{"source_id":"SRC000881","event_no":"9","event_type":"fair_calendar","place_id":"PLC000227","place_name_modern":"Schwyz","place_name_historic":"Schwyz, Suiz","place_type":"settlement","date":"1585-10-16","date_year":1585,"date_month":10,"date_day":16,"date_orig_text":"S.[ankt] Gall.[us]","duration":null},"geometry":{"type":"point","coordinates":[8.664473871708935,47.02815862980513]}},{"type":"Feature","properties":{"source_id":"SRC000881","event_no":"10","event_type":"fair_calendar","place_id":"PLC000212","place_name_modern":"Überlingen","place_name_historic":"Überlingen, Uberlingen","place_type":"settlement","date":"1585-10-21","date_year":1585,"date_month":10,"date_day":21,"date_orig_text":"S.[ankta] Ursula","duration":null},"geometry":{"type":"point","coordinates":[9.16577894445165,47.76702161249852]}},{"type":"Feature","properties":{"source_id":"SRC000881","event_no":"11","event_type":"fair_calendar","place_id":"PLC000022","place_name_modern":"Köln","place_name_historic":"Köln, Colen, Coln, Colln, Colonia","place_type":"settlement","date":"1585-11","date_year":1585,"date_month":11,"date_day":0,"date_orig_text":"der.(ou: 8) t.[ag] v.[or] Mar.[tini]","duration":null},"geometry":{"type":"point","coordinates":[6.953663335122004,50.9358156163597]}},{"type":"Feature","properties":{"source_id":"SRC000881","event_no":"12","event_type":"fair_calendar","place_id":"PLC001820","place_name_modern":"Winterthur","place_name_historic":"Winterthur, Winterthür","place_type":"settlement","date":"1585-10-08","date_year":1585,"date_month":10,"date_day":8,"date_orig_text":"Do.[nnerstag] v.[or] Ga.[lli]","duration":null},"geometry":{"type":"point","coordinates":[8.738125702384234,47.49549613107648]}},{"type":"Feature","properties":{"source_id":"SRC000881","event_no":"13","event_type":"fair_calendar","place_id":"PLC002059","place_name_modern":"Bamberg","place_name_historic":"Bamberg, BAMBERG","place_type":"settlement","date":"1585-10-09","date_year":1585,"date_month":10,"date_day":9,"date_orig_text":"Dion.[ysius]","duration":null},"geometry":{"type":"point","coordinates":[10.882052171059986,49.890337281309336]}},{"type":"Feature","properties":{"source_id":"SRC000881","event_no":"14","event_type":"fair_calendar","place_id":"PLC003336","place_name_modern":"Judenburg","place_name_historic":"Judenburg, iudenburg, Iudenburg, Judenborg","place_type":"settlement","date":"1585-10-21","date_year":1585,"date_month":10,"date_day":21,"date_orig_text":"Ursula","duration":null},"geometry":{"type":"point","coordinates":[14.663231858146371,47.16886397880219]}},{"type":"Feature","properties":{"source_id":"SRC000882","event_no":"1","event_type":"fair_calendar","place_id":"PLC004756","place_name_modern":"Bozen [Bolzano]","place_name_historic":"Bozen [Bolzano]","place_type":"settlement","date":"1585-11-30","date_year":1585,"date_month":11,"date_day":30,"date_orig_text":"Andre[as]","duration":null},"geometry":{"type":"point","coordinates":[11.354967819139139,46.49655837493802]}},{"type":"Feature","properties":{"source_id":"SRC000882","event_no":"2","event_type":"fair_calendar","place_id":"PLC002779","place_name_modern":"Napoli","place_name_historic":"Napoli","place_type":"settlement","date":"1585-11","date_year":1585,"date_month":11,"date_day":0,"date_orig_text":"sans date","duration":null},"geometry":{"type":"point","coordinates":[14.271331710262327,40.85545042720592]}},{"type":"Feature","properties":{"source_id":"SRC000882","event_no":"3","event_type":"fair_calendar","place_id":"PLC000230","place_name_modern":"Chur","place_name_historic":"Chur, Chrois","place_type":"settlement","date":"1585-11-11","date_year":1585,"date_month":11,"date_day":11,"date_orig_text":"Mar.[tini]","duration":null},"geometry":{"type":"point","coordinates":[9.51977281621111,46.849592088313315]}},{"type":"Feature","properties":{"source_id":"SRC000882","event_no":"4","event_type":"fair_calendar","place_id":"PLC000214","place_name_modern":"Konstanz","place_name_historic":"Konstanz, COSTNICZ, Cosenitz, Constentz; Costnitz, Constanza","place_type":"settlement","date":"1585-11-26","date_year":1585,"date_month":11,"date_day":26,"date_orig_text":"Conr[adi]","duration":null},"geometry":{"type":"point","coordinates":[9.177387497762808,47.666933063204986]}},{"type":"Feature","properties":{"source_id":"SRC000882","event_no":"5","event_type":"fair_calendar","place_id":"PLC001566","place_name_modern":"Erfurt","place_name_historic":"Erfurt, ERTEVERT","place_type":"settlement","date":"1585-11-01","date_year":1585,"date_month":11,"date_day":1,"date_orig_text":"all.[er] hei.[ligen]","duration":null},"geometry":{"type":"point","coordinates":[11.022879822475867,50.97652627499558]}},{"type":"Feature","properties":{"source_id":"SRC000882","event_no":"6","event_type":"fair_calendar","place_id":"PLC002206","place_name_modern":"Esslingen","place_name_historic":"Esslingen, Esling, Esingen, Eßling","place_type":"settlement","date":"1585-11-25","date_year":1585,"date_month":11,"date_day":25,"date_orig_text":"Cathar[ina]","duration":null},"geometry":{"type":"point","coordinates":[9.306814254058311,48.73053665613219]}},{"type":"Feature","properties":{"source_id":"SRC000882","event_no":"7","event_type":"fair_calendar","place_id":"PLC001267","place_name_modern":"Geneva","place_name_historic":"Geneve, Genefus, GENEVORA, Geneva","place_type":"settlement","date":"1585-11-25","date_year":1585,"date_month":11,"date_day":25,"date_orig_text":"Catha[rina]","duration":null},"geometry":{"type":"point","coordinates":[6.146025385329027,46.202093660486575]}},{"type":"Feature","properties":{"source_id":"SRC000882","event_no":"8","event_type":"fair_calendar","place_id":"PLC002159","place_name_modern":"Brixen","place_name_historic":"Brixen, Brixn","place_type":"settlement","date":"1585-11-01","date_year":1585,"date_month":11,"date_day":1,"date_orig_text":"all.[er] hei.[ligen]","duration":null},"geometry":{"type":"point","coordinates":[11.656684455255219,46.716490683407756]}},{"type":"Feature","properties":{"source_id":"SRC000882","event_no":"9","event_type":"fair_calendar","place_id":"PLC000406","place_name_modern":"Lyon","place_name_historic":", Lyon, Leon, Lion","place_type":"settlement","date":"1585-11-01","date_year":1585,"date_month":11,"date_day":1,"date_orig_text":"om[ni]. sa[ntis]","duration":null},"geometry":{"type":"point","coordinates":[4.832640613902609,45.758817110591664]}},{"type":"Feature","properties":{"source_id":"SRC000882","event_no":"10","event_type":"fair_calendar","place_id":"PLC001904","place_name_modern":"Schweinfurt","place_name_historic":"Schweinfurt, Sveinfurt, Schwenfurth","place_type":"settlement","date":"1585-11","date_year":1585,"date_month":11,"date_day":0,"date_orig_text":"Elisabeth","duration":null},"geometry":{"type":"point","coordinates":[10.229612083120939,50.040058676636384]}},{"type":"Feature","properties":{"source_id":"SRC000882","event_no":"11","event_type":"fair_calendar","place_id":"PLC003341","place_name_modern":"Wien","place_name_historic":"Wien, VIEN","place_type":"settlement","date":"1585-11-25","date_year":1585,"date_month":11,"date_day":25,"date_orig_text":"Catha.[rina]","duration":null},"geometry":{"type":"point","coordinates":[16.37305500840773,48.20866498819257]}},{"type":"Feature","properties":{"source_id":"SRC000882","event_no":"12","event_type":"fair_calendar","place_id":"PLC001905","place_name_modern":"Würzburg","place_name_historic":"Würzburg, Würzpg, Würtzburg, Wurtzburg; Wirtzburg","place_type":"settlement","date":"1585-11-01","date_year":1585,"date_month":11,"date_day":1,"date_orig_text":"All.[er] Heil.[igen]","duration":null},"geometry":{"type":"point","coordinates":[9.931880566467216,49.79269425949147]}},{"type":"Feature","properties":{"source_id":"SRC000882","event_no":"13","event_type":"fair_calendar","place_id":"PLC004147","place_name_modern":"Wroclaw","place_name_historic":"Wroclaw, Presla, Breslau, Breslaw","place_type":"settlement","date":"1585-11","date_year":1585,"date_month":11,"date_day":0,"date_orig_text":"Elisab.[eth]","duration":null},"geometry":{"type":"point","coordinates":[17.034468311946632,51.107270165385934]}},{"type":"Feature","properties":{"source_id":"SRC000883","event_no":"1","event_type":"fair_calendar","place_id":"PLC000256","place_name_modern":"Bern","place_name_historic":"Bern, PERN, Berne","place_type":"settlement","date":"1585-12","date_year":1585,"date_month":12,"date_day":0,"date_orig_text":"Ma.[ndag] v.[or] Lu.[cia]","duration":null},"geometry":{"type":"point","coordinates":[7.458990895022672,46.95103869258574]}},{"type":"Feature","properties":{"source_id":"SRC000883","event_no":"2","event_type":"fair_calendar","place_id":"PLC001430","place_name_modern":"Dordrecht","place_name_historic":"Dordrecht, Dort","place_type":"settlement","date":"1585-12","date_year":1585,"date_month":12,"date_day":0,"date_orig_text":"sans date","duration":null},"geometry":{"type":"point","coordinates":[4.683717519496537,51.79998797215713]}},{"type":"Feature","properties":{"source_id":"SRC000883","event_no":"3","event_type":"fair_calendar","place_id":"PLC003617","place_name_modern":"Frauenfeld","place_name_historic":"Frauenfeld, Frwenfeld","place_type":"settlement","date":"1585-12-06","date_year":1585,"date_month":12,"date_day":6,"date_orig_text":"S.[ankt] Nic[(o)laus]","duration":null},"geometry":{"type":"point","coordinates":[8.89486920715262,47.555312242015376]}},{"type":"Feature","properties":{"source_id":"SRC000883","event_no":"4","event_type":"fair_calendar","place_id":"PLC002219","place_name_modern":"Schwäbisch Hall","place_name_historic":"Schwäbisch Hall, Hall","place_type":"settlement","date":"1585-12-25","date_year":1585,"date_month":12,"date_day":25,"date_orig_text":"Weyh.[nacht]","duration":null},"geometry":{"type":"point","coordinates":[9.734418821357528,49.1170509096262]}},{"type":"Feature","properties":{"source_id":"SRC000883","event_no":"5","event_type":"fair_calendar","place_id":"PLC001923","place_name_modern":"Rothenburg ob der Tauber","place_name_historic":"Rothenburg ob der Tauber, Rotnburg, Rotenburg","place_type":"settlement","date":"1585-12-06","date_year":1585,"date_month":12,"date_day":6,"date_orig_text":"N.[icolaus]","duration":null},"geometry":{"type":"point","coordinates":[10.184761887468422,49.37593424961579]}},{"type":"Feature","properties":{"source_id":"SRC000883","event_no":"6","event_type":"fair_calendar","place_id":"PLC000212","place_name_modern":"Überlingen","place_name_historic":"Überlingen, Uberlingen","place_type":"settlement","date":"1585-12-06","date_year":1585,"date_month":12,"date_day":6,"date_orig_text":"S.[ankt] Nic.[olaus]","duration":null},"geometry":{"type":"point","coordinates":[9.16577894445165,47.76702161249852]}},{"type":"Feature","properties":{"source_id":"SRC000883","event_no":"7","event_type":"fair_calendar","place_id":"PLC001684","place_name_modern":"Groningen","place_name_historic":"Groningen, GRONINGEN, Gröningen, Groeninge","place_type":"settlement","date":"1585-12","date_year":1585,"date_month":12,"date_day":0,"date_orig_text":"sans date","duration":null},"geometry":{"type":"point","coordinates":[6.579171199012123,53.216897057679084]}},{"type":"Feature","properties":{"source_id":"SRC000883","event_no":"8","event_type":"fair_calendar","place_id":"PLC001820","place_name_modern":"Winterthur","place_name_historic":"Winterthur, Winterthür","place_type":"settlement","date":"1585-12-21","date_year":1585,"date_month":12,"date_day":21,"date_orig_text":"Thomä","duration":null},"geometry":{"type":"point","coordinates":[8.738125702384234,47.49549613107648]}},{"type":"Feature","properties":{"source_id":"SRC000883","event_no":"9","event_type":"fair_calendar","place_id":"PLC002689","place_name_modern":"Milano","place_name_historic":"Milano, MILAN, Milan","place_type":"settlement","date":"1585-12","date_year":1585,"date_month":12,"date_day":0,"date_orig_text":"sans date","duration":null},"geometry":{"type":"point","coordinates":[9.186166062480389,45.46481698261591]}},{"type":"Feature","properties":{"source_id":"SRC000883","event_no":"10","event_type":"fair_calendar","place_id":"PLC005130","place_name_modern":"Toledo","place_name_historic":"Toledo","place_type":"settlement","date":"1585-12","date_year":1585,"date_month":12,"date_day":0,"date_orig_text":"sans date","duration":null},"geometry":{"type":"point","coordinates":[-4.024211554872561,39.85703209059314]}},{"type":"Feature","properties":{"source_id":"SRC000883","event_no":"11","event_type":"fair_calendar","place_id":"PLC003443","place_name_modern":"Stettin","place_name_historic":"Stettin, Stetin","place_type":"settlement","date":"1585-11-25","date_year":1585,"date_month":11,"date_day":25,"date_orig_text":"Catha.[rina]","duration":null},"geometry":{"type":"point","coordinates":[14.548319195341863,53.42637547219911]}},{"type":"Feature","properties":{"source_id":"SRC000883","event_no":"12","event_type":"fair_calendar","place_id":"PLC001613","place_name_modern":"Stralsund","place_name_historic":"Stralsund, Sund","place_type":"settlement","date":"1585-12","date_year":1585,"date_month":12,"date_day":0,"date_orig_text":"sans date","duration":null},"geometry":{"type":"point","coordinates":[13.087695836387914,54.310457495474985]}},{"type":"Feature","properties":{"source_id":"SRC000883","event_no":"13","event_type":"fair_calendar","place_id":"PLC001506","place_name_modern":"Braunschweig","place_name_historic":"Braunschweig, BRUNSWIG, Braumswyck","place_type":"settlement","date":"1585-12-06","date_year":1585,"date_month":12,"date_day":6,"date_orig_text":"S.[ankt] Nic[olaus]","duration":null},"geometry":{"type":"point","coordinates":[10.523045697465221,52.2647549792667]}}]}