{"type":"FeatureCollection","name":"CoMOR-FairCalendars","collection_id":"COL0020","records":70,"download_user":"admin","download_date":"2026-08-10T18:45:44.359+02:00","readme":"See the readme file included in this download for details about this file.","features":[{"type":"Feature","properties":{"source_id":"SRC000038","event_no":"1","event_type":"fair_calendar","place_id":"PLC000113","place_name_modern":"Antwerpen","place_name_historic":", Antwerpen, Antverpe","place_type":"settlement","date":"1586-02-02","date_year":1586,"date_month":2,"date_day":2,"date_orig_text":"zu Liechtmeß","duration":null},"geometry":{"type":"point","coordinates":[4.399684477601141,51.22083350522394]}},{"type":"Feature","properties":{"source_id":"SRC000038","event_no":"2","event_type":"fair_calendar","place_id":"PLC000113","place_name_modern":"Antwerpen","place_name_historic":", Antwerpen, Antverpe","place_type":"settlement","date":"1586-05-25","date_year":1586,"date_month":5,"date_day":25,"date_orig_text":"zu Pfingsten","duration":null},"geometry":{"type":"point","coordinates":[4.399684477601141,51.22083350522394]}},{"type":"Feature","properties":{"source_id":"SRC000038","event_no":"3","event_type":"fair_calendar","place_id":"PLC000113","place_name_modern":"Antwerpen","place_name_historic":", Antwerpen, Antverpe","place_type":"settlement","date":"1586-09-02","date_year":1586,"date_month":9,"date_day":2,"date_orig_text":"nach Egidij","duration":null},"geometry":{"type":"point","coordinates":[4.399684477601141,51.22083350522394]}},{"type":"Feature","properties":{"source_id":"SRC000038","event_no":"4","event_type":"fair_calendar","place_id":"PLC002215","place_name_modern":"Augsburg","place_name_historic":"Augsburg, AUGSBURG, Augspurg","place_type":"settlement","date":"1586-07-04","date_year":1586,"date_month":7,"date_day":4,"date_orig_text":"auf S. Vlrichs tag","duration":null},"geometry":{"type":"point","coordinates":[10.893103101485123,48.3707762940575]}},{"type":"Feature","properties":{"source_id":"SRC000038","event_no":"5","event_type":"fair_calendar","place_id":"PLC002215","place_name_modern":"Augsburg","place_name_historic":"Augsburg, AUGSBURG, Augspurg","place_type":"settlement","date":"1586-09-29","date_year":1586,"date_month":9,"date_day":29,"date_orig_text":"auff Michalis","duration":null},"geometry":{"type":"point","coordinates":[10.893103101485123,48.3707762940575]}},{"type":"Feature","properties":{"source_id":"SRC000038","event_no":"6","event_type":"fair_calendar","place_id":"PLC002065","place_name_modern":"Amberg","place_name_historic":"Amberg","place_type":"settlement","date":"1586-05-25","date_year":1586,"date_month":5,"date_day":25,"date_orig_text":"zu Pfingsten","duration":null},"geometry":{"type":"point","coordinates":[11.856817136629498,49.445381792938804]}},{"type":"Feature","properties":{"source_id":"SRC000038","event_no":"7","event_type":"fair_calendar","place_id":"PLC002065","place_name_modern":"Amberg","place_name_historic":"Amberg","place_type":"settlement","date":"1586-09-21","date_year":1586,"date_month":9,"date_day":21,"date_orig_text":"Sontag Matthei im Herbst","duration":null},"geometry":{"type":"point","coordinates":[11.856817136629498,49.445381792938804]}},{"type":"Feature","properties":{"source_id":"SRC000038","event_no":"8","event_type":"fair_calendar","place_id":"PLC004756","place_name_modern":"Bozen [Bolzano]","place_name_historic":"Bozen [Bolzano]","place_type":"settlement","date":"1586-03-16","date_year":1586,"date_month":3,"date_day":16,"date_orig_text":"zu Mittfasten","duration":null},"geometry":{"type":"point","coordinates":[11.354967819139139,46.49655837493802]}},{"type":"Feature","properties":{"source_id":"SRC000038","event_no":"9","event_type":"fair_calendar","place_id":"PLC004756","place_name_modern":"Bozen [Bolzano]","place_name_historic":"Bozen [Bolzano]","place_type":"settlement","date":"1586-09-01","date_year":1586,"date_month":9,"date_day":1,"date_orig_text":"Egidij","duration":null},"geometry":{"type":"point","coordinates":[11.354967819139139,46.49655837493802]}},{"type":"Feature","properties":{"source_id":"SRC000038","event_no":"10","event_type":"fair_calendar","place_id":"PLC002223","place_name_modern":"Dinkelsbühl","place_name_historic":"Dinkelsbühl, Dunkelsbuhl, Dunkelspil, Dinckelsbuhl","place_type":"settlement","date":"1586-04-23","date_year":1586,"date_month":4,"date_day":23,"date_orig_text":"zu S. Jörgen tag","duration":null},"geometry":{"type":"point","coordinates":[10.322550551930233,49.07041288691291]}},{"type":"Feature","properties":{"source_id":"SRC000038","event_no":"11","event_type":"fair_calendar","place_id":"PLC002223","place_name_modern":"Dinkelsbühl","place_name_historic":"Dinkelsbühl, Dunkelsbuhl, Dunkelspil, Dinckelsbuhl","place_type":"settlement","date":"1586-10-21","date_year":1586,"date_month":10,"date_day":21,"date_orig_text":"auff S. Vrselen tag","duration":null},"geometry":{"type":"point","coordinates":[10.322550551930233,49.07041288691291]}},{"type":"Feature","properties":{"source_id":"SRC000038","event_no":"12","event_type":"fair_calendar","place_id":"PLC001566","place_name_modern":"Erfurt","place_name_historic":"Erfurt, ERTEVERT","place_type":"settlement","date":"1586-05-25","date_year":1586,"date_month":5,"date_day":25,"date_orig_text":"Sontag Pfingsten","duration":null},"geometry":{"type":"point","coordinates":[11.022879822475867,50.97652627499558]}},{"type":"Feature","properties":{"source_id":"SRC000038","event_no":"13","event_type":"fair_calendar","place_id":"PLC001566","place_name_modern":"Erfurt","place_name_historic":"Erfurt, ERTEVERT","place_type":"settlement","date":"1586-11-01","date_year":1586,"date_month":11,"date_day":1,"date_orig_text":"zu aller Heyligen Tag","duration":null},"geometry":{"type":"point","coordinates":[11.022879822475867,50.97652627499558]}},{"type":"Feature","properties":{"source_id":"SRC000038","event_no":"14","event_type":"fair_calendar","place_id":"PLC001608","place_name_modern":"Eger","place_name_historic":"Eger, Egra","place_type":"settlement","date":"1586-06-05","date_year":1586,"date_month":6,"date_day":5,"date_orig_text":"auff vnsers Herren Leichnams tag","duration":null},"geometry":{"type":"point","coordinates":[12.363292335012977,50.079648451242846]}},{"type":"Feature","properties":{"source_id":"SRC000038","event_no":"15","event_type":"fair_calendar","place_id":"PLC001608","place_name_modern":"Eger","place_name_historic":"Eger, Egra","place_type":"settlement","date":"1586-09-14","date_year":1586,"date_month":9,"date_day":14,"date_orig_text":"Sontag vor S. Matheus tag","duration":null},"geometry":{"type":"point","coordinates":[12.363292335012977,50.079648451242846]}},{"type":"Feature","properties":{"source_id":"SRC000038","event_no":"16","event_type":"fair_calendar","place_id":"PLC002206","place_name_modern":"Esslingen","place_name_historic":"Esslingen, Esling, Esingen, Eßling","place_type":"settlement","date":"1586-11-25","date_year":1586,"date_month":11,"date_day":25,"date_orig_text":"an S. Katharin tag","duration":null},"geometry":{"type":"point","coordinates":[9.306814254058311,48.73053665613219]}},{"type":"Feature","properties":{"source_id":"SRC000038","event_no":"17","event_type":"fair_calendar","place_id":"PLC000043","place_name_modern":"Frankfurt Main","place_name_historic":"Frankfurt am Main, Frankfurt, Franckfurt Main, Francfurt; Francfort, Francfort","place_type":"settlement","date":"1586-03-16","date_year":1586,"date_month":3,"date_day":16,"date_orig_text":"zu Mittfasten","duration":null},"geometry":{"type":"point","coordinates":[8.673089014562553,50.10997055280276]}},{"type":"Feature","properties":{"source_id":"SRC000038","event_no":"18","event_type":"fair_calendar","place_id":"PLC000043","place_name_modern":"Frankfurt Main","place_name_historic":"Frankfurt am Main, Frankfurt, Franckfurt Main, Francfurt; Francfort, Francfort","place_type":"settlement","date":"1586-08-25","date_year":1586,"date_month":8,"date_day":25,"date_orig_text":"vierzehen tag nach Bartholomei","duration":"14"},"geometry":{"type":"point","coordinates":[8.673089014562553,50.10997055280276]}},{"type":"Feature","properties":{"source_id":"SRC000038","event_no":"19","event_type":"fair_calendar","place_id":"PLC001454","place_name_modern":"Fulda","place_name_historic":"Fulda, Fuld","place_type":"settlement","date":"1586-06-05","date_year":1586,"date_month":6,"date_day":5,"date_orig_text":"an S. Bonfaci tag","duration":null},"geometry":{"type":"point","coordinates":[9.675917200984884,50.55146517423659]}},{"type":"Feature","properties":{"source_id":"SRC000038","event_no":"20","event_type":"fair_calendar","place_id":"PLC001267","place_name_modern":"Geneva","place_name_historic":"Geneve, Genefus, GENEVORA, Geneva","place_type":"settlement","date":"1586-11-25","date_year":1586,"date_month":11,"date_day":25,"date_orig_text":"Katharine","duration":null},"geometry":{"type":"point","coordinates":[6.146025385329027,46.202093660486575]}},{"type":"Feature","properties":{"source_id":"SRC000038","event_no":"21","event_type":"fair_calendar","place_id":"PLC002142","place_name_modern":"Hall in Tirol","place_name_historic":"Hall in Tirol, Hall, Hel","place_type":"settlement","date":"1586-11-01","date_year":1586,"date_month":11,"date_day":1,"date_orig_text":"an aller Heyligen tag","duration":null},"geometry":{"type":"point","coordinates":[11.508562535022412,47.28103694187015]}},{"type":"Feature","properties":{"source_id":"SRC000038","event_no":"22","event_type":"fair_calendar","place_id":"PLC002036","place_name_modern":"Hof","place_name_historic":"Hof, Hoff","place_type":"settlement","date":"1586-08-10","date_year":1586,"date_month":8,"date_day":10,"date_orig_text":"auff Laurentij","duration":null},"geometry":{"type":"point","coordinates":[11.914486845556718,50.31379172638024]}},{"type":"Feature","properties":{"source_id":"SRC000038","event_no":"23","event_type":"fair_calendar","place_id":"PLC002036","place_name_modern":"Hof","place_name_historic":"Hof, Hoff","place_type":"settlement","date":"1586-01-25","date_year":1586,"date_month":1,"date_day":25,"date_orig_text":"an S. Paulus bekehrung","duration":null},"geometry":{"type":"point","coordinates":[11.914486845556718,50.31379172638024]}},{"type":"Feature","properties":{"source_id":"SRC000038","event_no":"24","event_type":"fair_calendar","place_id":"PLC002219","place_name_modern":"Schwäbisch Hall","place_name_historic":"Schwäbisch Hall, Hall","place_type":"settlement","date":"1586-12-25","date_year":1586,"date_month":12,"date_day":25,"date_orig_text":"zu Weynacht","duration":null},"geometry":{"type":"point","coordinates":[9.734418821357528,49.1170509096262]}},{"type":"Feature","properties":{"source_id":"SRC000038","event_no":"25","event_type":"fair_calendar","place_id":"PLC004213","place_name_modern":"Sankt Joachimsthal [Jáchymov]","place_name_historic":"Sankt Joachimsthal [Jáchymov], Tall, Thall","place_type":"settlement","date":"1586-07-20","date_year":1586,"date_month":7,"date_day":20,"date_orig_text":"Im Joachims thal ist Marck an Sanct Margarethen tag","duration":null},"geometry":{"type":"point","coordinates":[12.935087365203342,50.35841649599272]}},{"type":"Feature","properties":{"source_id":"SRC000038","event_no":"26","event_type":"fair_calendar","place_id":"PLC004213","place_name_modern":"Sankt Joachimsthal [Jáchymov]","place_name_historic":"Sankt Joachimsthal [Jáchymov], Tall, Thall","place_type":"settlement","date":"1586-02-09","date_year":1586,"date_month":2,"date_day":9,"date_orig_text":"Im Joachims thal ist Marck Sonntag nach Lichtmeß","duration":null},"geometry":{"type":"point","coordinates":[12.935087365203342,50.35841649599272]}},{"type":"Feature","properties":{"source_id":"SRC000038","event_no":"27","event_type":"fair_calendar","place_id":"PLC002100","place_name_modern":"Ingolstadt","place_name_historic":"Ingolstadt, Inglstad, Ingelstadt, Inzelstat","place_type":"settlement","date":"1586-06-24","date_year":1586,"date_month":6,"date_day":24,"date_orig_text":"zu S. Johans tag im Sommer","duration":null},"geometry":{"type":"point","coordinates":[11.424291137914336,48.765191725161]}},{"type":"Feature","properties":{"source_id":"SRC000038","event_no":"28","event_type":"fair_calendar","place_id":"PLC002100","place_name_modern":"Ingolstadt","place_name_historic":"Ingolstadt, Inglstad, Ingelstadt, Inzelstat","place_type":"settlement","date":"1586-09-14","date_year":1586,"date_month":9,"date_day":14,"date_orig_text":"Crucis","duration":null},"geometry":{"type":"point","coordinates":[11.424291137914336,48.765191725161]}},{"type":"Feature","properties":{"source_id":"SRC000038","event_no":"29","event_type":"fair_calendar","place_id":"PLC002100","place_name_modern":"Ingolstadt","place_name_historic":"Ingolstadt, Inglstad, Ingelstadt, Inzelstat","place_type":"settlement","date":"1586-02-26","date_year":1586,"date_month":2,"date_day":26,"date_orig_text":"nach Walpurgen","duration":null},"geometry":{"type":"point","coordinates":[11.424291137914336,48.765191725161]}},{"type":"Feature","properties":{"source_id":"SRC000038","event_no":"30","event_type":"fair_calendar","place_id":"PLC001568","place_name_modern":"Leipzig","place_name_historic":"Leipzig, LIPCZ","place_type":"settlement","date":"1586-01-04","date_year":1586,"date_month":1,"date_day":4,"date_orig_text":"Sambstag nach dem newen jar","duration":null},"geometry":{"type":"point","coordinates":[12.374406700864903,51.34030646147477]}},{"type":"Feature","properties":{"source_id":"SRC000038","event_no":"31","event_type":"fair_calendar","place_id":"PLC001568","place_name_modern":"Leipzig","place_name_historic":"Leipzig, LIPCZ","place_type":"settlement","date":"1586-04-26","date_year":1586,"date_month":4,"date_day":26,"date_orig_text":"den dritten Sambstag nach Ostern","duration":null},"geometry":{"type":"point","coordinates":[12.374406700864903,51.34030646147477]}},{"type":"Feature","properties":{"source_id":"SRC000038","event_no":"32","event_type":"fair_calendar","place_id":"PLC001568","place_name_modern":"Leipzig","place_name_historic":"Leipzig, LIPCZ","place_type":"settlement","date":"1586-10-04","date_year":1586,"date_month":10,"date_day":4,"date_orig_text":"an dem Sambstag nach Michaelis","duration":null},"geometry":{"type":"point","coordinates":[12.374406700864903,51.34030646147477]}},{"type":"Feature","properties":{"source_id":"SRC000038","event_no":"33","event_type":"fair_calendar","place_id":"PLC003345","place_name_modern":"Linz","place_name_historic":"Linz, UNCZ, Lintz, Lincs","place_type":"settlement","date":"1586-04-07","date_year":1586,"date_month":4,"date_day":7,"date_orig_text":"acht tag nach Ostern","duration":"8 days"},"geometry":{"type":"point","coordinates":[14.286684102572764,48.30560216143704]}},{"type":"Feature","properties":{"source_id":"SRC000038","event_no":"34","event_type":"fair_calendar","place_id":"PLC003345","place_name_modern":"Linz","place_name_historic":"Linz, UNCZ, Lintz, Lincs","place_type":"settlement","date":"1586-08-24","date_year":1586,"date_month":8,"date_day":24,"date_orig_text":"am 24. tag Augusti","duration":null},"geometry":{"type":"point","coordinates":[14.286684102572764,48.30560216143704]}},{"type":"Feature","properties":{"source_id":"SRC000038","event_no":"35","event_type":"fair_calendar","place_id":"PLC000406","place_name_modern":"Lyon","place_name_historic":", Lyon, Leon, Lion","place_type":"settlement","date":"1586-04-07","date_year":1586,"date_month":4,"date_day":7,"date_orig_text":"acht tag nach Ostern","duration":"8 days"},"geometry":{"type":"point","coordinates":[4.832640613902609,45.758817110591664]}},{"type":"Feature","properties":{"source_id":"SRC000038","event_no":"36","event_type":"fair_calendar","place_id":"PLC000406","place_name_modern":"Lyon","place_name_historic":", Lyon, Leon, Lion","place_type":"settlement","date":"1586-08-14","date_year":1586,"date_month":8,"date_day":14,"date_orig_text":"am 14. tag Augusti","duration":null},"geometry":{"type":"point","coordinates":[4.832640613902609,45.758817110591664]}},{"type":"Feature","properties":{"source_id":"SRC000038","event_no":"37","event_type":"fair_calendar","place_id":"PLC000406","place_name_modern":"Lyon","place_name_historic":", Lyon, Leon, Lion","place_type":"settlement","date":"1586-11-01","date_year":1586,"date_month":11,"date_day":1,"date_orig_text":"an aller Heyligen tag","duration":null},"geometry":{"type":"point","coordinates":[4.832640613902609,45.758817110591664]}},{"type":"Feature","properties":{"source_id":"SRC000038","event_no":"38","event_type":"fair_calendar","place_id":"PLC003370","place_name_modern":"Landshut","place_name_historic":"Landshut, LACZHUT","place_type":"settlement","date":"1586-08-24","date_year":1586,"date_month":8,"date_day":24,"date_orig_text":"Bartholomei","duration":null},"geometry":{"type":"point","coordinates":[12.15185994797194,48.53641918230154]}},{"type":"Feature","properties":{"source_id":"SRC000038","event_no":"39","event_type":"fair_calendar","place_id":"PLC002171","place_name_modern":"München","place_name_historic":"München, MUNGEN, Munchen","place_type":"settlement","date":"1586-07-25","date_year":1586,"date_month":7,"date_day":25,"date_orig_text":"an S. Jacobs tag","duration":null},"geometry":{"type":"point","coordinates":[11.575561896285542,48.1372432211546]}},{"type":"Feature","properties":{"source_id":"SRC000038","event_no":"40","event_type":"fair_calendar","place_id":"PLC002064","place_name_modern":"Nürnberg","place_name_historic":"Nürnberg, NURNBERG, Nuremberg","place_type":"settlement","date":"1586-04-11","date_year":1586,"date_month":4,"date_day":11,"date_orig_text":"am Freytag nach Ostern","duration":null},"geometry":{"type":"point","coordinates":[11.076277748527682,49.45272813262063]}},{"type":"Feature","properties":{"source_id":"SRC000038","event_no":"41","event_type":"fair_calendar","place_id":"PLC002099","place_name_modern":"Nördlingen","place_name_historic":"Nördlingen, Norlingen, Nordlingen","place_type":"settlement","date":"1586-06-05","date_year":1586,"date_month":6,"date_day":5,"date_orig_text":"auff vnsers Herren Leichnams tag","duration":null},"geometry":{"type":"point","coordinates":[10.49236007556872,48.8501423347542]}},{"type":"Feature","properties":{"source_id":"SRC000038","event_no":"42","event_type":"fair_calendar","place_id":"PLC002099","place_name_modern":"Nördlingen","place_name_historic":"Nördlingen, Norlingen, Nordlingen","place_type":"settlement","date":"1586-01-15","date_year":1586,"date_month":1,"date_day":15,"date_orig_text":"14. tag nach dem Neuwen Jahr","duration":null},"geometry":{"type":"point","coordinates":[10.49236007556872,48.8501423347542]}},{"type":"Feature","properties":{"source_id":"SRC000038","event_no":"43","event_type":"fair_calendar","place_id":"PLC001580","place_name_modern":"Naumburg","place_name_historic":"Naumburg, Nauburg","place_type":"settlement","date":"1586-06-29","date_year":1586,"date_month":6,"date_day":29,"date_orig_text":"Petri und Pauli","duration":null},"geometry":{"type":"point","coordinates":[11.812366154582973,51.15156434997887]}},{"type":"Feature","properties":{"source_id":"SRC000038","event_no":"44","event_type":"fair_calendar","place_id":"PLC000504","place_name_modern":"Paris","place_name_historic":"Paris, PARISIUS","place_type":"settlement","date":"1586-01-06","date_year":1586,"date_month":1,"date_day":6,"date_orig_text":"an der hey. drey Kön. tag","duration":null},"geometry":{"type":"point","coordinates":[2.350731157935796,48.855283980547]}},{"type":"Feature","properties":{"source_id":"SRC000038","event_no":"45","event_type":"fair_calendar","place_id":"PLC004105","place_name_modern":"Praha","place_name_historic":"Praha, Prag","place_type":"settlement","date":"1586-09-28","date_year":1586,"date_month":9,"date_day":28,"date_orig_text":"an S. Wenzelaus tag","duration":null},"geometry":{"type":"point","coordinates":[14.421488530828533,50.0871993158607]}},{"type":"Feature","properties":{"source_id":"SRC000038","event_no":"46","event_type":"fair_calendar","place_id":"PLC004105","place_name_modern":"Praha","place_name_historic":"Praha, Prag","place_type":"settlement","date":"1586-02-02","date_year":1586,"date_month":2,"date_day":2,"date_orig_text":"zu Liechtmeß","duration":null},"geometry":{"type":"point","coordinates":[14.421488530828533,50.0871993158607]}},{"type":"Feature","properties":{"source_id":"SRC000038","event_no":"47","event_type":"fair_calendar","place_id":"PLC004105","place_name_modern":"Praha","place_name_historic":"Praha, Prag","place_type":"settlement","date":"1586-06-15","date_year":1586,"date_month":6,"date_day":15,"date_orig_text":"an S. Veits tag","duration":null},"geometry":{"type":"point","coordinates":[14.421488530828533,50.0871993158607]}},{"type":"Feature","properties":{"source_id":"SRC000038","event_no":"48","event_type":"fair_calendar","place_id":"PLC004227","place_name_modern":"Kutna Hora","place_name_historic":"Kutna Hora, Kutnbg, Kuttnberg, Kuttenberg","place_type":"settlement","date":"1586-03-16","date_year":1586,"date_month":3,"date_day":16,"date_orig_text":"zu Mitfasten","duration":null},"geometry":{"type":"point","coordinates":[15.267238704791417,49.9517303822146]}},{"type":"Feature","properties":{"source_id":"SRC000038","event_no":"49","event_type":"fair_calendar","place_id":"PLC004227","place_name_modern":"Kutna Hora","place_name_historic":"Kutna Hora, Kutnbg, Kuttnberg, Kuttenberg","place_type":"settlement","date":"1586-06-05","date_year":1586,"date_month":6,"date_day":5,"date_orig_text":"auff Vnsers Herren Leichnams tag","duration":null},"geometry":{"type":"point","coordinates":[15.267238704791417,49.9517303822146]}},{"type":"Feature","properties":{"source_id":"SRC000038","event_no":"50","event_type":"fair_calendar","place_id":"PLC004227","place_name_modern":"Kutna Hora","place_name_historic":"Kutna Hora, Kutnbg, Kuttnberg, Kuttenberg","place_type":"settlement","date":"1586-02-24","date_year":1586,"date_month":2,"date_day":24,"date_orig_text":"den ersten Montag in der Fasten","duration":null},"geometry":{"type":"point","coordinates":[15.267238704791417,49.9517303822146]}},{"type":"Feature","properties":{"source_id":"SRC000038","event_no":"51","event_type":"fair_calendar","place_id":"PLC002079","place_name_modern":"Pilzen","place_name_historic":"Pilzen, Pilsen","place_type":"settlement","date":"1586-02-24","date_year":1586,"date_month":2,"date_day":24,"date_orig_text":"den ersten montag in der Fasten","duration":null},"geometry":{"type":"point","coordinates":[13.375944575837089,49.74760212248768]}},{"type":"Feature","properties":{"source_id":"SRC000038","event_no":"52","event_type":"fair_calendar","place_id":"PLC002079","place_name_modern":"Pilzen","place_name_historic":"Pilzen, Pilsen","place_type":"settlement","date":"1586-08-24","date_year":1586,"date_month":8,"date_day":24,"date_orig_text":"auff Bartholomei","duration":null},"geometry":{"type":"point","coordinates":[13.375944575837089,49.74760212248768]}},{"type":"Feature","properties":{"source_id":"SRC000038","event_no":"53","event_type":"fair_calendar","place_id":"PLC001923","place_name_modern":"Rothenburg ob der Tauber","place_name_historic":"Rothenburg ob der Tauber, Rotnburg, Rotenburg","place_type":"settlement","date":"1586-08-25","date_year":1586,"date_month":8,"date_day":25,"date_orig_text":"montag nach Bartholomei","duration":null},"geometry":{"type":"point","coordinates":[10.184761887468422,49.37593424961579]}},{"type":"Feature","properties":{"source_id":"SRC000038","event_no":"54","event_type":"fair_calendar","place_id":"PLC001923","place_name_modern":"Rothenburg ob der Tauber","place_name_historic":"Rothenburg ob der Tauber, Rotnburg, Rotenburg","place_type":"settlement","date":"1586-07-25","date_year":1586,"date_month":7,"date_day":25,"date_orig_text":"Jacobi","duration":null},"geometry":{"type":"point","coordinates":[10.184761887468422,49.37593424961579]}},{"type":"Feature","properties":{"source_id":"SRC000038","event_no":"55","event_type":"fair_calendar","place_id":"PLC002034","place_name_modern":"Annaberg","place_name_historic":"Annaberg, Anenberg","place_type":"settlement","date":"1586-07-25","date_year":1586,"date_month":7,"date_day":25,"date_orig_text":"auf S. Jacobs tag","duration":null},"geometry":{"type":"point","coordinates":[13.01132788904598,50.58054987531258]}},{"type":"Feature","properties":{"source_id":"SRC000038","event_no":"56","event_type":"fair_calendar","place_id":"PLC000073","place_name_modern":"Strasbourg","place_name_historic":"Strasbourg, STRASBURG, Strasburg, Strassbourg","place_type":"settlement","date":"1586-06-24","date_year":1586,"date_month":6,"date_day":24,"date_orig_text":"zu Johans' tag / deß Täuffers","duration":null},"geometry":{"type":"point","coordinates":[7.747529973447003,48.584862875424925]}},{"type":"Feature","properties":{"source_id":"SRC000038","event_no":"57","event_type":"fair_calendar","place_id":"PLC002859","place_name_modern":"Salzburg","place_name_historic":"Salzburg, SALCZBURG, Saltzburg","place_type":"settlement","date":"1586-09-21","date_year":1586,"date_month":9,"date_day":21,"date_orig_text":"acht tag vor Sanct Michels tag","duration":null},"geometry":{"type":"point","coordinates":[13.042854454362358,47.79948177177722]}},{"type":"Feature","properties":{"source_id":"SRC000038","event_no":"58","event_type":"fair_calendar","place_id":"PLC001904","place_name_modern":"Schweinfurt","place_name_historic":"Schweinfurt, Sveinfurt, Schwenfurth","place_type":"settlement","date":"1586-11-19","date_year":1586,"date_month":11,"date_day":19,"date_orig_text":"auff S. Elizabeth tag","duration":null},"geometry":{"type":"point","coordinates":[10.229612083120939,50.040058676636384]}},{"type":"Feature","properties":{"source_id":"SRC000038","event_no":"59","event_type":"fair_calendar","place_id":"PLC003341","place_name_modern":"Wien","place_name_historic":"Wien, VIEN","place_type":"settlement","date":"1586-11-25","date_year":1586,"date_month":11,"date_day":25,"date_orig_text":"auff Katharine","duration":null},"geometry":{"type":"point","coordinates":[16.37305500840773,48.20866498819257]}},{"type":"Feature","properties":{"source_id":"SRC000038","event_no":"60","event_type":"fair_calendar","place_id":"PLC001905","place_name_modern":"Würzburg","place_name_historic":"Würzburg, Würzpg, Würtzburg, Wurtzburg; Wirtzburg","place_type":"settlement","date":"1586-07-08","date_year":1586,"date_month":7,"date_day":8,"date_orig_text":"auff Kiliani","duration":null},"geometry":{"type":"point","coordinates":[9.931880566467216,49.79269425949147]}},{"type":"Feature","properties":{"source_id":"SRC000038","event_no":"61","event_type":"fair_calendar","place_id":"PLC001905","place_name_modern":"Würzburg","place_name_historic":"Würzburg, Würzpg, Würtzburg, Wurtzburg; Wirtzburg","place_type":"settlement","date":"1586-09-29","date_year":1586,"date_month":9,"date_day":29,"date_orig_text":"auff Michaelis","duration":null},"geometry":{"type":"point","coordinates":[9.931880566467216,49.79269425949147]}},{"type":"Feature","properties":{"source_id":"SRC000038","event_no":"62","event_type":"fair_calendar","place_id":"PLC001905","place_name_modern":"Würzburg","place_name_historic":"Würzburg, Würzpg, Würtzburg, Wurtzburg; Wirtzburg","place_type":"settlement","date":"1586-11-01","date_year":1586,"date_month":11,"date_day":1,"date_orig_text":"auf Allerheiligen tag","duration":null},"geometry":{"type":"point","coordinates":[9.931880566467216,49.79269425949147]}},{"type":"Feature","properties":{"source_id":"SRC000038","event_no":"63","event_type":"fair_calendar","place_id":"PLC001905","place_name_modern":"Würzburg","place_name_historic":"Würzburg, Würzpg, Würtzburg, Wurtzburg; Wirtzburg","place_type":"settlement","date":"1586-03-16","date_year":1586,"date_month":3,"date_day":16,"date_orig_text":"auff Mittfasten","duration":null},"geometry":{"type":"point","coordinates":[9.931880566467216,49.79269425949147]}},{"type":"Feature","properties":{"source_id":"SRC000038","event_no":"64","event_type":"fair_calendar","place_id":"PLC000046","place_name_modern":"Worms","place_name_historic":"Worms, WORMS, Wormbs","place_type":"settlement","date":"1586-05-26","date_year":1586,"date_month":5,"date_day":26,"date_orig_text":"den Montag nach Pfingsten","duration":null},"geometry":{"type":"point","coordinates":[8.358934085018452,49.63013408373285]}},{"type":"Feature","properties":{"source_id":"SRC000038","event_no":"65","event_type":"fair_calendar","place_id":"PLC000046","place_name_modern":"Worms","place_name_historic":"Worms, WORMS, Wormbs","place_type":"settlement","date":"1586-11-03","date_year":1586,"date_month":11,"date_day":3,"date_orig_text":"den Montag nach Allerheyligen","duration":null},"geometry":{"type":"point","coordinates":[8.358934085018452,49.63013408373285]}},{"type":"Feature","properties":{"source_id":"SRC000038","event_no":"66","event_type":"fair_calendar","place_id":"PLC004763","place_name_modern":"Bad Zurzach","place_name_historic":"Bad Zurzach","place_type":"settlement","date":"1586-05-15","date_year":1586,"date_month":5,"date_day":15,"date_orig_text":"am Auffahrts tag","duration":null},"geometry":{"type":"point","coordinates":[8.29303871872076,47.58806648061113]}},{"type":"Feature","properties":{"source_id":"SRC000038","event_no":"67","event_type":"fair_calendar","place_id":"PLC004763","place_name_modern":"Bad Zurzach","place_name_historic":"Bad Zurzach","place_type":"settlement","date":"1586-09-01","date_year":1586,"date_month":9,"date_day":1,"date_orig_text":"an S. Verenen tag / den ersten Septembris","duration":null},"geometry":{"type":"point","coordinates":[8.29303871872076,47.58806648061113]}},{"type":"Feature","properties":{"source_id":"SRC000038","event_no":"68","event_type":"fair_calendar","place_id":"PLC002033","place_name_modern":"Zwickau","place_name_historic":"Zwickau, Zwicka","place_type":"settlement","date":"1586-06-01","date_year":1586,"date_month":6,"date_day":1,"date_orig_text":"am Sontag nach Pfingsten","duration":null},"geometry":{"type":"point","coordinates":[12.495202370611768,50.71924274409014]}},{"type":"Feature","properties":{"source_id":"SRC000038","event_no":"69","event_type":"fair_calendar","place_id":"PLC002033","place_name_modern":"Zwickau","place_name_historic":"Zwickau, Zwicka","place_type":"settlement","date":"1586-11-25","date_year":1586,"date_month":11,"date_day":25,"date_orig_text":"Katharine","duration":null},"geometry":{"type":"point","coordinates":[12.495202370611768,50.71924274409014]}},{"type":"Feature","properties":{"source_id":"SRC000038","event_no":"70","event_type":"fair_calendar","place_id":"PLC004227","place_name_modern":"Kutna Hora","place_name_historic":"Kutna Hora, Kutnbg, Kuttnberg, Kuttenberg","place_type":"settlement","date":"1586-11-11","date_year":1586,"date_month":11,"date_day":11,"date_orig_text":"auff Martini","duration":null},"geometry":{"type":"point","coordinates":[15.267238704791417,49.9517303822146]}}]}