{"type":"FeatureCollection","name":"CoMOR-FairCalendars","collection_id":"COL0022","records":72,"download_user":"admin","download_date":"2026-08-10T18:45:46.286+02:00","readme":"See the readme file included in this download for details about this file.","features":[{"type":"Feature","properties":{"source_id":"SRC000049","event_no":"1","event_type":"fair_calendar","place_id":"PLC000043","place_name_modern":"Frankfurt Main","place_name_historic":"Frankfurt am Main, Frankfurt, Franckfurt Main, Francfurt; Francfort, Francfort","place_type":"settlement","date":"1563-03-27","date_year":1563,"date_month":3,"date_day":27,"date_orig_text":"comincia 15 giorni auanti Pasqua de resur. e dura giorni 15","duration":null},"geometry":{"type":"point","coordinates":[8.673089014562553,50.10997055280276]}},{"type":"Feature","properties":{"source_id":"SRC000049","event_no":"2","event_type":"fair_calendar","place_id":"PLC003345","place_name_modern":"Linz","place_name_historic":"Linz, UNCZ, Lintz, Lincs","place_type":"settlement","date":"1563-04-18","date_year":1563,"date_month":4,"date_day":18,"date_orig_text":"comincia la prima Domenica dipoi Pasqua, & dura giorni 8","duration":"14 days"},"geometry":{"type":"point","coordinates":[14.286684102572764,48.30560216143704]}},{"type":"Feature","properties":{"source_id":"SRC000049","event_no":"3","event_type":"fair_calendar","place_id":"PLC000073","place_name_modern":"Strasbourg","place_name_historic":"Strasbourg, STRASBURG, Strasburg, Strassbourg","place_type":"settlement","date":"1563-06-25","date_year":1563,"date_month":6,"date_day":25,"date_orig_text":"comincia a 25 de giugno & dura giorni 14","duration":"8 days"},"geometry":{"type":"point","coordinates":[7.747529973447003,48.584862875424925]}},{"type":"Feature","properties":{"source_id":"SRC000049","event_no":"4","event_type":"fair_calendar","place_id":"PLC003352","place_name_modern":"Krems an der Donau","place_name_historic":"Krems an der Donau, Krems, Crembs","place_type":"settlement","date":"1563-07-25","date_year":1563,"date_month":7,"date_day":25,"date_orig_text":"comincia a 25 de luglio & dura giorni 8","duration":"8 days"},"geometry":{"type":"point","coordinates":[15.60768377526018,48.40654638747437]}},{"type":"Feature","properties":{"source_id":"SRC000049","event_no":"5","event_type":"fair_calendar","place_id":"PLC003345","place_name_modern":"Linz","place_name_historic":"Linz, UNCZ, Lintz, Lincs","place_type":"settlement","date":"1563-08-24","date_year":1563,"date_month":8,"date_day":24,"date_orig_text":"comincia a 24 de agosto, & dura giorni 8","duration":"8 days"},"geometry":{"type":"point","coordinates":[14.286684102572764,48.30560216143704]}},{"type":"Feature","properties":{"source_id":"SRC000049","event_no":"6","event_type":"fair_calendar","place_id":"PLC000043","place_name_modern":"Frankfurt Main","place_name_historic":"Frankfurt am Main, Frankfurt, Franckfurt Main, Francfurt; Francfort, Francfort","place_type":"settlement","date":"1563-09-09","date_year":1563,"date_month":9,"date_day":9,"date_orig_text":"comincia alli 9 de settembre, & dura giorni 15","duration":"15 days"},"geometry":{"type":"point","coordinates":[8.673089014562553,50.10997055280276]}},{"type":"Feature","properties":{"source_id":"SRC000049","event_no":"7","event_type":"fair_calendar","place_id":"PLC002859","place_name_modern":"Salzburg","place_name_historic":"Salzburg, SALCZBURG, Saltzburg","place_type":"settlement","date":"1563-09-24","date_year":1563,"date_month":9,"date_day":24,"date_orig_text":"comincia à 24 di Settembere : & dura giorni 15","duration":"15 days"},"geometry":{"type":"point","coordinates":[13.042854454362358,47.79948177177722]}},{"type":"Feature","properties":{"source_id":"SRC000049","event_no":"8","event_type":"fair_calendar","place_id":"PLC003352","place_name_modern":"Krems an der Donau","place_name_historic":"Krems an der Donau, Krems, Crembs","place_type":"settlement","date":"1563-10-28","date_year":1563,"date_month":10,"date_day":28,"date_orig_text":"comincia alli 28 di Ottobre, & dura giorni 8","duration":"8 days"},"geometry":{"type":"point","coordinates":[15.60768377526018,48.40654638747437]}},{"type":"Feature","properties":{"source_id":"SRC000048","event_no":"1","event_type":"fair_calendar","place_id":"PLC000113","place_name_modern":"Antwerpen","place_name_historic":", Antwerpen, Antverpe","place_type":"settlement","date":"1563-04-18","date_year":1563,"date_month":4,"date_day":18,"date_orig_text":"La prima Domenica di Pasqua di resurrettione comincia la fiera de Anuersa, e dura uno mese","duration":"30 days"},"geometry":{"type":"point","coordinates":[4.399684477601141,51.22083350522394]}},{"type":"Feature","properties":{"source_id":"SRC000048","event_no":"2","event_type":"fair_calendar","place_id":"PLC000113","place_name_modern":"Antwerpen","place_name_historic":", Antwerpen, Antverpe","place_type":"settlement","date":"1563-05-30","date_year":1563,"date_month":5,"date_day":30,"date_orig_text":"La seconda fiera di Anuersa comincia a la feste de Pentecoste, e dura una Mese","duration":"30 days"},"geometry":{"type":"point","coordinates":[4.399684477601141,51.22083350522394]}},{"type":"Feature","properties":{"source_id":"SRC000048","event_no":"3","event_type":"fair_calendar","place_id":"PLC000113","place_name_modern":"Antwerpen","place_name_historic":", Antwerpen, Antverpe","place_type":"settlement","date":"1563-11-11","date_year":1563,"date_month":11,"date_day":11,"date_orig_text":"La terza fiera d'Anuersa, comincia a San Martino, & dura una Mese","duration":"30 days"},"geometry":{"type":"point","coordinates":[4.399684477601141,51.22083350522394]}},{"type":"Feature","properties":{"source_id":"SRC000052","event_no":"1","event_type":"fair_calendar","place_id":"PLC004795","place_name_modern":"Lamotto","place_name_historic":"","place_type":"settlement","date":"1563-05-03","date_year":1563,"date_month":5,"date_day":3,"date_orig_text":"comincia alli 3 di Maggio, & dura giorni 15","duration":"15 days"},"geometry":{"type":"point","coordinates":[0,0]}},{"type":"Feature","properties":{"source_id":"SRC000052","event_no":"2","event_type":"fair_calendar","place_id":"PLC005227","place_name_modern":"Beja","place_name_historic":", Beja, Beia","place_type":"settlement","date":"1563-08-15","date_year":1563,"date_month":8,"date_day":15,"date_orig_text":"comincia a li 15. de agosto, & dura tutto il detto Mese, giorni 16","duration":"17 days"},"geometry":{"type":"point","coordinates":[-7.863441526621841,38.016832653623936]}},{"type":"Feature","properties":{"source_id":"SRC000052","event_no":"3","event_type":"fair_calendar","place_id":"PLC004797","place_name_modern":"El Rosso","place_name_historic":"","place_type":"settlement","date":"1563-08-15","date_year":1563,"date_month":8,"date_day":15,"date_orig_text":"comincia a li 15. de agosto, & dura tutto il mese di agosto, giorni 16","duration":"17 days"},"geometry":{"type":"point","coordinates":[0,0]}},{"type":"Feature","properties":{"source_id":"SRC000052","event_no":"4","event_type":"fair_calendar","place_id":"PLC004786","place_name_modern":"Penela","place_name_historic":"Penela","place_type":"settlement","date":"1563-09-29","date_year":1563,"date_month":9,"date_day":29,"date_orig_text":"comincia à li 29 di settembre, & dura giorni 15","duration":"15 days"},"geometry":{"type":"point","coordinates":[-8.39065989823974,40.028280209939]}},{"type":"Feature","properties":{"source_id":"SRC000052","event_no":"5","event_type":"fair_calendar","place_id":"PLC004786","place_name_modern":"Penela","place_name_historic":"Penela","place_type":"settlement","date":"1563-01-20","date_year":1563,"date_month":1,"date_day":20,"date_orig_text":"comincia a li 20 di Genaro, & dura giorni 15","duration":null},"geometry":{"type":"point","coordinates":[-8.39065989823974,40.028280209939]}},{"type":"Feature","properties":{"source_id":"SRC000046","event_no":"1","event_type":"fair_calendar","place_id":"PLC000406","place_name_modern":"Lyon","place_name_historic":", Lyon, Leon, Lion","place_type":"settlement","date":"1563-01-11","date_year":1563,"date_month":1,"date_day":11,"date_orig_text":"la fiera de Apparitione comincia il primo lunedi di poi la Epifania, & dura giorni 15 di lauoro, giorni 15","duration":null},"geometry":{"type":"point","coordinates":[4.832640613902609,45.758817110591664]}},{"type":"Feature","properties":{"source_id":"SRC000046","event_no":"2","event_type":"fair_calendar","place_id":"PLC000406","place_name_modern":"Lyon","place_name_historic":", Lyon, Leon, Lion","place_type":"settlement","date":"1563-04-19","date_year":1563,"date_month":4,"date_day":19,"date_orig_text":"il primo lunedi di poi le feste di Pasqua di resurretione comincia la fiera et dura giorni 15 di lauoro, 15","duration":null},"geometry":{"type":"point","coordinates":[4.832640613902609,45.758817110591664]}},{"type":"Feature","properties":{"source_id":"SRC000046","event_no":"3","event_type":"fair_calendar","place_id":"PLC000406","place_name_modern":"Lyon","place_name_historic":", Lyon, Leon, Lion","place_type":"settlement","date":"1563-08-02","date_year":1563,"date_month":8,"date_day":2,"date_orig_text":"il primo lunedi di agosto comincia la fiera à Lione, e dura giorni 15 di lauoro, 15","duration":null},"geometry":{"type":"point","coordinates":[4.832640613902609,45.758817110591664]}},{"type":"Feature","properties":{"source_id":"SRC000046","event_no":"4","event_type":"fair_calendar","place_id":"PLC000406","place_name_modern":"Lyon","place_name_historic":", Lyon, Leon, Lion","place_type":"settlement","date":"1563-11-15","date_year":1563,"date_month":11,"date_day":15,"date_orig_text":"il primo lunedi doppo ogni santi comincia la fiera de Lione, e dura giorni 15 di lauoro, 15","duration":null},"geometry":{"type":"point","coordinates":[4.832640613902609,45.758817110591664]}},{"type":"Feature","properties":{"source_id":"SRC000053","event_no":"1","event_type":"fair_calendar","place_id":"PLC004809","place_name_modern":"Lentini","place_name_historic":"","place_type":"settlement","date":"1563-04-25","date_year":1563,"date_month":4,"date_day":25,"date_orig_text":"comincia à li 25 di aprile, & dura giorni 8","duration":"8 days"},"geometry":{"type":"point","coordinates":[14.998853669569193,37.28515714085303]}},{"type":"Feature","properties":{"source_id":"SRC000053","event_no":"2","event_type":"fair_calendar","place_id":"PLC002241","place_name_modern":"Messina","place_name_historic":"Messina, Meßina","place_type":"settlement","date":"1563-08-25","date_year":1563,"date_month":8,"date_day":25,"date_orig_text":"comincia à 25. di agosto, & dura giorni 20","duration":"20 days"},"geometry":{"type":"point","coordinates":[15.55204936043467,38.194252924190955]}},{"type":"Feature","properties":{"source_id":"SRC000053","event_no":"3","event_type":"fair_calendar","place_id":"PLC004788","place_name_modern":"Catania","place_name_historic":"Catania","place_type":"settlement","date":"1563-08-15","date_year":1563,"date_month":8,"date_day":15,"date_orig_text":"comincia à 15. di agosto, & dura giorni 24","duration":"24 days"},"geometry":{"type":"point","coordinates":[15.086430522275755,37.50206840032211]}},{"type":"Feature","properties":{"source_id":"SRC000053","event_no":"4","event_type":"fair_calendar","place_id":"PLC004790","place_name_modern":"Caltagirone","place_name_historic":"Caltagirone","place_type":"settlement","date":"1563-10-04","date_year":1563,"date_month":10,"date_day":4,"date_orig_text":"comincia alli 4 de ottobre, & dura giorni 15","duration":"15 days"},"geometry":{"type":"point","coordinates":[14.512311030355644,37.23831180196326]}},{"type":"Feature","properties":{"source_id":"SRC000053","event_no":"5","event_type":"fair_calendar","place_id":"PLC004791","place_name_modern":"Piazza Armerina","place_name_historic":"Piazza Armerina","place_type":"settlement","date":"1563-10-28","date_year":1563,"date_month":10,"date_day":28,"date_orig_text":"comincia alli 28 de ottobre, & dura giorni 18","duration":"18 days"},"geometry":{"type":"point","coordinates":[14.37133325292677,37.38770413287818]}},{"type":"Feature","properties":{"source_id":"SRC000053","event_no":"6","event_type":"fair_calendar","place_id":"PLC004793","place_name_modern":"Enna","place_name_historic":"Enna","place_type":"settlement","date":"1563-11-13","date_year":1563,"date_month":11,"date_day":13,"date_orig_text":"comincia à li 13 di nouembre, & dura giorni 15","duration":"15 days"},"geometry":{"type":"point","coordinates":[14.280580640073827,37.56300654435003]}},{"type":"Feature","properties":{"source_id":"SRC000053","event_no":"7","event_type":"fair_calendar","place_id":"PLC004794","place_name_modern":"Siracusa","place_name_historic":"Siracusa","place_type":"settlement","date":"1563-12-13","date_year":1563,"date_month":12,"date_day":13,"date_orig_text":"comincia à 13. di Decembre, & dura giorni 15","duration":"15 days"},"geometry":{"type":"point","coordinates":[15.286516711810965,37.07065217514566]}},{"type":"Feature","properties":{"source_id":"SRC000053","event_no":"8","event_type":"fair_calendar","place_id":"PLC002236","place_name_modern":"Palermo","place_name_historic":"Palermo","place_type":"settlement","date":"1563-05-01","date_year":1563,"date_month":5,"date_day":1,"date_orig_text":"comincia il primo di Maggio, & dura giorni 15","duration":"15 days"},"geometry":{"type":"point","coordinates":[13.353030876269905,38.12087035534534]}},{"type":"Feature","properties":{"source_id":"SRC000045","event_no":"1","event_type":"fair_calendar","place_id":"PLC002804","place_name_modern":"Nocera Terinese","place_name_historic":", Nocera","place_type":"settlement","date":"1563-02-28","date_year":1563,"date_month":2,"date_day":28,"date_orig_text":"La prima domenica quaragesima comincia la Fiera di Nocera, & dura giorni 15","duration":"15 days"},"geometry":{"type":"point","coordinates":[16.16349826114208,39.036598805673506]}},{"type":"Feature","properties":{"source_id":"SRC000045","event_no":"2","event_type":"fair_calendar","place_id":"PLC004772","place_name_modern":"Foligno","place_name_historic":"Foligno","place_type":"settlement","date":"1563-04-25","date_year":1563,"date_month":4,"date_day":25,"date_orig_text":"comincia, à 25 di aprile, & dura tutto il mese di maggio","duration":"37 days"},"geometry":{"type":"point","coordinates":[12.703542869761282,42.95607870186459]}},{"type":"Feature","properties":{"source_id":"SRC000045","event_no":"3","event_type":"fair_calendar","place_id":"PLC002712","place_name_modern":"Venezia","place_name_historic":"Venezia, Venzia","place_type":"settlement","date":"1563-05-19","date_year":1563,"date_month":5,"date_day":19,"date_orig_text":"comincia la Vigilia de l'ascencione, & dura giorni 11","duration":"11 days"},"geometry":{"type":"point","coordinates":[12.356655608613481,45.430392392445476]}},{"type":"Feature","properties":{"source_id":"SRC000045","event_no":"4","event_type":"fair_calendar","place_id":"PLC002732","place_name_modern":"Ravenna","place_name_historic":"Ravenna, Revanna","place_type":"settlement","date":"1563-05-01","date_year":1563,"date_month":5,"date_day":1,"date_orig_text":"comincia il prima di Maggio, & dura giorni 24","duration":"24 days"},"geometry":{"type":"point","coordinates":[12.213939408469683,44.41537046955149]}},{"type":"Feature","properties":{"source_id":"SRC000045","event_no":"5","event_type":"fair_calendar","place_id":"PLC003753","place_name_modern":"Taranto","place_name_historic":"Taranto","place_type":"settlement","date":"1563-05-01","date_year":1563,"date_month":5,"date_day":1,"date_orig_text":"comincia il prima di Maggio, & dura giorni 8","duration":"8 days"},"geometry":{"type":"point","coordinates":[17.245866,40.466998]}},{"type":"Feature","properties":{"source_id":"SRC000045","event_no":"6","event_type":"fair_calendar","place_id":"PLC004773","place_name_modern":"Toscanella","place_name_historic":"Toscanella","place_type":"settlement","date":"1563-05-01","date_year":1563,"date_month":5,"date_day":1,"date_orig_text":"comincia il prima di Maggio, & dura giorni 8","duration":"8 days"},"geometry":{"type":"point","coordinates":[11.636817180386993,44.38352487584057]}},{"type":"Feature","properties":{"source_id":"SRC000045","event_no":"7","event_type":"fair_calendar","place_id":"PLC004774","place_name_modern":"Orvieto","place_name_historic":"Orvieto","place_type":"settlement","date":"1563-11-13","date_year":1563,"date_month":11,"date_day":13,"date_orig_text":"comincia alli 13 di Novembre, & dura giorni 8","duration":"8 days"},"geometry":{"type":"point","coordinates":[12.1107494694809,42.718374253750525]}},{"type":"Feature","properties":{"source_id":"SRC000045","event_no":"8","event_type":"fair_calendar","place_id":"PLC004774","place_name_modern":"Orvieto","place_name_historic":"Orvieto","place_type":"settlement","date":"1563-06-10","date_year":1563,"date_month":6,"date_day":10,"date_orig_text":"comincia il giorno del Corpus Domine, e dura giorni 8","duration":"8 days"},"geometry":{"type":"point","coordinates":[12.1107494694809,42.718374253750525]}},{"type":"Feature","properties":{"source_id":"SRC000045","event_no":"9","event_type":"fair_calendar","place_id":"PLC002796","place_name_modern":"Salerno","place_name_historic":"Salerno","place_type":"settlement","date":"1563-05-10","date_year":1563,"date_month":5,"date_day":10,"date_orig_text":"comincia alli x. di Maggio, & dura giorni 15","duration":"15 days"},"geometry":{"type":"point","coordinates":[14.774087390517625,40.681988256866816]}},{"type":"Feature","properties":{"source_id":"SRC000045","event_no":"10","event_type":"fair_calendar","place_id":"PLC002773","place_name_modern":"Lanciano","place_name_historic":"Lanciano, Lazano","place_type":"settlement","date":"1563-05-27","date_year":1563,"date_month":5,"date_day":27,"date_orig_text":"comincia l'ultimo Giouedi di Maggio, & dura giorni 15","duration":"15 days"},"geometry":{"type":"point","coordinates":[14.390877247833592,42.22900673271854]}},{"type":"Feature","properties":{"source_id":"SRC000045","event_no":"11","event_type":"fair_calendar","place_id":"PLC003288","place_name_modern":"Rimini","place_name_historic":"Rimini, Rimino","place_type":"settlement","date":"1563-06-20","date_year":1563,"date_month":6,"date_day":20,"date_orig_text":"comincia a xx. di Giugno, & dura fino alli 25 di Luglio, giorni 45","duration":"36 days"},"geometry":{"type":"point","coordinates":[12.561541066256144,44.05897430061763]}},{"type":"Feature","properties":{"source_id":"SRC000045","event_no":"12","event_type":"fair_calendar","place_id":"PLC003766","place_name_modern":"Cosenza","place_name_historic":"Cosenza","place_type":"settlement","date":"1563-07-01","date_year":1563,"date_month":7,"date_day":1,"date_orig_text":"comincia il primo di luglio, & dura giorni 8","duration":"8 days"},"geometry":{"type":"point","coordinates":[16.255741,39.300943]}},{"type":"Feature","properties":{"source_id":"SRC000045","event_no":"13","event_type":"fair_calendar","place_id":"PLC003766","place_name_modern":"Cosenza","place_name_historic":"Cosenza","place_type":"settlement","date":"1563-07-25","date_year":1563,"date_month":7,"date_day":25,"date_orig_text":"comincia à 25 di luglio, & dura giorni 8","duration":"8 days"},"geometry":{"type":"point","coordinates":[16.255741,39.300943]}},{"type":"Feature","properties":{"source_id":"SRC000045","event_no":"14","event_type":"fair_calendar","place_id":"PLC004776","place_name_modern":"Squillace","place_name_historic":"Squillace","place_type":"settlement","date":"1563-07-08","date_year":1563,"date_month":7,"date_day":8,"date_orig_text":"comincia à 8 di luglio, & dura giorni 8","duration":"8 days"},"geometry":{"type":"point","coordinates":[16.520510691924976,38.7823657883251]}},{"type":"Feature","properties":{"source_id":"SRC000045","event_no":"15","event_type":"fair_calendar","place_id":"PLC004782","place_name_modern":"Monteleone d’Orvieto","place_name_historic":"Monteleone d’Orvieto","place_type":"settlement","date":"1563-07-21","date_year":1563,"date_month":7,"date_day":21,"date_orig_text":"comincia à 21 di luglio, & dura giorni 8","duration":"8 days"},"geometry":{"type":"point","coordinates":[12.055558993848656,42.92236692760319]}},{"type":"Feature","properties":{"source_id":"SRC000045","event_no":"16","event_type":"fair_calendar","place_id":"PLC002733","place_name_modern":"Cesena","place_name_historic":"Cesena, Cesna","place_type":"settlement","date":"1563-08-01","date_year":1563,"date_month":8,"date_day":1,"date_orig_text":"comincia il primo de agosto, & dura per tutto il mese g. 31","duration":"31 days"},"geometry":{"type":"point","coordinates":[12.242906532168474,44.13704993587018]}},{"type":"Feature","properties":{"source_id":"SRC000045","event_no":"17","event_type":"fair_calendar","place_id":"PLC003313","place_name_modern":"Ostiglia","place_name_historic":"Ostiglia, Ostia","place_type":"settlement","date":"1563-08-10","date_year":1563,"date_month":8,"date_day":10,"date_orig_text":"comincia a x de agosto, & dura giorni 3","duration":"3 days"},"geometry":{"type":"point","coordinates":[11.137313485674888,45.06951986754908]}},{"type":"Feature","properties":{"source_id":"SRC000045","event_no":"18","event_type":"fair_calendar","place_id":"PLC004783","place_name_modern":"Grazie","place_name_historic":"Grazie","place_type":"settlement","date":"1563-08-15","date_year":1563,"date_month":8,"date_day":15,"date_orig_text":"comincia a 15. de agosto, & dura giorni 3","duration":"3 days"},"geometry":{"type":"point","coordinates":[10.694302899000212,45.15666484502496]}},{"type":"Feature","properties":{"source_id":"SRC000045","event_no":"19","event_type":"fair_calendar","place_id":"PLC002711","place_name_modern":"Ferrara","place_name_historic":"Ferrara, Femraria","place_type":"settlement","date":"1563-08-15","date_year":1563,"date_month":8,"date_day":15,"date_orig_text":"comincia alli 15. de agosto, & dura tutto il giorno 16 sequente, nu. 1","duration":"2 days"},"geometry":{"type":"point","coordinates":[11.608748795263347,44.83463645890352]}},{"type":"Feature","properties":{"source_id":"SRC000045","event_no":"20","event_type":"fair_calendar","place_id":"PLC002773","place_name_modern":"Lanciano","place_name_historic":"Lanciano, Lazano","place_type":"settlement","date":"1563-08-26","date_year":1563,"date_month":8,"date_day":26,"date_orig_text":"comincia lultimo giouedi d'agosto, et dura giorni 15","duration":"15 days"},"geometry":{"type":"point","coordinates":[14.390877247833592,42.22900673271854]}},{"type":"Feature","properties":{"source_id":"SRC000045","event_no":"21","event_type":"fair_calendar","place_id":"PLC003736","place_name_modern":"Faenza","place_name_historic":"Faenza","place_type":"settlement","date":"1563-09-01","date_year":1563,"date_month":9,"date_day":1,"date_orig_text":"cominica il primo di settembre, et duro tutto il detto mese, giorni 30","duration":"30 days"},"geometry":{"type":"point","coordinates":[11.8822,44.290901]}},{"type":"Feature","properties":{"source_id":"SRC000045","event_no":"22","event_type":"fair_calendar","place_id":"PLC002729","place_name_modern":"Modena","place_name_historic":"Modena","place_type":"settlement","date":"1563-09-14","date_year":1563,"date_month":9,"date_day":14,"date_orig_text":"comincia alli 14 di settembre, & dura giorni 8","duration":"8 days"},"geometry":{"type":"point","coordinates":[10.91468066758243,44.64475940504033]}},{"type":"Feature","properties":{"source_id":"SRC000045","event_no":"23","event_type":"fair_calendar","place_id":"PLC004777","place_name_modern":"Recanati","place_name_historic":"Recanati","place_type":"settlement","date":"1563-09-15","date_year":1563,"date_month":9,"date_day":15,"date_orig_text":"comincia alli 15 di settembre, & dura fino alli 15 di novembre, giorni","duration":"62 days"},"geometry":{"type":"point","coordinates":[13.549753199764375,43.40291912987303]}},{"type":"Feature","properties":{"source_id":"SRC000045","event_no":"24","event_type":"fair_calendar","place_id":"PLC002796","place_name_modern":"Salerno","place_name_historic":"Salerno","place_type":"settlement","date":"1563-09-21","date_year":1563,"date_month":9,"date_day":21,"date_orig_text":"comincia alli 21 di settembre, & dura giorni 15","duration":"15 days"},"geometry":{"type":"point","coordinates":[14.774087390517625,40.681988256866816]}},{"type":"Feature","properties":{"source_id":"SRC000045","event_no":"25","event_type":"fair_calendar","place_id":"PLC004778","place_name_modern":"Crema","place_name_historic":"Crema","place_type":"settlement","date":"1563-09-25","date_year":1563,"date_month":9,"date_day":25,"date_orig_text":"comincia alli 25 di settembre, & dura giorni 16","duration":"16 days"},"geometry":{"type":"point","coordinates":[9.687146341402162,45.36314782072336]}},{"type":"Feature","properties":{"source_id":"SRC000045","event_no":"26","event_type":"fair_calendar","place_id":"PLC003755","place_name_modern":"Trani","place_name_historic":"Trani","place_type":"settlement","date":"1563-10-04","date_year":1563,"date_month":10,"date_day":4,"date_orig_text":"comincia alli 4 di ottobre, & dura giorni 8","duration":"8 days"},"geometry":{"type":"point","coordinates":[16.418129,41.281981]}},{"type":"Feature","properties":{"source_id":"SRC000045","event_no":"27","event_type":"fair_calendar","place_id":"PLC004779","place_name_modern":"Rovigo","place_name_historic":"Rovigo","place_type":"settlement","date":"1563-10-09","date_year":1563,"date_month":10,"date_day":9,"date_orig_text":"comincia alli 9 di ottobre, & dura giorni 10","duration":"10 days"},"geometry":{"type":"point","coordinates":[11.789575795588238,45.07115771400968]}},{"type":"Feature","properties":{"source_id":"SRC000045","event_no":"28","event_type":"fair_calendar","place_id":"PLC004780","place_name_modern":"Pizzighetone","place_name_historic":"Pizzighetone","place_type":"settlement","date":"1563-10-09","date_year":1563,"date_month":10,"date_day":9,"date_orig_text":"comincia alli 9 di ottobre, & dura giorni 10","duration":"10 days"},"geometry":{"type":"point","coordinates":[9.783938412595239,45.18747810804277]}},{"type":"Feature","properties":{"source_id":"SRC000045","event_no":"29","event_type":"fair_calendar","place_id":"PLC002704","place_name_modern":"Vicenza","place_name_historic":", Vincenza, Vinzana, Vicenza","place_type":"settlement","date":"1563-10-16","date_year":1563,"date_month":10,"date_day":16,"date_orig_text":"comincia a li 16 di ottobre, & dura giorni 15","duration":"15 days"},"geometry":{"type":"point","coordinates":[11.546973911456131,45.552033686248905]}},{"type":"Feature","properties":{"source_id":"SRC000045","event_no":"30","event_type":"fair_calendar","place_id":"PLC002703","place_name_modern":"Treviso","place_name_historic":"Treviso, Tervis","place_type":"settlement","date":"1563-10-22","date_year":1563,"date_month":10,"date_day":22,"date_orig_text":"comincia a li 22 di ottobre, & dura giorni 15","duration":"15 days"},"geometry":{"type":"point","coordinates":[12.246125768632636,45.661259788301635]}},{"type":"Feature","properties":{"source_id":"SRC000045","event_no":"31","event_type":"fair_calendar","place_id":"PLC002804","place_name_modern":"Nocera Terinese","place_name_historic":", Nocera","place_type":"settlement","date":"1563-11-01","date_year":1563,"date_month":11,"date_day":1,"date_orig_text":"comincia il primo di Nouembre, & dura giorni 8","duration":"8 days"},"geometry":{"type":"point","coordinates":[16.16349826114208,39.036598805673506]}},{"type":"Feature","properties":{"source_id":"SRC000045","event_no":"32","event_type":"fair_calendar","place_id":"PLC003757","place_name_modern":"Barletta","place_name_historic":"Barletta","place_type":"settlement","date":"1563-11-11","date_year":1563,"date_month":11,"date_day":11,"date_orig_text":"comincia alli xi. di Nouembre, & dura giorni 8","duration":"8 days"},"geometry":{"type":"point","coordinates":[16.287408,41.320526]}},{"type":"Feature","properties":{"source_id":"SRC000045","event_no":"33","event_type":"fair_calendar","place_id":"PLC002751","place_name_modern":"Pesaro","place_name_historic":"Pesaro","place_type":"settlement","date":"1563-11-15","date_year":1563,"date_month":11,"date_day":15,"date_orig_text":"comincia alli 15 di Nouembre, & dura fino à Natale","duration":"40 days"},"geometry":{"type":"point","coordinates":[12.914443791390115,43.92225419514847]}},{"type":"Feature","properties":{"source_id":"SRC000045","event_no":"34","event_type":"fair_calendar","place_id":"PLC002719","place_name_modern":"Udine","place_name_historic":"Udine","place_type":"settlement","date":"1563-11-28","date_year":1563,"date_month":11,"date_day":28,"date_orig_text":"comincia alli 28 di Nouembre, & dura giorni 5","duration":"5 days"},"geometry":{"type":"point","coordinates":[13.238032900488395,46.06443050010135]}},{"type":"Feature","properties":{"source_id":"SRC000045","event_no":"35","event_type":"fair_calendar","place_id":"PLC002786","place_name_modern":"Bari","place_name_historic":", Bari, Barri","place_type":"settlement","date":"1563-12-06","date_year":1563,"date_month":12,"date_day":6,"date_orig_text":"comincia alli 6 de Decembre, & dura giorni 10","duration":"10 days"},"geometry":{"type":"point","coordinates":[16.867652334561388,41.12500049366243]}},{"type":"Feature","properties":{"source_id":"SRC000045","event_no":"36","event_type":"fair_calendar","place_id":"PLC003753","place_name_modern":"Taranto","place_name_historic":"Taranto","place_type":"settlement","date":"1563-01-17","date_year":1563,"date_month":1,"date_day":17,"date_orig_text":"comincia alli 17 de genaro, & dura giorni 8","duration":"8 days"},"geometry":{"type":"point","coordinates":[17.245866,40.466998]}},{"type":"Feature","properties":{"source_id":"SRC000051","event_no":"1","event_type":"fair_calendar","place_id":"PLC004785","place_name_modern":"Villalón de Campos","place_name_historic":"Villalón de Campos, Villalon","place_type":"settlement","date":"1563-02-24","date_year":1563,"date_month":2,"date_day":24,"date_orig_text":"comincia al primo di Quateragesima, e dura tutta la Quateragesima, giorni 46","duration":"47 days"},"geometry":{"type":"point","coordinates":[-5.035283409611608,42.10022999955505]}},{"type":"Feature","properties":{"source_id":"SRC000051","event_no":"2","event_type":"fair_calendar","place_id":"PLC004798","place_name_modern":"Medina de Rioseco","place_name_historic":"","place_type":"settlement","date":"1563-04-11","date_year":1563,"date_month":4,"date_day":11,"date_orig_text":"comincia fare le tre di de Pasqua de resurettione, & dura fino a passato Penthecoste, giorni 15","duration":"50 days"},"geometry":{"type":"point","coordinates":[-5.043239243719702,41.88219978210851]}},{"type":"Feature","properties":{"source_id":"SRC000051","event_no":"3","event_type":"fair_calendar","place_id":"PLC004784","place_name_modern":"Medina del Campo","place_name_historic":"Medina del Campo","place_type":"settlement","date":"1563-05-31","date_year":1563,"date_month":5,"date_day":31,"date_orig_text":"comincia di poi la Pentecoste, & dura tutto agosto, giorni","duration":null},"geometry":{"type":"point","coordinates":[-4.915394629496181,41.308191735296965]}},{"type":"Feature","properties":{"source_id":"SRC000051","event_no":"4","event_type":"fair_calendar","place_id":"PLC004798","place_name_modern":"Medina de Rioseco","place_name_historic":"","place_type":"settlement","date":"1563-08-31","date_year":1563,"date_month":8,"date_day":31,"date_orig_text":"comincia al fin di agosto, & dura tutto settembre","duration":"31 days"},"geometry":{"type":"point","coordinates":[-5.043239243719702,41.88219978210851]}},{"type":"Feature","properties":{"source_id":"SRC000051","event_no":"5","event_type":"fair_calendar","place_id":"PLC004784","place_name_modern":"Medina del Campo","place_name_historic":"Medina del Campo","place_type":"settlement","date":"1563-11-01","date_year":1563,"date_month":11,"date_day":1,"date_orig_text":"comincia il primo di Nouembre, & dura fin otto di auanti alle feste di Natale","duration":null},"geometry":{"type":"point","coordinates":[-4.915394629496181,41.308191735296965]}},{"type":"Feature","properties":{"source_id":"SRC000050","event_no":"1","event_type":"fair_calendar","place_id":"PLC004756","place_name_modern":"Bozen [Bolzano]","place_name_historic":"Bozen [Bolzano]","place_type":"settlement","date":"1563-03-21","date_year":1563,"date_month":3,"date_day":21,"date_orig_text":"La prima fiera di Bolsan, cominciar a mezza Quaresima, & dura giorni 14","duration":"14 days"},"geometry":{"type":"point","coordinates":[11.354967819139139,46.49655837493802]}},{"type":"Feature","properties":{"source_id":"SRC000050","event_no":"2","event_type":"fair_calendar","place_id":"PLC004756","place_name_modern":"Bozen [Bolzano]","place_name_historic":"Bozen [Bolzano]","place_type":"settlement","date":"1563-09-01","date_year":1563,"date_month":9,"date_day":1,"date_orig_text":"La seconda fiera, comincia il primo di settembre:& dura giorni 14","duration":"14 days"},"geometry":{"type":"point","coordinates":[11.354967819139139,46.49655837493802]}},{"type":"Feature","properties":{"source_id":"SRC000050","event_no":"3","event_type":"fair_calendar","place_id":"PLC004756","place_name_modern":"Bozen [Bolzano]","place_name_historic":"Bozen [Bolzano]","place_type":"settlement","date":"1563-12-05","date_year":1563,"date_month":12,"date_day":5,"date_orig_text":"La terza fiera comincia la prima Domenica di poi S. Andrea et dura giorni 14","duration":"14 days"},"geometry":{"type":"point","coordinates":[11.354967819139139,46.49655837493802]}}]}