{"type":"FeatureCollection","name":"CoMOR-FairCalendars","collection_id":"COL0041","records":95,"download_user":"admin","download_date":"2026-08-10T18:45:49.61+02:00","readme":"See the readme file included in this download for details about this file.","features":[{"type":"Feature","properties":{"source_id":"SRC000166","event_no":"1","event_type":"fair_calendar","place_id":"PLC004147","place_name_modern":"Wroclaw","place_name_historic":"Wroclaw, Presla, Breslau, Breslaw","place_type":"settlement","date":"1558-03-20","date_year":1558,"date_month":3,"date_day":20,"date_orig_text":"Preßlaw IIII. Der erste Marckt ist auff Mitfasten.","duration":null},"geometry":{"type":"point","coordinates":[17.034468311946632,51.107270165385934]}},{"type":"Feature","properties":{"source_id":"SRC000166","event_no":"2","event_type":"fair_calendar","place_id":"PLC004147","place_name_modern":"Wroclaw","place_name_historic":"Wroclaw, Presla, Breslau, Breslaw","place_type":"settlement","date":"1558-06-24","date_year":1558,"date_month":6,"date_day":24,"date_orig_text":"Preßlaw IIII. Der ander [Marckt] auff Johannis Sibender.","duration":null},"geometry":{"type":"point","coordinates":[17.034468311946632,51.107270165385934]}},{"type":"Feature","properties":{"source_id":"SRC000166","event_no":"3","event_type":"fair_calendar","place_id":"PLC004147","place_name_modern":"Wroclaw","place_name_historic":"Wroclaw, Presla, Breslau, Breslaw","place_type":"settlement","date":"1558-09-14","date_year":1558,"date_month":9,"date_day":14,"date_orig_text":"Preßlaw IIII. Der dritte [Marckt] auff das Heylige Creutz erhebung.","duration":null},"geometry":{"type":"point","coordinates":[17.034468311946632,51.107270165385934]}},{"type":"Feature","properties":{"source_id":"SRC000166","event_no":"4","event_type":"fair_calendar","place_id":"PLC004147","place_name_modern":"Wroclaw","place_name_historic":"Wroclaw, Presla, Breslau, Breslaw","place_type":"settlement","date":"1558-09-17","date_year":1558,"date_month":9,"date_day":17,"date_orig_text":"Preßlaw IIII. Der vierdt [Marckt] ist auff S. Elisabeth tag.","duration":null},"geometry":{"type":"point","coordinates":[17.034468311946632,51.107270165385934]}},{"type":"Feature","properties":{"source_id":"SRC000166","event_no":"5","event_type":"fair_calendar","place_id":"PLC005261","place_name_modern":"Poznań [Posen]","place_name_historic":"","place_type":"settlement","date":"1558-02-22","date_year":1558,"date_month":2,"date_day":22,"date_orig_text":"Bossen III. Der erste Marck auff Faßnacht.","duration":null},"geometry":{"type":"point","coordinates":[16.935304879759627,52.40589177264295]}},{"type":"Feature","properties":{"source_id":"SRC000166","event_no":"6","event_type":"fair_calendar","place_id":"PLC005261","place_name_modern":"Poznań [Posen]","place_name_historic":"","place_type":"settlement","date":"1558-06-24","date_year":1558,"date_month":6,"date_day":24,"date_orig_text":"Bossen III. Der ander [Marck] auff Johannis Sibender.","duration":null},"geometry":{"type":"point","coordinates":[16.935304879759627,52.40589177264295]}},{"type":"Feature","properties":{"source_id":"SRC000166","event_no":"7","event_type":"fair_calendar","place_id":"PLC005261","place_name_modern":"Poznań [Posen]","place_name_historic":"","place_type":"settlement","date":"1558-09-29","date_year":1558,"date_month":9,"date_day":29,"date_orig_text":"Bossen III. Der dritte [Marck] auff Sanct Michaelis tag.","duration":null},"geometry":{"type":"point","coordinates":[16.935304879759627,52.40589177264295]}},{"type":"Feature","properties":{"source_id":"SRC000166","event_no":"8","event_type":"fair_calendar","place_id":"PLC002022","place_name_modern":"Dresden","place_name_historic":"Dresden, DRESDEN, Dressert, Dresda","place_type":"settlement","date":"1558-04-23","date_year":1558,"date_month":4,"date_day":23,"date_orig_text":"Dreßden II. Der erste Marckt auf Sanct Jeorgen tag.","duration":null},"geometry":{"type":"point","coordinates":[13.736789314727282,51.04954366143809]}},{"type":"Feature","properties":{"source_id":"SRC000166","event_no":"9","event_type":"fair_calendar","place_id":"PLC002022","place_name_modern":"Dresden","place_name_historic":"Dresden, DRESDEN, Dressert, Dresda","place_type":"settlement","date":"1558-08-24","date_year":1558,"date_month":8,"date_day":24,"date_orig_text":"Dreßden II. Der ander [Marckt] auff Sanct Bartholomeus tag.","duration":null},"geometry":{"type":"point","coordinates":[13.736789314727282,51.04954366143809]}},{"type":"Feature","properties":{"source_id":"SRC000166","event_no":"10","event_type":"fair_calendar","place_id":"PLC003337","place_name_modern":"Leoben","place_name_historic":"Leoben, Lengeu, Lewen, Leuben","place_type":"settlement","date":"1558-05-29","date_year":1558,"date_month":5,"date_day":29,"date_orig_text":"Löblem III. Der erste Marckt ist auff Pfingsten.","duration":null},"geometry":{"type":"point","coordinates":[15.092020296032029,47.379254192407195]}},{"type":"Feature","properties":{"source_id":"SRC000166","event_no":"11","event_type":"fair_calendar","place_id":"PLC003337","place_name_modern":"Leoben","place_name_historic":"Leoben, Lengeu, Lewen, Leuben","place_type":"settlement","date":"1558-10-28","date_year":1558,"date_month":10,"date_day":28,"date_orig_text":"Löblem III .Der ander [Marckt] auff Simonis vnd Jude.","duration":null},"geometry":{"type":"point","coordinates":[15.092020296032029,47.379254192407195]}},{"type":"Feature","properties":{"source_id":"SRC000166","event_no":"12","event_type":"fair_calendar","place_id":"PLC003337","place_name_modern":"Leoben","place_name_historic":"Leoben, Lengeu, Lewen, Leuben","place_type":"settlement","date":"1558-02-02","date_year":1558,"date_month":2,"date_day":2,"date_orig_text":"Löblem III. Der dritte [Marckt] auff Marie Liechtmeß.","duration":null},"geometry":{"type":"point","coordinates":[15.092020296032029,47.379254192407195]}},{"type":"Feature","properties":{"source_id":"SRC000166","event_no":"13","event_type":"fair_calendar","place_id":"PLC001580","place_name_modern":"Naumburg","place_name_historic":"Naumburg, Nauburg","place_type":"settlement","date":"1558-06-29","date_year":1558,"date_month":6,"date_day":29,"date_orig_text":"Naumburg I. Zu der Naumburg in Meissen/ist Marckt auff Petri vnd Pauli.","duration":null},"geometry":{"type":"point","coordinates":[11.812366154582973,51.15156434997887]}},{"type":"Feature","properties":{"source_id":"SRC000166","event_no":"14","event_type":"fair_calendar","place_id":"PLC000043","place_name_modern":"Frankfurt Main","place_name_historic":"Frankfurt am Main, Frankfurt, Franckfurt Main, Francfurt; Francfort, Francfort","place_type":"settlement","date":"1558-03-26","date_year":1558,"date_month":3,"date_day":26,"date_orig_text":"Franckfort am Mayn II. Die erste Meß ist 8 tag vor dem Palmtag.","duration":null},"geometry":{"type":"point","coordinates":[8.673089014562553,50.10997055280276]}},{"type":"Feature","properties":{"source_id":"SRC000166","event_no":"15","event_type":"fair_calendar","place_id":"PLC000043","place_name_modern":"Frankfurt Main","place_name_historic":"Frankfurt am Main, Frankfurt, Franckfurt Main, Francfurt; Francfort, Francfort","place_type":"settlement","date":"1558-09-09","date_year":1558,"date_month":9,"date_day":9,"date_orig_text":"Franckfort am Mayn II. Die ander [Meß] ist 8 tag nach Egidi.","duration":null},"geometry":{"type":"point","coordinates":[8.673089014562553,50.10997055280276]}},{"type":"Feature","properties":{"source_id":"SRC000166","event_no":"16","event_type":"fair_calendar","place_id":"PLC003341","place_name_modern":"Wien","place_name_historic":"Wien, VIEN","place_type":"settlement","date":"1558-05-30","date_year":1558,"date_month":5,"date_day":30,"date_orig_text":"Wien II. Der erste Marckt ist auff den andern Pfingstag.","duration":null},"geometry":{"type":"point","coordinates":[16.37305500840773,48.20866498819257]}},{"type":"Feature","properties":{"source_id":"SRC000166","event_no":"17","event_type":"fair_calendar","place_id":"PLC003341","place_name_modern":"Wien","place_name_historic":"Wien, VIEN","place_type":"settlement","date":"1558-11-25","date_year":1558,"date_month":11,"date_day":25,"date_orig_text":"Wien II. Der ander [Marckt] auff S. Katharina tag.","duration":null},"geometry":{"type":"point","coordinates":[16.37305500840773,48.20866498819257]}},{"type":"Feature","properties":{"source_id":"SRC000166","event_no":"18","event_type":"fair_calendar","place_id":"PLC003345","place_name_modern":"Linz","place_name_historic":"Linz, UNCZ, Lintz, Lincs","place_type":"settlement","date":"1558-04-18","date_year":1558,"date_month":4,"date_day":18,"date_orig_text":"Lintz II. Der erste [Marckt] ist 8 tag nach Ostern.","duration":null},"geometry":{"type":"point","coordinates":[14.286684102572764,48.30560216143704]}},{"type":"Feature","properties":{"source_id":"SRC000166","event_no":"19","event_type":"fair_calendar","place_id":"PLC003345","place_name_modern":"Linz","place_name_historic":"Linz, UNCZ, Lintz, Lincs","place_type":"settlement","date":"1558-08-24","date_year":1558,"date_month":8,"date_day":24,"date_orig_text":"Lintz II. Der ander [Marckt] auff S. Bartholomeus tag.","duration":null},"geometry":{"type":"point","coordinates":[14.286684102572764,48.30560216143704]}},{"type":"Feature","properties":{"source_id":"SRC000166","event_no":"20","event_type":"fair_calendar","place_id":"PLC005262","place_name_modern":"Bruck an der Laitha","place_name_historic":"","place_type":"settlement","date":"1558-02-14","date_year":1558,"date_month":2,"date_day":14,"date_orig_text":"In Osterreych VII Ochssen merck. Der erste [Ochssen merck] ist zu Bruck an der Lerchen auff S. Valentini.","duration":null},"geometry":{"type":"point","coordinates":[16.778545613555444,48.02437768168604]}},{"type":"Feature","properties":{"source_id":"SRC000166","event_no":"21","event_type":"fair_calendar","place_id":"PLC005282","place_name_modern":"Görzendorf an der Leitha","place_name_historic":"","place_type":"settlement","date":"1558-06-15","date_year":1558,"date_month":6,"date_day":15,"date_orig_text":"In Osterreych VII Ochssen merck. Der ander [Ochssen merck] zu Goerzendorff auff S. Veits tag.","duration":null},"geometry":{"type":"point","coordinates":[16.579884743230373,48.013427428902816]}},{"type":"Feature","properties":{"source_id":"SRC000166","event_no":"22","event_type":"fair_calendar","place_id":"PLC005264","place_name_modern":"Regenfort","place_name_historic":"","place_type":"settlement","date":"1558-07-04","date_year":1558,"date_month":7,"date_day":4,"date_orig_text":"In Osterreych VII Ochssen merck. Der dritte [Ochssen merck] zu Regenfort auff S. Ulrichs tag.","duration":null},"geometry":{"type":"point","coordinates":[0,0]}},{"type":"Feature","properties":{"source_id":"SRC000166","event_no":"23","event_type":"fair_calendar","place_id":"PLC005265","place_name_modern":"Kallenberg","place_name_historic":"","place_type":"settlement","date":"1558-07-20","date_year":1558,"date_month":7,"date_day":20,"date_orig_text":"In Osterreych VII Ochssen merck. Der vierdt [Ochssen merck] zu Kallenberg/auff S. Margereten tag.","duration":null},"geometry":{"type":"point","coordinates":[0,0]}},{"type":"Feature","properties":{"source_id":"SRC000166","event_no":"24","event_type":"fair_calendar","place_id":"PLC005266","place_name_modern":"Lunenbuth","place_name_historic":"","place_type":"settlement","date":"1558-08-10","date_year":1558,"date_month":8,"date_day":10,"date_orig_text":"In Osterreych VII Ochssen merck. Der fünffte [Ochssen merck] zu Lunenbuth auff S. Laurentzen tag.","duration":null},"geometry":{"type":"point","coordinates":[0,0]}},{"type":"Feature","properties":{"source_id":"SRC000166","event_no":"25","event_type":"fair_calendar","place_id":"PLC005267","place_name_modern":"Laxenburg","place_name_historic":"","place_type":"settlement","date":"1558-09-14","date_year":1558,"date_month":9,"date_day":14,"date_orig_text":"In Osterreych VII Ochssen merck. Der sechste [Ochssen merck] ist zu Lüxenburg auffs Heylige Creutz.","duration":null},"geometry":{"type":"point","coordinates":[16.355364265102804,48.06831822950577]}},{"type":"Feature","properties":{"source_id":"SRC000166","event_no":"26","event_type":"fair_calendar","place_id":"PLC003329","place_name_modern":"Maribor","place_name_historic":"Maribor, Marburg, Marchburg, Marchpurg","place_type":"settlement","date":"1558-10-13","date_year":1558,"date_month":10,"date_day":13,"date_orig_text":"In Osterreych VII Ochssen merck. Der sibend vnd letzte [Ochssen merck] zu Muyburg auff Kolmakloster.","duration":null},"geometry":{"type":"point","coordinates":[15.645813575663244,46.559755956120135]}},{"type":"Feature","properties":{"source_id":"SRC000166","event_no":"27","event_type":"fair_calendar","place_id":"PLC003352","place_name_modern":"Krems an der Donau","place_name_historic":"Krems an der Donau, Krems, Crembs","place_type":"settlement","date":"1558-07-25","date_year":1558,"date_month":7,"date_day":25,"date_orig_text":"Krembs II. Der erste Marckt ist auff S. Jacobs tag.","duration":null},"geometry":{"type":"point","coordinates":[15.60768377526018,48.40654638747437]}},{"type":"Feature","properties":{"source_id":"SRC000166","event_no":"28","event_type":"fair_calendar","place_id":"PLC003352","place_name_modern":"Krems an der Donau","place_name_historic":"Krems an der Donau, Krems, Crembs","place_type":"settlement","date":"1558-10-28","date_year":1558,"date_month":10,"date_day":28,"date_orig_text":"Krembs II. Der ander [Marckt] auff Simonis vnd Jude.","duration":null},"geometry":{"type":"point","coordinates":[15.60768377526018,48.40654638747437]}},{"type":"Feature","properties":{"source_id":"SRC000166","event_no":"29","event_type":"fair_calendar","place_id":"PLC005269","place_name_modern":"Bratislava","place_name_historic":"","place_type":"settlement","date":"1558-03-20","date_year":1558,"date_month":3,"date_day":20,"date_orig_text":"Preßburgk I. Gemelter Marckt fahet sich an auff mitfasten","duration":null},"geometry":{"type":"point","coordinates":[17.130322223346724,48.14803369378461]}},{"type":"Feature","properties":{"source_id":"SRC000166","event_no":"30","event_type":"fair_calendar","place_id":"PLC004042","place_name_modern":"Weitra","place_name_historic":", Weitra, Vdra","place_type":"settlement","date":"1558-06-09","date_year":1558,"date_month":6,"date_day":9,"date_orig_text":"Waldtha II. Der erste Marckt ist auff corporis Christi.","duration":null},"geometry":{"type":"point","coordinates":[14.89520071187814,48.70099455797375]}},{"type":"Feature","properties":{"source_id":"SRC000166","event_no":"31","event_type":"fair_calendar","place_id":"PLC004042","place_name_modern":"Weitra","place_name_historic":", Weitra, Vdra","place_type":"settlement","date":"1558-09-29","date_year":1558,"date_month":9,"date_day":29,"date_orig_text":"Waldtha II. Der ander {Marckt] auff Sanct Michaelis tag.","duration":null},"geometry":{"type":"point","coordinates":[14.89520071187814,48.70099455797375]}},{"type":"Feature","properties":{"source_id":"SRC000166","event_no":"32","event_type":"fair_calendar","place_id":"PLC005273","place_name_modern":"Dottes","place_name_historic":"","place_type":"settlement","date":"1558-06-24","date_year":1558,"date_month":6,"date_day":24,"date_orig_text":"Dottes II. Der erste Marckt ist auff Johannis Baptiste.","duration":null},"geometry":{"type":"point","coordinates":[0,0]}},{"type":"Feature","properties":{"source_id":"SRC000166","event_no":"33","event_type":"fair_calendar","place_id":"PLC005273","place_name_modern":"Dottes","place_name_historic":"","place_type":"settlement","date":"1558-10-09","date_year":1558,"date_month":10,"date_day":9,"date_orig_text":"Dottes II. Der ander [Marckt] auff Sanct Dionisius tag.","duration":null},"geometry":{"type":"point","coordinates":[0,0]}},{"type":"Feature","properties":{"source_id":"SRC000166","event_no":"34","event_type":"fair_calendar","place_id":"PLC005274","place_name_modern":"Karlsburg [Alba Iulia, Gyulafehérvár]","place_name_historic":"","place_type":"settlement","date":"1558-01-06","date_year":1558,"date_month":1,"date_day":6,"date_orig_text":"Weyssenburgk/vnd Wardein IX. Der erste Marckt ist auff Trium Regum auff beyden orten.","duration":null},"geometry":{"type":"point","coordinates":[23.57276260128992,46.068034891241744]}},{"type":"Feature","properties":{"source_id":"SRC000166","event_no":"35","event_type":"fair_calendar","place_id":"PLC005275","place_name_modern":"Oradea","place_name_historic":"","place_type":"settlement","date":"1558-01-06","date_year":1558,"date_month":1,"date_day":6,"date_orig_text":"Weyssenburgk/vnd Wardein IX. Der erste Marckt ist auff Trium Regum auff beyden orten.","duration":null},"geometry":{"type":"point","coordinates":[21.937780148599604,47.05205806679406]}},{"type":"Feature","properties":{"source_id":"SRC000166","event_no":"36","event_type":"fair_calendar","place_id":"PLC005275","place_name_modern":"Oradea","place_name_historic":"","place_type":"settlement","date":"1558-02-23","date_year":1558,"date_month":2,"date_day":23,"date_orig_text":"Weyssenburgk/vnd Wardein IX. Der ander [Marckt] auff die erste Fastwochen zu Wardein.","duration":"7 days"},"geometry":{"type":"point","coordinates":[21.937780148599604,47.05205806679406]}},{"type":"Feature","properties":{"source_id":"SRC000166","event_no":"37","event_type":"fair_calendar","place_id":"PLC005274","place_name_modern":"Karlsburg [Alba Iulia, Gyulafehérvár]","place_name_historic":"","place_type":"settlement","date":"1558-08-03","date_year":1558,"date_month":8,"date_day":3,"date_orig_text":"Weyssenburgk/vnd Wardein IX. Der dritte [Markt] zu Steffani Erfindung zu Weyssenburg.","duration":null},"geometry":{"type":"point","coordinates":[23.57276260128992,46.068034891241744]}},{"type":"Feature","properties":{"source_id":"SRC000166","event_no":"38","event_type":"fair_calendar","place_id":"PLC005275","place_name_modern":"Oradea","place_name_historic":"","place_type":"settlement","date":"1558-06-27","date_year":1558,"date_month":6,"date_day":27,"date_orig_text":"Weyssenburgk/vnd Wardein IX. Der vierdt [Marckt] auff Klein Ladischley zu Wardein.","duration":null},"geometry":{"type":"point","coordinates":[21.937780148599604,47.05205806679406]}},{"type":"Feature","properties":{"source_id":"SRC000166","event_no":"39","event_type":"fair_calendar","place_id":"PLC005274","place_name_modern":"Karlsburg [Alba Iulia, Gyulafehérvár]","place_name_historic":"","place_type":"settlement","date":"1558-08-17","date_year":1558,"date_month":8,"date_day":17,"date_orig_text":"Weyssenburgk/vnd Wardein IX. Der fünffte [Marckt] ist auff S. Steffani Krönung zu Weyssenburg.","duration":null},"geometry":{"type":"point","coordinates":[23.57276260128992,46.068034891241744]}},{"type":"Feature","properties":{"source_id":"SRC000166","event_no":"40","event_type":"fair_calendar","place_id":"PLC005275","place_name_modern":"Oradea","place_name_historic":"","place_type":"settlement","date":"1558-09-01","date_year":1558,"date_month":9,"date_day":1,"date_orig_text":"Weyssenburgk/vnd Wardein IX. Der sechste [Marckt] auff Egidii zu Wardein.","duration":null},"geometry":{"type":"point","coordinates":[21.937780148599604,47.05205806679406]}},{"type":"Feature","properties":{"source_id":"SRC000166","event_no":"41","event_type":"fair_calendar","place_id":"PLC005275","place_name_modern":"Oradea","place_name_historic":"","place_type":"settlement","date":"1558-10-03","date_year":1558,"date_month":10,"date_day":3,"date_orig_text":"Weyssenburgk/vnd Wardein IX. Der sibende [Marckt] ist auff S. Francisci Krönung zu Wardein.","duration":null},"geometry":{"type":"point","coordinates":[21.937780148599604,47.05205806679406]}},{"type":"Feature","properties":{"source_id":"SRC000166","event_no":"42","event_type":"fair_calendar","place_id":"PLC005274","place_name_modern":"Karlsburg [Alba Iulia, Gyulafehérvár]","place_name_historic":"","place_type":"settlement","date":"1558-11-05","date_year":1558,"date_month":11,"date_day":5,"date_orig_text":"Weyssenburgk/vnd Wardein IX. Der acht [Marckt] ist auff S. Emerici zu Weyssenburg.","duration":null},"geometry":{"type":"point","coordinates":[23.57276260128992,46.068034891241744]}},{"type":"Feature","properties":{"source_id":"SRC000166","event_no":"43","event_type":"fair_calendar","place_id":"PLC005275","place_name_modern":"Oradea","place_name_historic":"","place_type":"settlement","date":"1558-11-17","date_year":1558,"date_month":11,"date_day":17,"date_orig_text":"Weyssenburgk/vnd Wardein IX. Der neunte [Marckt[ ist auff S. Elisabeth zu Wardein.","duration":null},"geometry":{"type":"point","coordinates":[21.937780148599604,47.05205806679406]}},{"type":"Feature","properties":{"source_id":"SRC000166","event_no":"44","event_type":"fair_calendar","place_id":"PLC005276","place_name_modern":"Bad Erlach","place_name_historic":"","place_type":"settlement","date":"1558-03-25","date_year":1558,"date_month":3,"date_day":25,"date_orig_text":"Erlach/ vnd Jarlach III. Der erste Marckt ist auff Verkündigung Marie/ auff beyde ort.","duration":null},"geometry":{"type":"point","coordinates":[16.213233986210714,47.7273896163853]}},{"type":"Feature","properties":{"source_id":"SRC000166","event_no":"45","event_type":"fair_calendar","place_id":"PLC005277","place_name_modern":"Jarlach","place_name_historic":"","place_type":"settlement","date":"1558-03-25","date_year":1558,"date_month":3,"date_day":25,"date_orig_text":"Erlach/ vnd Jarlach III. Der erste Marckt ist auff Verkündigung Marie/ auff beyde ort.","duration":null},"geometry":{"type":"point","coordinates":[0,0]}},{"type":"Feature","properties":{"source_id":"SRC000166","event_no":"46","event_type":"fair_calendar","place_id":"PLC005276","place_name_modern":"Bad Erlach","place_name_historic":"","place_type":"settlement","date":"1558-07-25","date_year":1558,"date_month":7,"date_day":25,"date_orig_text":"Erlach/ vnd Jarlach III. Der ander [Marckt] ist auff S. Jacobs tag zu Erlach.","duration":null},"geometry":{"type":"point","coordinates":[16.213233986210714,47.7273896163853]}},{"type":"Feature","properties":{"source_id":"SRC000166","event_no":"48","event_type":"fair_calendar","place_id":"PLC005278","place_name_modern":"Gesteltz","place_name_historic":"","place_type":"settlement","date":"1558-04-03","date_year":1558,"date_month":4,"date_day":3,"date_orig_text":"Zu Gesteltz/Pasten/wnd Hardwang III. Der erst [Marckt] ist auff den Palmtag/ zu Gesteltz.","duration":null},"geometry":{"type":"point","coordinates":[0,0]}},{"type":"Feature","properties":{"source_id":"SRC000166","event_no":"49","event_type":"fair_calendar","place_id":"PLC005279","place_name_modern":"Pasten","place_name_historic":"","place_type":"settlement","date":"1558-04-17","date_year":1558,"date_month":4,"date_day":17,"date_orig_text":"Zu Gesteltz/Pasten/wnd Hardwang III. Der ander [Marckt] den nechsten Sontag nach Osten zu Pasten.","duration":null},"geometry":{"type":"point","coordinates":[0,0]}},{"type":"Feature","properties":{"source_id":"SRC000166","event_no":"50","event_type":"fair_calendar","place_id":"PLC005280","place_name_modern":"Hardwang","place_name_historic":"","place_type":"settlement","date":"1558-10-21","date_year":1558,"date_month":10,"date_day":21,"date_orig_text":"Zu Gesteltz/Pasten/wnd Hardwang III. Der dritte [Marckt] ist auff S. Vrsula tag/zu Hardwang.","duration":null},"geometry":{"type":"point","coordinates":[0,0]}},{"type":"Feature","properties":{"source_id":"SRC000166","event_no":"51","event_type":"fair_calendar","place_id":"PLC002099","place_name_modern":"Nördlingen","place_name_historic":"Nördlingen, Norlingen, Nordlingen","place_type":"settlement","date":"1558-06-09","date_year":1558,"date_month":6,"date_day":9,"date_orig_text":"Nörlinger Meß I. Gemelte Meß gehet ein auff corporis Christi/weret 14 tag.","duration":"14 days"},"geometry":{"type":"point","coordinates":[10.49236007556872,48.8501423347542]}},{"type":"Feature","properties":{"source_id":"SRC000166","event_no":"52","event_type":"fair_calendar","place_id":"PLC002108","place_name_modern":"Moosburg an der Isar","place_name_historic":"Moosburg an der Isar, Moospurg, Mosburg","place_type":"settlement","date":"1558-05-29","date_year":1558,"date_month":5,"date_day":29,"date_orig_text":"Moßburg II. Der erste Marckt ist auff Pfingsten.","duration":null},"geometry":{"type":"point","coordinates":[11.930414050661394,48.46837374726324]}},{"type":"Feature","properties":{"source_id":"SRC000166","event_no":"53","event_type":"fair_calendar","place_id":"PLC002108","place_name_modern":"Moosburg an der Isar","place_name_historic":"Moosburg an der Isar, Moospurg, Mosburg","place_type":"settlement","date":"1558-10-21","date_year":1558,"date_month":10,"date_day":21,"date_orig_text":"Moßburg II. Der ander [Marckt] auff S. Vrsula tag in October.","duration":null},"geometry":{"type":"point","coordinates":[11.930414050661394,48.46837374726324]}},{"type":"Feature","properties":{"source_id":"SRC000166","event_no":"54","event_type":"fair_calendar","place_id":"PLC004756","place_name_modern":"Bozen [Bolzano]","place_name_historic":"Bozen [Bolzano]","place_type":"settlement","date":"1558-09-01","date_year":1558,"date_month":9,"date_day":1,"date_orig_text":"Botzen III. Der erste Marck ist auff Egidii","duration":null},"geometry":{"type":"point","coordinates":[11.354967819139139,46.49655837493802]}},{"type":"Feature","properties":{"source_id":"SRC000166","event_no":"55","event_type":"fair_calendar","place_id":"PLC004756","place_name_modern":"Bozen [Bolzano]","place_name_historic":"Bozen [Bolzano]","place_type":"settlement","date":"1558-11-30","date_year":1558,"date_month":11,"date_day":30,"date_orig_text":"Botzen III. Der ander [Marck] auff S. Andreas tag.","duration":null},"geometry":{"type":"point","coordinates":[11.354967819139139,46.49655837493802]}},{"type":"Feature","properties":{"source_id":"SRC000166","event_no":"56","event_type":"fair_calendar","place_id":"PLC004756","place_name_modern":"Bozen [Bolzano]","place_name_historic":"Bozen [Bolzano]","place_type":"settlement","date":"1558-03-20","date_year":1558,"date_month":3,"date_day":20,"date_orig_text":"Botzen III. Der dritte [Marck] auff Mitfasten.","duration":null},"geometry":{"type":"point","coordinates":[11.354967819139139,46.49655837493802]}},{"type":"Feature","properties":{"source_id":"SRC000166","event_no":"57","event_type":"fair_calendar","place_id":"PLC005656","place_name_modern":"Gern (Eggenfelden)","place_name_historic":"","place_type":"settlement","date":"1558-04-23","date_year":1558,"date_month":4,"date_day":23,"date_orig_text":"Zu Berner I. Der Berner Marckt ist auff S. Georgen tag.","duration":null},"geometry":{"type":"point","coordinates":[12.772973709371161,48.39972282636972]}},{"type":"Feature","properties":{"source_id":"SRC000166","event_no":"58","event_type":"fair_calendar","place_id":"PLC002142","place_name_modern":"Hall in Tirol","place_name_historic":"Hall in Tirol, Hall, Hel","place_type":"settlement","date":"1558-11-01","date_year":1558,"date_month":11,"date_day":1,"date_orig_text":"Hall im Inthal II. Der erste Marckt ist auff Aller Heyligen tag.","duration":null},"geometry":{"type":"point","coordinates":[11.508562535022412,47.28103694187015]}},{"type":"Feature","properties":{"source_id":"SRC000166","event_no":"59","event_type":"fair_calendar","place_id":"PLC002142","place_name_modern":"Hall in Tirol","place_name_historic":"Hall in Tirol, Hall, Hel","place_type":"settlement","date":"1558-04-23","date_year":1558,"date_month":4,"date_day":23,"date_orig_text":"Hall im Inthal II. Der ander [Marckt[ auff S. Georgen tag.","duration":null},"geometry":{"type":"point","coordinates":[11.508562535022412,47.28103694187015]}},{"type":"Feature","properties":{"source_id":"SRC000166","event_no":"60","event_type":"fair_calendar","place_id":"PLC002161","place_name_modern":"Bruneck","place_name_historic":"Bruneck, Brunegk","place_type":"settlement","date":"1558-08-10","date_year":1558,"date_month":8,"date_day":10,"date_orig_text":"Bruneck I. Gemelter Marckt ist auff S. Laurentzen tag.","duration":null},"geometry":{"type":"point","coordinates":[11.925781522116312,46.794484200591384]}},{"type":"Feature","properties":{"source_id":"SRC000166","event_no":"61","event_type":"fair_calendar","place_id":"PLC002159","place_name_modern":"Brixen","place_name_historic":"Brixen, Brixn","place_type":"settlement","date":"1558-11-01","date_year":1558,"date_month":11,"date_day":1,"date_orig_text":"Priren I. Gemelter Marckt ist auff Aller Heyligen tag.","duration":null},"geometry":{"type":"point","coordinates":[11.656684455255219,46.716490683407756]}},{"type":"Feature","properties":{"source_id":"SRC000166","event_no":"62","event_type":"fair_calendar","place_id":"PLC002215","place_name_modern":"Augsburg","place_name_historic":"Augsburg, AUGSBURG, Augspurg","place_type":"settlement","date":"1558-09-29","date_year":1558,"date_month":9,"date_day":29,"date_orig_text":"Augspurg I. Gemelter Marckt ist auff S. Michaelis tag.","duration":null},"geometry":{"type":"point","coordinates":[10.893103101485123,48.3707762940575]}},{"type":"Feature","properties":{"source_id":"SRC000166","event_no":"63","event_type":"fair_calendar","place_id":"PLC002064","place_name_modern":"Nürnberg","place_name_historic":"Nürnberg, NURNBERG, Nuremberg","place_type":"settlement","date":"1558-04-15","date_year":1558,"date_month":4,"date_day":15,"date_orig_text":"Nürnberg III. Der erste Marckt ist auff den andern Freytag nach Ostern/ wirdt genandt das Heylthum","duration":null},"geometry":{"type":"point","coordinates":[11.076277748527682,49.45272813262063]}},{"type":"Feature","properties":{"source_id":"SRC000166","event_no":"64","event_type":"fair_calendar","place_id":"PLC002064","place_name_modern":"Nürnberg","place_name_historic":"Nürnberg, NURNBERG, Nuremberg","place_type":"settlement","date":"1558-09-01","date_year":1558,"date_month":9,"date_day":1,"date_orig_text":"Nürnberg III. Der ander [Marckt] auff Egidii.","duration":null},"geometry":{"type":"point","coordinates":[11.076277748527682,49.45272813262063]}},{"type":"Feature","properties":{"source_id":"SRC000166","event_no":"65","event_type":"fair_calendar","place_id":"PLC002064","place_name_modern":"Nürnberg","place_name_historic":"Nürnberg, NURNBERG, Nuremberg","place_type":"settlement","date":"1558-01-01","date_year":1558,"date_month":1,"date_day":1,"date_orig_text":"Nürnberg III. Der dritte [Marckt] auffs New Jar","duration":null},"geometry":{"type":"point","coordinates":[11.076277748527682,49.45272813262063]}},{"type":"Feature","properties":{"source_id":"SRC000166","event_no":"66","event_type":"fair_calendar","place_id":"PLC003474","place_name_modern":"Frankfurt Oder","place_name_historic":"Frankfurt an der Oder, Frankfurt, Franckfurt","place_type":"settlement","date":"1558-03-06","date_year":1558,"date_month":3,"date_day":6,"date_orig_text":"Franckfort an Oder III. Der erste Marckt ist auff Reminiscere.","duration":null},"geometry":{"type":"point","coordinates":[14.554735596537304,52.346012207043074]}},{"type":"Feature","properties":{"source_id":"SRC000166","event_no":"67","event_type":"fair_calendar","place_id":"PLC003474","place_name_modern":"Frankfurt Oder","place_name_historic":"Frankfurt an der Oder, Frankfurt, Franckfurt","place_type":"settlement","date":"1558-07-20","date_year":1558,"date_month":7,"date_day":20,"date_orig_text":"Franckfort an Oder III. Der ander [Marckt] auff S. Margarethen tag.","duration":null},"geometry":{"type":"point","coordinates":[14.554735596537304,52.346012207043074]}},{"type":"Feature","properties":{"source_id":"SRC000166","event_no":"68","event_type":"fair_calendar","place_id":"PLC003474","place_name_modern":"Frankfurt Oder","place_name_historic":"Frankfurt an der Oder, Frankfurt, Franckfurt","place_type":"settlement","date":"1558-11-11","date_year":1558,"date_month":11,"date_day":11,"date_orig_text":"Franckfort an Oder III. Der dritte [Marckt] auff Martini.","duration":null},"geometry":{"type":"point","coordinates":[14.554735596537304,52.346012207043074]}},{"type":"Feature","properties":{"source_id":"SRC000166","event_no":"69","event_type":"fair_calendar","place_id":"PLC001243","place_name_modern":"Basel","place_name_historic":"Basel, Basle, PASEL, Bassel, Basilea","place_type":"settlement","date":"1558-11-11","date_year":1558,"date_month":11,"date_day":11,"date_orig_text":"Basel in Schweytz I. Gemelter Marckt ist auff Martini/vnd weret 8 tag.","duration":"8 days"},"geometry":{"type":"point","coordinates":[7.585919621522472,47.5585013916897]}},{"type":"Feature","properties":{"source_id":"SRC000166","event_no":"70","event_type":"fair_calendar","place_id":"PLC000073","place_name_modern":"Strasbourg","place_name_historic":"Strasbourg, STRASBURG, Strasburg, Strassbourg","place_type":"settlement","date":"1558-06-24","date_year":1558,"date_month":6,"date_day":24,"date_orig_text":"Straßburgk I. Gemelter Marckt ist auff Johannis Baptiste.","duration":null},"geometry":{"type":"point","coordinates":[7.747529973447003,48.584862875424925]}},{"type":"Feature","properties":{"source_id":"SRC000166","event_no":"71","event_type":"fair_calendar","place_id":"PLC000406","place_name_modern":"Lyon","place_name_historic":", Lyon, Leon, Lion","place_type":"settlement","date":"1558-01-10","date_year":1558,"date_month":1,"date_day":10,"date_orig_text":"Leon IIII Meß. Die erste Meß ist auff Montag nach Trium Regum.","duration":null},"geometry":{"type":"point","coordinates":[4.832640613902609,45.758817110591664]}},{"type":"Feature","properties":{"source_id":"SRC000166","event_no":"72","event_type":"fair_calendar","place_id":"PLC000406","place_name_modern":"Lyon","place_name_historic":", Lyon, Leon, Lion","place_type":"settlement","date":"1558-04-18","date_year":1558,"date_month":4,"date_day":18,"date_orig_text":"Leon IIII Meß. Die ander [Meß] ist auff Montag Quasimodogeniti","duration":null},"geometry":{"type":"point","coordinates":[4.832640613902609,45.758817110591664]}},{"type":"Feature","properties":{"source_id":"SRC000166","event_no":"73","event_type":"fair_calendar","place_id":"PLC000406","place_name_modern":"Lyon","place_name_historic":", Lyon, Leon, Lion","place_type":"settlement","date":"1558-08-04","date_year":1558,"date_month":8,"date_day":4,"date_orig_text":"Leon IIII Meß. Die dritte [Meß] ist auff den 4 Augusti.","duration":null},"geometry":{"type":"point","coordinates":[4.832640613902609,45.758817110591664]}},{"type":"Feature","properties":{"source_id":"SRC000166","event_no":"74","event_type":"fair_calendar","place_id":"PLC000406","place_name_modern":"Lyon","place_name_historic":", Lyon, Leon, Lion","place_type":"settlement","date":"1558-11-02","date_year":1558,"date_month":11,"date_day":2,"date_orig_text":"Leon IIII Meß. Die vierdt [Meß] ist den nechsten tag nach Aller Heyligen","duration":null},"geometry":{"type":"point","coordinates":[4.832640613902609,45.758817110591664]}},{"type":"Feature","properties":{"source_id":"SRC000166","event_no":"75","event_type":"fair_calendar","place_id":"PLC001568","place_name_modern":"Leipzig","place_name_historic":"Leipzig, LIPCZ","place_type":"settlement","date":"1558-04-24","date_year":1558,"date_month":4,"date_day":24,"date_orig_text":"Leypzig III. Der erste Marckt ist 14 tag nach Ostern.","duration":null},"geometry":{"type":"point","coordinates":[12.374406700864903,51.34030646147477]}},{"type":"Feature","properties":{"source_id":"SRC000166","event_no":"76","event_type":"fair_calendar","place_id":"PLC001568","place_name_modern":"Leipzig","place_name_historic":"Leipzig, LIPCZ","place_type":"settlement","date":"1558-10-02","date_year":1558,"date_month":10,"date_day":2,"date_orig_text":"Leypzig III. Der ander [Marckt] ist auff den nechsten Sontag nach S. Michaelis tag.","duration":null},"geometry":{"type":"point","coordinates":[12.374406700864903,51.34030646147477]}},{"type":"Feature","properties":{"source_id":"SRC000166","event_no":"77","event_type":"fair_calendar","place_id":"PLC001568","place_name_modern":"Leipzig","place_name_historic":"Leipzig, LIPCZ","place_type":"settlement","date":"1558-01-01","date_year":1558,"date_month":1,"date_day":1,"date_orig_text":"Leypzig III. Der dritte [Marckt] ist auffs New Jar/vnd weret ein jeder Marckt 8 oder 10 tag","duration":"8 or 10 days"},"geometry":{"type":"point","coordinates":[12.374406700864903,51.34030646147477]}},{"type":"Feature","properties":{"source_id":"SRC000166","event_no":"78","event_type":"fair_calendar","place_id":"PLC000524","place_name_modern":"Brügge","place_name_historic":"Brügge, Bruges, Brugk, Brugge, Brugges","place_type":"settlement","date":"1558-01-15","date_year":1558,"date_month":1,"date_day":15,"date_orig_text":"Bruck in Flandern II. Der erste Marckt ist auff 15/vnnd weret biß auff den 18 Jenner/zalt man die Wechssel auß Aller Heiligen meß von Leon.","duration":"4 days"},"geometry":{"type":"point","coordinates":[3.224798683805872,51.207851547571416]}},{"type":"Feature","properties":{"source_id":"SRC000166","event_no":"79","event_type":"fair_calendar","place_id":"PLC000524","place_name_modern":"Brügge","place_name_historic":"Brügge, Bruges, Brugk, Brugge, Brugges","place_type":"settlement","date":"1558-03-20","date_year":1558,"date_month":3,"date_day":20,"date_orig_text":"Bruck in Flandern II. Der ander [Marckt] ist auff Mitfasten/weret 8 tag/Zalt man die Wechssel auß Leoner Partzioner Meß.","duration":"8 days"},"geometry":{"type":"point","coordinates":[3.224798683805872,51.207851547571416]}},{"type":"Feature","properties":{"source_id":"SRC000166","event_no":"80","event_type":"fair_calendar","place_id":"PLC002171","place_name_modern":"München","place_name_historic":"München, MUNGEN, Munchen","place_type":"settlement","date":"1558-07-25","date_year":1558,"date_month":7,"date_day":25,"date_orig_text":"München I. Münchner Dult/gehet ein auff Sanct Jacobs tag in Julio.","duration":null},"geometry":{"type":"point","coordinates":[11.575561896285542,48.1372432211546]}},{"type":"Feature","properties":{"source_id":"SRC000166","event_no":"81","event_type":"fair_calendar","place_id":"PLC002786","place_name_modern":"Bari","place_name_historic":", Bari, Barri","place_type":"settlement","date":"1558-11-01","date_year":1558,"date_month":11,"date_day":1,"date_orig_text":"In Puglia VII. Der erste Marckt ist auff Aller Heyligen tag 3 meyl von Barii.","duration":null},"geometry":{"type":"point","coordinates":[16.867652334561388,41.12500049366243]}},{"type":"Feature","properties":{"source_id":"SRC000166","event_no":"82","event_type":"fair_calendar","place_id":"PLC005284","place_name_modern":"Bere in terra di Trautto","place_name_historic":"","place_type":"settlement","date":"1558-11-06","date_year":1558,"date_month":11,"date_day":6,"date_orig_text":"In Puglia VII. Der ander [Marckt] ist auff den ersten Sontage nach Aller Heyligen tag in der Statt Bere in terra di Trautto.","duration":null},"geometry":{"type":"point","coordinates":[0,0]}},{"type":"Feature","properties":{"source_id":"SRC000166","event_no":"83","event_type":"fair_calendar","place_id":"PLC003757","place_name_modern":"Barletta","place_name_historic":"Barletta","place_type":"settlement","date":"1558-11-11","date_year":1558,"date_month":11,"date_day":11,"date_orig_text":"In Puglia VII. Der dritte [Marckt] ist auff den 11 Nouember zu Barleta.","duration":null},"geometry":{"type":"point","coordinates":[16.287408,41.320526]}},{"type":"Feature","properties":{"source_id":"SRC000166","event_no":"84","event_type":"fair_calendar","place_id":"PLC005287","place_name_modern":"San Pietro in Bevagna","place_name_historic":"","place_type":"settlement","date":"1558-11-25","date_year":1558,"date_month":11,"date_day":25,"date_orig_text":"In Puglia VII. Der vierdte [Marckt] ist auff den 25 Nouember zu S. Piero Galarrio.","duration":null},"geometry":{"type":"point","coordinates":[17.672443131265418,40.30656834859075]}},{"type":"Feature","properties":{"source_id":"SRC000166","event_no":"85","event_type":"fair_calendar","place_id":"PLC002786","place_name_modern":"Bari","place_name_historic":", Bari, Barri","place_type":"settlement","date":"1558-12-06","date_year":1558,"date_month":12,"date_day":6,"date_orig_text":"In Puglia VII. Der fünffte [Marckt] ist auff den 6 December zu Barii in der Stat.","duration":null},"geometry":{"type":"point","coordinates":[16.867652334561388,41.12500049366243]}},{"type":"Feature","properties":{"source_id":"SRC000166","event_no":"86","event_type":"fair_calendar","place_id":"PLC003755","place_name_modern":"Trani","place_name_historic":"Trani","place_type":"settlement","date":"1558-01-01","date_year":1558,"date_month":1,"date_day":1,"date_orig_text":"In Puglia VII. Der sechste [Marckt] ist auff Primo Jener zu Trauii.","duration":null},"geometry":{"type":"point","coordinates":[16.418129,41.281981]}},{"type":"Feature","properties":{"source_id":"SRC000166","event_no":"87","event_type":"fair_calendar","place_id":"PLC003753","place_name_modern":"Taranto","place_name_historic":"Taranto","place_type":"settlement","date":"1558-01-18","date_year":1558,"date_month":1,"date_day":18,"date_orig_text":"In Puglia VII. Der sibend vnd letzt [Marckt]/ist auff den 18 Jenner/zu Trautto.","duration":null},"geometry":{"type":"point","coordinates":[17.245866,40.466998]}},{"type":"Feature","properties":{"source_id":"SRC000166","event_no":"88","event_type":"fair_calendar","place_id":"PLC005285","place_name_modern":"Buda [Ofen]","place_name_historic":"","place_type":"settlement","date":"1558-05-29","date_year":1558,"date_month":5,"date_day":29,"date_orig_text":"In Vngern IIII. Der erste [Marckt] ist auff Pfingsten zu Ofen.","duration":null},"geometry":{"type":"point","coordinates":[19.039722537083822,47.496154958357614]}},{"type":"Feature","properties":{"source_id":"SRC000166","event_no":"89","event_type":"fair_calendar","place_id":"PLC005286","place_name_modern":"Pest","place_name_historic":"","place_type":"settlement","date":"1558-08-01","date_year":1558,"date_month":8,"date_day":1,"date_orig_text":"In Vngern IIII. Der ander [Marckt] ist auff Vincula Petri zu Peschst.","duration":null},"geometry":{"type":"point","coordinates":[19.064418168564345,47.50548552826556]}},{"type":"Feature","properties":{"source_id":"SRC000166","event_no":"90","event_type":"fair_calendar","place_id":"PLC005286","place_name_modern":"Pest","place_name_historic":"","place_type":"settlement","date":"1558-12-06","date_year":1558,"date_month":12,"date_day":6,"date_orig_text":"In Vngern IIII. Der dritte [Marckt] ist auff Nicolay auch zu Peschst.","duration":null},"geometry":{"type":"point","coordinates":[19.064418168564345,47.50548552826556]}},{"type":"Feature","properties":{"source_id":"SRC000166","event_no":"91","event_type":"fair_calendar","place_id":"PLC005285","place_name_modern":"Buda [Ofen]","place_name_historic":"","place_type":"settlement","date":"1558-09-08","date_year":1558,"date_month":9,"date_day":8,"date_orig_text":"In Vngern IIII. Der vierdte [Marckt] ist auff vnser Frawen Geburt zu Ofen.","duration":null},"geometry":{"type":"point","coordinates":[19.039722537083822,47.496154958357614]}},{"type":"Feature","properties":{"source_id":"SRC000166","event_no":"92","event_type":"fair_calendar","place_id":"PLC000124","place_name_modern":"Gent","place_name_historic":"Gent, GAND, Ghendt, Gand","place_type":"settlement","date":"1558-03-21","date_year":1558,"date_month":3,"date_day":21,"date_orig_text":"Gent in Flandern II. Der erste Marckt ist auff den dritten Montag in Marcio/vnd ist ein grosser Roßmarck. Mittwoch darnach ist Marck von allen ander güter.","duration":null},"geometry":{"type":"point","coordinates":[3.723300078558037,51.04793259798228]}},{"type":"Feature","properties":{"source_id":"SRC000166","event_no":"93","event_type":"fair_calendar","place_id":"PLC000124","place_name_modern":"Gent","place_name_historic":"Gent, GAND, Ghendt, Gand","place_type":"settlement","date":"1558-05-09","date_year":1558,"date_month":5,"date_day":9,"date_orig_text":"Gent in Flandern II. Der ander Marckt ist auff den 9 May.","duration":null},"geometry":{"type":"point","coordinates":[3.723300078558037,51.04793259798228]}},{"type":"Feature","properties":{"source_id":"SRC000175","event_no":"1","event_type":"fair_calendar","place_id":"PLC000113","place_name_modern":"Antwerpen","place_name_historic":", Antwerpen, Antverpe","place_type":"settlement","date":"1558-05-30","date_year":1558,"date_month":5,"date_day":30,"date_orig_text":"Der erste Marckt vnd gemeine freyheytwird/eingeplasen am andern Pfingstag/Genandt der Pfingsmarck.","duration":null},"geometry":{"type":"point","coordinates":[4.399684477601141,51.22083350522394]}},{"type":"Feature","properties":{"source_id":"SRC000175","event_no":"2","event_type":"fair_calendar","place_id":"PLC000113","place_name_modern":"Antwerpen","place_name_historic":", Antwerpen, Antverpe","place_type":"settlement","date":"1558-08-15","date_year":1558,"date_month":8,"date_day":15,"date_orig_text":"Der ander Marck vnnd gemeine freyheyt inn Andtorff/wird eingeplasen den nechsten tag nach vnser Frawen Schiedung/oder Himelfart im Augusto/Genandt Bomas Marcktag.","duration":null},"geometry":{"type":"point","coordinates":[4.399684477601141,51.22083350522394]}},{"type":"Feature","properties":{"source_id":"SRC000175","event_no":"3","event_type":"fair_calendar","place_id":"PLC000113","place_name_modern":"Antwerpen","place_name_historic":", Antwerpen, Antverpe","place_type":"settlement","date":"1558-03-20","date_year":1558,"date_month":3,"date_day":20,"date_orig_text":"Noch ist ein kleiner Marckt in Antorff/vmb Mitfasten/genandt Lieberung/wird genand Paßmarck.","duration":null},"geometry":{"type":"point","coordinates":[4.399684477601141,51.22083350522394]}}]}