{"type":"FeatureCollection","name":"CoMOR-FairCalendars","collection_id":"COL0103","records":36,"download_user":"admin","download_date":"2026-08-10T18:45:54.965+02:00","readme":"See the readme file included in this download for details about this file.","features":[{"type":"Feature","properties":{"source_id":"SRC000853","event_no":"1","event_type":"fair_calendar","place_id":"PLC001239","place_name_modern":"Luxemburg","place_name_historic":"Luxemburg, Luzlburch, Lüzenburg, Lutzenburg, Luxembourg","place_type":"settlement","date":"1605","date_year":1605,"date_month":0,"date_day":0,"date_orig_text":"lunae die post octavas epiphaniae (the monday after the 13th of january)","duration":null},"geometry":{"type":"point","coordinates":[6.131410098352762,49.61130372347885]}},{"type":"Feature","properties":{"source_id":"SRC000853","event_no":"2","event_type":"fair_calendar","place_id":"PLC001239","place_name_modern":"Luxemburg","place_name_historic":"Luxemburg, Luzlburch, Lüzenburg, Lutzenburg, Luxembourg","place_type":"settlement","date":"1605","date_year":1605,"date_month":0,"date_day":0,"date_orig_text":"die cinerum (Ash Wednesday)","duration":null},"geometry":{"type":"point","coordinates":[6.131410098352762,49.61130372347885]}},{"type":"Feature","properties":{"source_id":"SRC000853","event_no":"3","event_type":"fair_calendar","place_id":"PLC001239","place_name_modern":"Luxemburg","place_name_historic":"Luxemburg, Luzlburch, Lüzenburg, Lutzenburg, Luxembourg","place_type":"settlement","date":"1605","date_year":1605,"date_month":0,"date_day":0,"date_orig_text":"a festo divi Bartholomei ad domenicam usque festum decollati sancti Ioannis proxime sequentem (from 24th of august till sunday after the 29th of august)","duration":null},"geometry":{"type":"point","coordinates":[6.131410098352762,49.61130372347885]}},{"type":"Feature","properties":{"source_id":"SRC000854","event_no":"1","event_type":"fair_calendar","place_id":"PLC000100","place_name_modern":"Arlon","place_name_historic":"Arlon, Arlun","place_type":"settlement","date":"1605","date_year":1605,"date_month":0,"date_day":0,"date_orig_text":"primae die Iovis prima ineuntis anni (first friday after the new year)","duration":null},"geometry":{"type":"point","coordinates":[5.816709076171924,49.682930075367835]}},{"type":"Feature","properties":{"source_id":"SRC000854","event_no":"2","event_type":"fair_calendar","place_id":"PLC000100","place_name_modern":"Arlon","place_name_historic":"Arlon, Arlun","place_type":"settlement","date":"1605","date_year":1605,"date_month":0,"date_day":0,"date_orig_text":"die Martis post Pentecosten (tuesday after pentecost)","duration":null},"geometry":{"type":"point","coordinates":[5.816709076171924,49.682930075367835]}},{"type":"Feature","properties":{"source_id":"SRC000854","event_no":"3","event_type":"fair_calendar","place_id":"PLC000100","place_name_modern":"Arlon","place_name_historic":"Arlon, Arlun","place_type":"settlement","date":"1605","date_year":1605,"date_month":0,"date_day":0,"date_orig_text":"in festo divi Martini (11th of november)","duration":null},"geometry":{"type":"point","coordinates":[5.816709076171924,49.682930075367835]}},{"type":"Feature","properties":{"source_id":"SRC000855","event_no":"1","event_type":"fair_calendar","place_id":"PLC000107","place_name_modern":"Dietenhofen","place_name_historic":"Dietenhofen, Theoville, Thionville","place_type":"settlement","date":"1605","date_year":1605,"date_month":0,"date_day":0,"date_orig_text":"in festo exaltationis sanctae crucis (the 14th of september)","duration":null},"geometry":{"type":"point","coordinates":[6.159488869543783,49.36135382268124]}},{"type":"Feature","properties":{"source_id":"SRC000856","event_no":"1","event_type":"fair_calendar","place_id":"PLC000102","place_name_modern":"Bastnach","place_name_historic":"Bastnach, Bastaigne, Bastoigne, Bostogna","place_type":"settlement","date":"1605","date_year":1605,"date_month":0,"date_day":0,"date_orig_text":"in cathedra divi Petri (the 22nd of february)","duration":null},"geometry":{"type":"point","coordinates":[5.716269152550018,50.00161093300204]}},{"type":"Feature","properties":{"source_id":"SRC000856","event_no":"2","event_type":"fair_calendar","place_id":"PLC000102","place_name_modern":"Bastnach","place_name_historic":"Bastnach, Bastaigne, Bastoigne, Bostogna","place_type":"settlement","date":"1605","date_year":1605,"date_month":0,"date_day":0,"date_orig_text":"in natali divi Ioannis Baptistae (24th of june)","duration":null},"geometry":{"type":"point","coordinates":[5.716269152550018,50.00161093300204]}},{"type":"Feature","properties":{"source_id":"SRC000856","event_no":"3","event_type":"fair_calendar","place_id":"PLC000102","place_name_modern":"Bastnach","place_name_historic":"Bastnach, Bastaigne, Bastoigne, Bostogna","place_type":"settlement","date":"1605","date_year":1605,"date_month":0,"date_day":0,"date_orig_text":"in festo sancti Iacobi maioris apostoli (25th of july)","duration":null},"geometry":{"type":"point","coordinates":[5.716269152550018,50.00161093300204]}},{"type":"Feature","properties":{"source_id":"SRC000856","event_no":"4","event_type":"fair_calendar","place_id":"PLC000102","place_name_modern":"Bastnach","place_name_historic":"Bastnach, Bastaigne, Bastoigne, Bostogna","place_type":"settlement","date":"1605","date_year":1605,"date_month":0,"date_day":0,"date_orig_text":"prima die octobris divo Remigio episcopo sacra (the 1st of october)","duration":null},"geometry":{"type":"point","coordinates":[5.716269152550018,50.00161093300204]}},{"type":"Feature","properties":{"source_id":"SRC000857","event_no":"1","event_type":"fair_calendar","place_id":"PLC003403","place_name_modern":"Echternach","place_name_historic":"Echternach, Esternacken","place_type":"settlement","date":"1605","date_year":1605,"date_month":0,"date_day":0,"date_orig_text":"in divi Sebastiani festum (the 20th of january)","duration":null},"geometry":{"type":"point","coordinates":[6.414010273997224,49.816891844284626]}},{"type":"Feature","properties":{"source_id":"SRC000857","event_no":"2","event_type":"fair_calendar","place_id":"PLC003403","place_name_modern":"Echternach","place_name_historic":"Echternach, Esternacken","place_type":"settlement","date":"1605","date_year":1605,"date_month":0,"date_day":0,"date_orig_text":"in palmarum profestum (saturday before palm sunday)","duration":null},"geometry":{"type":"point","coordinates":[6.414010273997224,49.816891844284626]}},{"type":"Feature","properties":{"source_id":"SRC000857","event_no":"3","event_type":"fair_calendar","place_id":"PLC003403","place_name_modern":"Echternach","place_name_historic":"Echternach, Esternacken","place_type":"settlement","date":"1605","date_year":1605,"date_month":0,"date_day":0,"date_orig_text":"in alteram Pentecotes (the day after pentecost)","duration":null},"geometry":{"type":"point","coordinates":[6.414010273997224,49.816891844284626]}},{"type":"Feature","properties":{"source_id":"SRC000857","event_no":"4","event_type":"fair_calendar","place_id":"PLC003403","place_name_modern":"Echternach","place_name_historic":"Echternach, Esternacken","place_type":"settlement","date":"1605","date_year":1605,"date_month":0,"date_day":0,"date_orig_text":"in sancti Willibrordi festivitatem (7th of november)","duration":null},"geometry":{"type":"point","coordinates":[6.414010273997224,49.816891844284626]}},{"type":"Feature","properties":{"source_id":"SRC000858","event_no":"1","event_type":"fair_calendar","place_id":"PLC000101","place_name_modern":"Diekirch","place_name_historic":"Diekirch, Dietkirch, Diery","place_type":"settlement","date":"1605","date_year":1605,"date_month":0,"date_day":0,"date_orig_text":"divae Gertrudis festum (17th of march)","duration":null},"geometry":{"type":"point","coordinates":[6.157247440449126,49.867947136542206]}},{"type":"Feature","properties":{"source_id":"SRC000859","event_no":"1","event_type":"fair_calendar","place_id":"PLC005627","place_name_modern":"Rodemack, Rodemachern","place_name_historic":"","place_type":"settlement","date":"1605","date_year":1605,"date_month":0,"date_day":0,"date_orig_text":"divi Nicolai episcopi festum diem (6th of december)","duration":null},"geometry":{"type":"point","coordinates":[6.235105,49.470801]}},{"type":"Feature","properties":{"source_id":"SRC000860","event_no":"1","event_type":"fair_calendar","place_id":"PLC005628","place_name_modern":"Wiltz","place_name_historic":"","place_type":"settlement","date":"1605","date_year":1605,"date_month":0,"date_day":0,"date_orig_text":"ad divi Lucae festum (18th of october)","duration":null},"geometry":{"type":"point","coordinates":[5.932759096196106,49.96869802628834]}},{"type":"Feature","properties":{"source_id":"SRC000861","event_no":"1","event_type":"fair_calendar","place_id":"PLC005629","place_name_modern":"Avioth","place_name_historic":"","place_type":"settlement","date":"1605","date_year":1605,"date_month":0,"date_day":0,"date_orig_text":"primam diem maii festo sanctorum Philippi et Iacobi apostolorum (1st of mai)","duration":null},"geometry":{"type":"point","coordinates":[5.3908604694560465,49.567343822156104]}},{"type":"Feature","properties":{"source_id":"SRC000861","event_no":"2","event_type":"fair_calendar","place_id":"PLC005629","place_name_modern":"Avioth","place_name_historic":"","place_type":"settlement","date":"1605","date_year":1605,"date_month":0,"date_day":0,"date_orig_text":"vincula Petri (1st of august)","duration":null},"geometry":{"type":"point","coordinates":[5.3908604694560465,49.567343822156104]}},{"type":"Feature","properties":{"source_id":"SRC000861","event_no":"3","event_type":"fair_calendar","place_id":"PLC005629","place_name_modern":"Avioth","place_name_historic":"","place_type":"settlement","date":"1605","date_year":1605,"date_month":0,"date_day":0,"date_orig_text":"decollationem sancti Baptistae Ioannis (29th of august)","duration":null},"geometry":{"type":"point","coordinates":[5.3908604694560465,49.567343822156104]}},{"type":"Feature","properties":{"source_id":"SRC000861","event_no":"4","event_type":"fair_calendar","place_id":"PLC005629","place_name_modern":"Avioth","place_name_historic":"","place_type":"settlement","date":"1605","date_year":1605,"date_month":0,"date_day":0,"date_orig_text":"sanctorum Simonis et Iudae apostolorum (28th of october)","duration":null},"geometry":{"type":"point","coordinates":[5.3908604694560465,49.567343822156104]}},{"type":"Feature","properties":{"source_id":"SRC000862","event_no":"1","event_type":"fair_calendar","place_id":"PLC005630","place_name_modern":"Helperknapp","place_name_historic":"","place_type":"settlement","date":"1605","date_year":1605,"date_month":0,"date_day":0,"date_orig_text":"altera inventionis sancte crucis (the 3rd of mai)","duration":null},"geometry":{"type":"point","coordinates":[6.011317940006464,49.71642986163144]}},{"type":"Feature","properties":{"source_id":"SRC000863","event_no":"1","event_type":"fair_calendar","place_id":"PLC005631","place_name_modern":"Heiderscheid","place_name_historic":"","place_type":"settlement","date":"1605","date_year":1605,"date_month":0,"date_day":0,"date_orig_text":"divi Petri vinculis (the 1st of August)","duration":null},"geometry":{"type":"point","coordinates":[5.978722698281373,49.8871789693295]}},{"type":"Feature","properties":{"source_id":"SRC000864","event_no":"1","event_type":"fair_calendar","place_id":"PLC005632","place_name_modern":"Einelter","place_name_historic":"","place_type":"settlement","date":"1605","date_year":1605,"date_month":0,"date_day":0,"date_orig_text":"in ipso exaltationis dominicae crucis festo (the 14th of september)","duration":null},"geometry":{"type":"point","coordinates":[5.987544792301596,49.878140510391326]}},{"type":"Feature","properties":{"source_id":"SRC000865","event_no":"1","event_type":"fair_calendar","place_id":"PLC005633","place_name_modern":"Bissen","place_name_historic":"","place_type":"settlement","date":"1605","date_year":1605,"date_month":0,"date_day":0,"date_orig_text":"postridie sacrosanctae Trinitatis (the monday after sunday after pentecost)","duration":null},"geometry":{"type":"point","coordinates":[6.069274944911034,49.78887108811947]}},{"type":"Feature","properties":{"source_id":"SRC000866","event_no":"1","event_type":"fair_calendar","place_id":"PLC005635","place_name_modern":"Zolwer, Soleuvre","place_name_historic":"","place_type":"settlement","date":"1605","date_year":1605,"date_month":0,"date_day":0,"date_orig_text":"feria tertia post dominicam Laetare (tuesday after laetare sunday)","duration":null},"geometry":{"type":"point","coordinates":[5.939083318801774,49.52089745349471]}},{"type":"Feature","properties":{"source_id":"SRC000866","event_no":"2","event_type":"fair_calendar","place_id":"PLC005635","place_name_modern":"Zolwer, Soleuvre","place_name_historic":"","place_type":"settlement","date":"1605","date_year":1605,"date_month":0,"date_day":0,"date_orig_text":"postridie dici Galli abbatis in octobri (the 17th of october)","duration":null},"geometry":{"type":"point","coordinates":[5.939083318801774,49.52089745349471]}},{"type":"Feature","properties":{"source_id":"SRC000867","event_no":"1","event_type":"fair_calendar","place_id":"PLC005636","place_name_modern":"Cattenom, Kattenhofen, Kettenuewen","place_name_historic":"","place_type":"settlement","date":"1605","date_year":1605,"date_month":0,"date_day":0,"date_orig_text":"secunda post primam dominicam octobris feria (monday after the 1st sunday in october)","duration":null},"geometry":{"type":"point","coordinates":[6.241157636402034,49.4049496339614]}},{"type":"Feature","properties":{"source_id":"SRC000868","event_no":"1","event_type":"fair_calendar","place_id":"PLC005637","place_name_modern":"Mondorff","place_name_historic":"","place_type":"settlement","date":"1605","date_year":1605,"date_month":0,"date_day":0,"date_orig_text":"divi Mathaei apostoli et evangelistae (festum) (21st of september)","duration":null},"geometry":{"type":"point","coordinates":[6.270996361585125,49.50382294743388]}},{"type":"Feature","properties":{"source_id":"SRC000868","event_no":"2","event_type":"fair_calendar","place_id":"PLC005637","place_name_modern":"Mondorff","place_name_historic":"","place_type":"settlement","date":"1605","date_year":1605,"date_month":0,"date_day":0,"date_orig_text":"divi michaelis Archangeli festum (30th of september)","duration":null},"geometry":{"type":"point","coordinates":[6.270996361585125,49.50382294743388]}},{"type":"Feature","properties":{"source_id":"SRC000869","event_no":"1","event_type":"fair_calendar","place_id":"PLC005638","place_name_modern":"Burgruine Johannisberg","place_name_historic":"","place_type":"settlement","date":"1605","date_year":1605,"date_month":0,"date_day":0,"date_orig_text":"in natali divi Ioannis Baptistae","duration":null},"geometry":{"type":"point","coordinates":[6.06413311935792,49.49084349457444]}},{"type":"Feature","properties":{"source_id":"SRC000870","event_no":"1","event_type":"fair_calendar","place_id":"PLC005640","place_name_modern":"Igel","place_name_historic":"","place_type":"settlement","date":"1605","date_year":1605,"date_month":0,"date_day":0,"date_orig_text":"(in solemnitate) patronum ecclesiae parochialis divum Dionysium areopagitam) 3rd of october","duration":null},"geometry":{"type":"point","coordinates":[6.548853581278888,49.709463941767744]}},{"type":"Feature","properties":{"source_id":"SRC000871","event_no":"1","event_type":"fair_calendar","place_id":"PLC000104","place_name_modern":"Saint Hubert","place_name_historic":"Saint Hubert, S. Hubert, S Hubert","place_type":"settlement","date":"1605","date_year":1605,"date_month":0,"date_day":0,"date_orig_text":"in profesto nimirum sanctorum Philippi et Iacobi (30th of april)","duration":null},"geometry":{"type":"point","coordinates":[5.372631404877511,50.021133881724786]}},{"type":"Feature","properties":{"source_id":"SRC000871","event_no":"2","event_type":"fair_calendar","place_id":"PLC000104","place_name_modern":"Saint Hubert","place_name_historic":"Saint Hubert, S. Hubert, S Hubert","place_type":"settlement","date":"1605","date_year":1605,"date_month":0,"date_day":0,"date_orig_text":"prima die septembris divo Auegidio sacra (1st of september)","duration":null},"geometry":{"type":"point","coordinates":[5.372631404877511,50.021133881724786]}},{"type":"Feature","properties":{"source_id":"SRC000871","event_no":"3","event_type":"fair_calendar","place_id":"PLC000104","place_name_modern":"Saint Hubert","place_name_historic":"Saint Hubert, S. Hubert, S Hubert","place_type":"settlement","date":"1605","date_year":1605,"date_month":0,"date_day":0,"date_orig_text":"novembris quando sancti Huberti episcopi solemnitas ... celebratur (3rd of november)","duration":null},"geometry":{"type":"point","coordinates":[5.372631404877511,50.021133881724786]}}]}