{"type":"FeatureCollection","name":"CoMOR-FairCalendars","collection_id":"COL0079","records":1,"download_user":"admin","download_date":"2026-08-10T18:45:50.295+02:00","readme":"See the readme file included in this download for details about this file.","features":[{"type":"Feature","properties":{"source_id":"SRC000415","event_no":"1","event_type":"fair_calendar","place_id":"PLC000406","place_name_modern":"Lyon","place_name_historic":", Lyon, Leon, Lion","place_type":"settlement","date":"1505-04-29","date_year":1505,"date_month":4,"date_day":29,"date_orig_text":"","duration":null},"geometry":{"type":"point","coordinates":[4.832640613902609,45.758817110591664]}}]}