{"type":"FeatureCollection","name":"CoMOR-FairCalendars","collection_id":"COL0100","records":6,"download_user":"admin","download_date":"2026-08-10T18:45:54.318+02:00","readme":"See the readme file included in this download for details about this file.","features":[{"type":"Feature","properties":{"source_id":"SRC000829","event_no":"1","event_type":"fair_calendar","place_id":"PLC001267","place_name_modern":"Geneva","place_name_historic":"Geneve, Genefus, GENEVORA, Geneva","place_type":"settlement","date":"1442-04-01","date_year":1442,"date_month":4,"date_day":1,"date_orig_text":"","duration":null},"geometry":{"type":"point","coordinates":[6.146025385329027,46.202093660486575]}},{"type":"Feature","properties":{"source_id":"SRC000837","event_no":"3","event_type":"fair_calendar","place_id":"PLC001267","place_name_modern":"Geneva","place_name_historic":"Geneve, Genefus, GENEVORA, Geneva","place_type":"settlement","date":"1442-08-01","date_year":1442,"date_month":8,"date_day":1,"date_orig_text":"","duration":null},"geometry":{"type":"point","coordinates":[6.146025385329027,46.202093660486575]}},{"type":"Feature","properties":{"source_id":"SRC000841","event_no":"1","event_type":"fair_calendar","place_id":"PLC001267","place_name_modern":"Geneva","place_name_historic":"Geneve, Genefus, GENEVORA, Geneva","place_type":"settlement","date":"1442-11-01","date_year":1442,"date_month":11,"date_day":1,"date_orig_text":"","duration":null},"geometry":{"type":"point","coordinates":[6.146025385329027,46.202093660486575]}},{"type":"Feature","properties":{"source_id":"SRC000847","event_no":"1","event_type":"fair_calendar","place_id":"PLC001267","place_name_modern":"Geneva","place_name_historic":"Geneve, Genefus, GENEVORA, Geneva","place_type":"settlement","date":"1443-01-06","date_year":1443,"date_month":1,"date_day":6,"date_orig_text":"","duration":null},"geometry":{"type":"point","coordinates":[6.146025385329027,46.202093660486575]}},{"type":"Feature","properties":{"source_id":"SRC000851","event_no":"1","event_type":"fair_calendar","place_id":"PLC001788","place_name_modern":"Villeneuve","place_name_historic":"Villeneuve, Villeneuf","place_type":"settlement","date":"1442-09-29","date_year":1442,"date_month":9,"date_day":29,"date_orig_text":"","duration":null},"geometry":{"type":"point","coordinates":[6.926575271984825,46.39624744971097]}},{"type":"Feature","properties":{"source_id":"SRC000851","event_no":"2","event_type":"fair_calendar","place_id":"PLC001788","place_name_modern":"Villeneuve","place_name_historic":"Villeneuve, Villeneuf","place_type":"settlement","date":"1442-12-06","date_year":1442,"date_month":12,"date_day":6,"date_orig_text":"","duration":null},"geometry":{"type":"point","coordinates":[6.926575271984825,46.39624744971097]}}]}