{"type":"FeatureCollection","name":"CoMOR-FairCalendars","collection_id":"COL0026","records":127,"download_user":"admin","download_date":"2026-08-10T18:45:48.091+02:00","readme":"See the readme file included in this download for details about this file.","features":[{"type":"Feature","properties":{"source_id":"SRC000122","event_no":"1","event_type":"fair_calendar","place_id":"PLC001568","place_name_modern":"Leipzig","place_name_historic":"Leipzig, LIPCZ","place_type":"settlement","date":"1573-01-06","date_year":1573,"date_month":1,"date_day":6,"date_orig_text":"Ianvier 6 - F. a Leipsic.","duration":null},"geometry":{"type":"point","coordinates":[12.374406700864903,51.34030646147477]}},{"type":"Feature","properties":{"source_id":"SRC000122","event_no":"2","event_type":"fair_calendar","place_id":"PLC001785","place_name_modern":"Fribourg","place_name_historic":"Fribourg, Freiburg, Fryburg, Friburg","place_type":"settlement","date":"1573-01-06","date_year":1573,"date_month":1,"date_day":6,"date_orig_text":"Ianvier 6 - F. a Fribourg en Suiss.","duration":null},"geometry":{"type":"point","coordinates":[7.149052273745331,46.80261276627797]}},{"type":"Feature","properties":{"source_id":"SRC000122","event_no":"3","event_type":"fair_calendar","place_id":"PLC000406","place_name_modern":"Lyon","place_name_historic":", Lyon, Leon, Lion","place_type":"settlement","date":"1573-01-12","date_year":1573,"date_month":1,"date_day":12,"date_orig_text":"Ianvier 12 - Foire à Lyon, & finira le troisiesme de Feurier","duration":"23 days"},"geometry":{"type":"point","coordinates":[4.832640613902609,45.758817110591664]}},{"type":"Feature","properties":{"source_id":"SRC000122","event_no":"4","event_type":"fair_calendar","place_id":"PLC000188","place_name_modern":"Gray","place_name_historic":"Gray, Grey","place_type":"settlement","date":"1573-01-16","date_year":1573,"date_month":1,"date_day":16,"date_orig_text":"Ianvier 16 - F. à Gray en Bourgõg.","duration":null},"geometry":{"type":"point","coordinates":[5.591125394296554,47.44546291585778]}},{"type":"Feature","properties":{"source_id":"SRC000122","event_no":"5","event_type":"fair_calendar","place_id":"PLC004933","place_name_modern":"Valréas","place_name_historic":"Valréas","place_type":"settlement","date":"1573-01-17","date_year":1573,"date_month":1,"date_day":17,"date_orig_text":"Ianvier 17 - F. à Vaurias, & ...","duration":null},"geometry":{"type":"point","coordinates":[4.990284870891163,44.38457858788892]}},{"type":"Feature","properties":{"source_id":"SRC000122","event_no":"6","event_type":"fair_calendar","place_id":"PLC000362","place_name_modern":"Arles","place_name_historic":"Arles, ARLA","place_type":"settlement","date":"1573-01-17","date_year":1573,"date_month":1,"date_day":17,"date_orig_text":"Ianvier 17 - F. ..., & à Arles.","duration":null},"geometry":{"type":"point","coordinates":[4.631169205753446,43.67310138180568]}},{"type":"Feature","properties":{"source_id":"SRC000122","event_no":"7","event_type":"fair_calendar","place_id":"PLC004934","place_name_modern":"Aubonne (VD)","place_name_historic":"Aubonne (VD)","place_type":"settlement","date":"1573-01-20","date_year":1573,"date_month":1,"date_day":20,"date_orig_text":"Ianvier 20 - Foire à Aubonne.","duration":null},"geometry":{"type":"point","coordinates":[6.390353765469894,46.49593674688252]}},{"type":"Feature","properties":{"source_id":"SRC000122","event_no":"8","event_type":"fair_calendar","place_id":"PLC000376","place_name_modern":"Grenoble","place_name_historic":"Grenoble","place_type":"settlement","date":"1573-01-22","date_year":1573,"date_month":1,"date_day":22,"date_orig_text":"Ianvier 22 - Foire à Grenoble.","duration":null},"geometry":{"type":"point","coordinates":[5.725809146927809,45.189743238339176]}},{"type":"Feature","properties":{"source_id":"SRC000122","event_no":"9","event_type":"fair_calendar","place_id":"PLC000230","place_name_modern":"Chur","place_name_historic":"Chur, Chrois","place_type":"settlement","date":"1573-01-27","date_year":1573,"date_month":1,"date_day":27,"date_orig_text":"Ianvier 27 - F. à Chur aux Grisons.","duration":null},"geometry":{"type":"point","coordinates":[9.51977281621111,46.849592088313315]}},{"type":"Feature","properties":{"source_id":"SRC000122","event_no":"10","event_type":"fair_calendar","place_id":"PLC003582","place_name_modern":"Morges","place_name_historic":"Morges, Morgex","place_type":"settlement","date":"1573-01-31","date_year":1573,"date_month":1,"date_day":31,"date_orig_text":"Ianvier 31 - Foire à Morges.","duration":null},"geometry":{"type":"point","coordinates":[6.495846414079646,46.51086158341995]}},{"type":"Feature","properties":{"source_id":"SRC000122","event_no":"11","event_type":"fair_calendar","place_id":"PLC000113","place_name_modern":"Antwerpen","place_name_historic":", Antwerpen, Antverpe","place_type":"settlement","date":"1573-02-03","date_year":1573,"date_month":2,"date_day":3,"date_orig_text":"Fevrier 3 - F. à Anuers, & ...","duration":null},"geometry":{"type":"point","coordinates":[4.399684477601141,51.22083350522394]}},{"type":"Feature","properties":{"source_id":"SRC000122","event_no":"12","event_type":"fair_calendar","place_id":"PLC004884","place_name_modern":"Saint-Germain-des-Prés (6e arrondissment de Paris)","place_name_historic":"Saint-Germain-des-Prés (6e arrondissment de Paris)","place_type":"settlement","date":"1573-02-03","date_year":1573,"date_month":2,"date_day":3,"date_orig_text":"Fevrier 3 - F. ..., & à S. Germain des prez lez Paris.","duration":null},"geometry":{"type":"point","coordinates":[2.333783311646307,48.85412762388086]}},{"type":"Feature","properties":{"source_id":"SRC000122","event_no":"13","event_type":"fair_calendar","place_id":"PLC000252","place_name_modern":"Neuchâtel","place_name_historic":"Neuchâtel, Neuenburg, Newenburg, Neuchastle","place_type":"settlement","date":"1573-02-03","date_year":1573,"date_month":2,"date_day":3,"date_orig_text":"Fevrier 3 - Item [Foire] à neufchastel, & ...","duration":null},"geometry":{"type":"point","coordinates":[6.91798012297705,46.9870103007611]}},{"type":"Feature","properties":{"source_id":"SRC000122","event_no":"14","event_type":"fair_calendar","place_id":"PLC000199","place_name_modern":"Besançon","place_name_historic":"Besançon, BISANCZ, Besancon","place_type":"settlement","date":"1573-02-03","date_year":1573,"date_month":2,"date_day":3,"date_orig_text":"Fevrier 3 - Item [Foire] ..., & à Besançon en Bourgõg.","duration":null},"geometry":{"type":"point","coordinates":[6.021844331332253,47.23577966240126]}},{"type":"Feature","properties":{"source_id":"SRC000122","event_no":"15","event_type":"fair_calendar","place_id":"PLC001267","place_name_modern":"Geneva","place_name_historic":"Geneve, Genefus, GENEVORA, Geneva","place_type":"settlement","date":"1573-02-12","date_year":1573,"date_month":2,"date_day":12,"date_orig_text":"Fevrier 12 - Foire à Geneue.","duration":null},"geometry":{"type":"point","coordinates":[6.146025385329027,46.202093660486575]}},{"type":"Feature","properties":{"source_id":"SRC000122","event_no":"16","event_type":"fair_calendar","place_id":"PLC004935","place_name_modern":"Vignonet","place_name_historic":"Vignonet","place_type":"settlement","date":"1573-02-13","date_year":1573,"date_month":2,"date_day":13,"date_orig_text":"Fevrier 13 - Foire à Vignonnet.","duration":null},"geometry":{"type":"point","coordinates":[-0.145537648719951,44.84693551139241]}},{"type":"Feature","properties":{"source_id":"SRC000122","event_no":"17","event_type":"fair_calendar","place_id":"PLC001267","place_name_modern":"Geneva","place_name_historic":"Geneve, Genefus, GENEVORA, Geneva","place_type":"settlement","date":"1573-02-22","date_year":1573,"date_month":2,"date_day":22,"date_orig_text":"Fevrier 22 - Foire à Geneue ...","duration":null},"geometry":{"type":"point","coordinates":[6.146025385329027,46.202093660486575]}},{"type":"Feature","properties":{"source_id":"SRC000122","event_no":"18","event_type":"fair_calendar","place_id":"PLC000249","place_name_modern":"Moudon","place_name_historic":"Moudon, Mouldon","place_type":"settlement","date":"1573-02-22","date_year":1573,"date_month":2,"date_day":22,"date_orig_text":"Fevrier 22 - Foire ... à Modon, & ...","duration":null},"geometry":{"type":"point","coordinates":[6.784808240627358,46.66620271628401]}},{"type":"Feature","properties":{"source_id":"SRC000122","event_no":"19","event_type":"fair_calendar","place_id":"PLC000257","place_name_modern":"Solothurn","place_name_historic":"Solothurn, Solotoren, Sollathurn, Soloturn, Soleurne","place_type":"settlement","date":"1573-02-22","date_year":1573,"date_month":2,"date_day":22,"date_orig_text":"Fevrier 22 - Foire ..., & à Soleurr.","duration":null},"geometry":{"type":"point","coordinates":[7.540755219724435,47.20682953081105]}},{"type":"Feature","properties":{"source_id":"SRC000122","event_no":"20","event_type":"fair_calendar","place_id":"PLC000263","place_name_modern":"Luzern","place_name_historic":"Luzern, LUCERN, Lucer, Lucern, Lucerna","place_type":"settlement","date":"1573-02-24","date_year":1573,"date_month":2,"date_day":24,"date_orig_text":"Fevrier 24 - F. à Lucerne.","duration":null},"geometry":{"type":"point","coordinates":[8.300975853684587,47.05082258401305]}},{"type":"Feature","properties":{"source_id":"SRC000122","event_no":"21","event_type":"fair_calendar","place_id":"PLC000043","place_name_modern":"Frankfurt Main","place_name_historic":"Frankfurt am Main, Frankfurt, Franckfurt Main, Francfurt; Francfort, Francfort","place_type":"settlement","date":"1573-02-26","date_year":1573,"date_month":2,"date_day":26,"date_orig_text":"Fevrier 26 - Foire à Francfort.","duration":null},"geometry":{"type":"point","coordinates":[8.673089014562553,50.10997055280276]}},{"type":"Feature","properties":{"source_id":"SRC000122","event_no":"22","event_type":"fair_calendar","place_id":"PLC000384","place_name_modern":"Bordeaux","place_name_historic":"Bordeaux","place_type":"settlement","date":"1573-03-01","date_year":1573,"date_month":3,"date_day":1,"date_orig_text":"Mars 1 - Foire franche à Bordeaux, & dure 15. iours.","duration":null},"geometry":{"type":"point","coordinates":[-0.571551052085272,44.837506785842315]}},{"type":"Feature","properties":{"source_id":"SRC000122","event_no":"24","event_type":"fair_calendar","place_id":"PLC000069","place_name_modern":"Freiburg im Breisgau","place_name_historic":"Freiburg im Breisgau, FRIBURG, Freyburg, Freiburg; Friburg, Fribourg","place_type":"settlement","date":"1573-03-16","date_year":1573,"date_month":3,"date_day":16,"date_orig_text":"Mars 16 - Foire à Fribourg, en Brisgau.","duration":null},"geometry":{"type":"point","coordinates":[7.842454242563221,47.99710895505174]}},{"type":"Feature","properties":{"source_id":"SRC000122","event_no":"25","event_type":"fair_calendar","place_id":"PLC003900","place_name_modern":"Merano; Meran","place_name_historic":"Merano; Meran, Meran","place_type":"settlement","date":"1573-03-23","date_year":1573,"date_month":3,"date_day":23,"date_orig_text":"Mars 23 - F. a Merin, ...","duration":null},"geometry":{"type":"point","coordinates":[11.15908425568265,46.669878376128345]}},{"type":"Feature","properties":{"source_id":"SRC000122","event_no":"26","event_type":"fair_calendar","place_id":"PLC003577","place_name_modern":"Châtillon-en-Michaille","place_name_historic":"Châtillon-en-Michaille, Chastilon","place_type":"settlement","date":"1573-03-23","date_year":1573,"date_month":3,"date_day":23,"date_orig_text":"Mars 23 - F. ..., à Chastillon en Sauvoye.","duration":null},"geometry":{"type":"point","coordinates":[5.800422076634729,46.14338979742408]}},{"type":"Feature","properties":{"source_id":"SRC000122","event_no":"27","event_type":"fair_calendar","place_id":"PLC000406","place_name_modern":"Lyon","place_name_historic":", Lyon, Leon, Lion","place_type":"settlement","date":"1573-03-29","date_year":1573,"date_month":3,"date_day":29,"date_orig_text":"Mars 29 - Foire à Lion, & finira le 16 d'Auril.","duration":"19 days"},"geometry":{"type":"point","coordinates":[4.832640613902609,45.758817110591664]}},{"type":"Feature","properties":{"source_id":"SRC000122","event_no":"28","event_type":"fair_calendar","place_id":"PLC001568","place_name_modern":"Leipzig","place_name_historic":"Leipzig, LIPCZ","place_type":"settlement","date":"1573-04-06","date_year":1573,"date_month":4,"date_day":6,"date_orig_text":"Avril 6 - Foire à Lepsic.","duration":null},"geometry":{"type":"point","coordinates":[12.374406700864903,51.34030646147477]}},{"type":"Feature","properties":{"source_id":"SRC000122","event_no":"29","event_type":"fair_calendar","place_id":"PLC004936","place_name_modern":"Taninges","place_name_historic":"","place_type":"settlement","date":"1573-04-25","date_year":1573,"date_month":4,"date_day":25,"date_orig_text":"Avril 25 - F. à Thaninge.","duration":null},"geometry":{"type":"point","coordinates":[6.5897048369178535,46.10645467785353]}},{"type":"Feature","properties":{"source_id":"SRC000122","event_no":"30","event_type":"fair_calendar","place_id":"PLC001810","place_name_modern":"Baden","place_name_historic":", Baden, Paden","place_type":"settlement","date":"1573-04-26","date_year":1573,"date_month":4,"date_day":26,"date_orig_text":"Avril 26 - Foire à Bade en Suisse, ...","duration":null},"geometry":{"type":"point","coordinates":[8.307728978733822,47.47437429294879]}},{"type":"Feature","properties":{"source_id":"SRC000122","event_no":"31","event_type":"fair_calendar","place_id":"PLC004825","place_name_modern":"Montréal-la-Cluse","place_name_historic":"Montréal-la-Cluse","place_type":"settlement","date":"1573-04-26","date_year":1573,"date_month":4,"date_day":26,"date_orig_text":"Avril 26 - Foire ..., & a Mõ-real en Sauoy.","duration":null},"geometry":{"type":"point","coordinates":[5.570054634634009,46.18725960325813]}},{"type":"Feature","properties":{"source_id":"SRC000122","event_no":"32","event_type":"fair_calendar","place_id":"PLC000303","place_name_modern":"Rumilly","place_name_historic":"Rumilly, Remilly","place_type":"settlement","date":"1573-04-30","date_year":1573,"date_month":4,"date_day":30,"date_orig_text":"Avril 30 - Foire à Remilli & ... & ...","duration":null},"geometry":{"type":"point","coordinates":[5.940777445999919,45.86710167716753]}},{"type":"Feature","properties":{"source_id":"SRC000122","event_no":"33","event_type":"fair_calendar","place_id":"PLC004826","place_name_modern":"Ballon","place_name_historic":"Ballon","place_type":"settlement","date":"1573-04-30","date_year":1573,"date_month":4,"date_day":30,"date_orig_text":"Avril 30 - Foire ... & à Balon & ...","duration":null},"geometry":{"type":"point","coordinates":[5.834864267850542,46.1168511007692]}},{"type":"Feature","properties":{"source_id":"SRC000122","event_no":"34","event_type":"fair_calendar","place_id":"PLC002965","place_name_modern":"Orbe VD","place_name_historic":"Orbe VD, Orbe","place_type":"settlement","date":"1573-04-30","date_year":1573,"date_month":4,"date_day":30,"date_orig_text":"Avril 30 - Foire ... & ... & à Orbe.","duration":null},"geometry":{"type":"point","coordinates":[6.528947663356377,46.72323976366736]}},{"type":"Feature","properties":{"source_id":"SRC000122","event_no":"35","event_type":"fair_calendar","place_id":"PLC000504","place_name_modern":"Paris","place_name_historic":"Paris, PARISIUS","place_type":"settlement","date":"1573-05-02","date_year":1573,"date_month":5,"date_day":2,"date_orig_text":"May 2 - F. à Paris, ... & ...","duration":null},"geometry":{"type":"point","coordinates":[2.350731157935796,48.855283980547]}},{"type":"Feature","properties":{"source_id":"SRC000122","event_no":"36","event_type":"fair_calendar","place_id":"PLC000819","place_name_modern":"Brioude","place_name_historic":"Brioude","place_type":"settlement","date":"1573-05-02","date_year":1573,"date_month":5,"date_day":2,"date_orig_text":"May 2 - F. à ..., Briode & ...","duration":null},"geometry":{"type":"point","coordinates":[3.384277547603714,45.295105822410555]}},{"type":"Feature","properties":{"source_id":"SRC000122","event_no":"37","event_type":"fair_calendar","place_id":"PLC000839","place_name_modern":"Le Puy-en-Velay","place_name_historic":"Le Puy-en-Velay, Le Puy, le Puyen","place_type":"settlement","date":"1573-05-02","date_year":1573,"date_month":5,"date_day":2,"date_orig_text":"May 2 - F. à ..., ... & Puits en Auuergne","duration":null},"geometry":{"type":"point","coordinates":[3.884950873974102,45.04525391875119]}},{"type":"Feature","properties":{"source_id":"SRC000122","event_no":"38","event_type":"fair_calendar","place_id":"PLC000465","place_name_modern":"Troyes","place_name_historic":"Troyes, Troies, Troye","place_type":"settlement","date":"1573-05-07","date_year":1573,"date_month":5,"date_day":7,"date_orig_text":"May 7 - Foire à Troys.","duration":null},"geometry":{"type":"point","coordinates":[4.075642323584924,48.29807044303462]}},{"type":"Feature","properties":{"source_id":"SRC000122","event_no":"39","event_type":"fair_calendar","place_id":"PLC004763","place_name_modern":"Bad Zurzach","place_name_historic":"Bad Zurzach","place_type":"settlement","date":"1573-05-18","date_year":1573,"date_month":5,"date_day":18,"date_orig_text":"May 18 - Foire à Zursach.","duration":null},"geometry":{"type":"point","coordinates":[8.29303871872076,47.58806648061113]}},{"type":"Feature","properties":{"source_id":"SRC000122","event_no":"40","event_type":"fair_calendar","place_id":"PLC000225","place_name_modern":"Zürich","place_name_historic":"Zürich, Zurich","place_type":"settlement","date":"1573-05-23","date_year":1573,"date_month":5,"date_day":23,"date_orig_text":"May 23 - Foire à Zurich.","duration":null},"geometry":{"type":"point","coordinates":[8.542085565089215,47.373011068465786]}},{"type":"Feature","properties":{"source_id":"SRC000122","event_no":"41","event_type":"fair_calendar","place_id":"PLC003766","place_name_modern":"Cosenza","place_name_historic":"Cosenza","place_type":"settlement","date":"1573-06-02","date_year":1573,"date_month":6,"date_day":2,"date_orig_text":"Ivin 2 - Foire à Cossenza.","duration":null},"geometry":{"type":"point","coordinates":[16.255741,39.300943]}},{"type":"Feature","properties":{"source_id":"SRC000122","event_no":"42","event_type":"fair_calendar","place_id":"PLC000504","place_name_modern":"Paris","place_name_historic":"Paris, PARISIUS","place_type":"settlement","date":"1573-06-17","date_year":1573,"date_month":6,"date_day":17,"date_orig_text":"Ivin 17 - Foire du Landit de Paris","duration":null},"geometry":{"type":"point","coordinates":[2.350731157935796,48.855283980547]}},{"type":"Feature","properties":{"source_id":"SRC000122","event_no":"43","event_type":"fair_calendar","place_id":"PLC000073","place_name_modern":"Strasbourg","place_name_historic":"Strasbourg, STRASBURG, Strasburg, Strassbourg","place_type":"settlement","date":"1573-06-25","date_year":1573,"date_month":6,"date_day":25,"date_orig_text":"Ivin 25 - Foire à Strabourg, ..., ..., ..., ...","duration":null},"geometry":{"type":"point","coordinates":[7.747529973447003,48.584862875424925]}},{"type":"Feature","properties":{"source_id":"SRC000122","event_no":"44","event_type":"fair_calendar","place_id":"PLC000252","place_name_modern":"Neuchâtel","place_name_historic":"Neuchâtel, Neuenburg, Newenburg, Neuchastle","place_type":"settlement","date":"1573-06-25","date_year":1573,"date_month":6,"date_day":25,"date_orig_text":"Ivin 25 - Foire ..., à Neuf-chastel, ..., ..., ...","duration":null},"geometry":{"type":"point","coordinates":[6.91798012297705,46.9870103007611]}},{"type":"Feature","properties":{"source_id":"SRC000122","event_no":"45","event_type":"fair_calendar","place_id":"PLC001265","place_name_modern":"Nyon","place_name_historic":"Nyon, Nieon, Nion","place_type":"settlement","date":"1573-06-25","date_year":1573,"date_month":6,"date_day":25,"date_orig_text":"Ivin 25 - Foire ..., ..., à Nion, ..., ...","duration":null},"geometry":{"type":"point","coordinates":[6.233338102392308,46.381289538064664]}},{"type":"Feature","properties":{"source_id":"SRC000122","event_no":"46","event_type":"fair_calendar","place_id":"PLC002532","place_name_modern":"Nantua","place_name_historic":"Nantua, Nantuas, Mantua, Nantia","place_type":"settlement","date":"1573-06-25","date_year":1573,"date_month":6,"date_day":25,"date_orig_text":"Ivin 25 - Foire ..., ..., ..., à Nantua, ...","duration":null},"geometry":{"type":"point","coordinates":[5.604303766209631,46.15275897293645]}},{"type":"Feature","properties":{"source_id":"SRC000122","event_no":"47","event_type":"fair_calendar","place_id":"PLC004937","place_name_modern":"Fontenay-sous-Bois","place_name_historic":"Fontenay-sous-Bois","place_type":"settlement","date":"1573-06-25","date_year":1573,"date_month":6,"date_day":25,"date_orig_text":"Ivin 25 - Foire ..., ..., ..., ..., à Fontenay","duration":null},"geometry":{"type":"point","coordinates":[2.471756602903159,48.84770154345681]}},{"type":"Feature","properties":{"source_id":"SRC000122","event_no":"48","event_type":"fair_calendar","place_id":"PLC001267","place_name_modern":"Geneva","place_name_historic":"Geneve, Genefus, GENEVORA, Geneva","place_type":"settlement","date":"1573-06-28","date_year":1573,"date_month":6,"date_day":28,"date_orig_text":"Ivin 28 - Foire à Geneue.","duration":null},"geometry":{"type":"point","coordinates":[6.146025385329027,46.202093660486575]}},{"type":"Feature","properties":{"source_id":"SRC000122","event_no":"49","event_type":"fair_calendar","place_id":"PLC004880","place_name_modern":"Gramat","place_name_historic":"Gramat","place_type":"settlement","date":"1573-07-02","date_year":1573,"date_month":7,"date_day":2,"date_orig_text":"Ivillet 2 - F. à Gramat en Querci.","duration":null},"geometry":{"type":"point","coordinates":[1.724138309878171,44.77855982492468]}},{"type":"Feature","properties":{"source_id":"SRC000122","event_no":"50","event_type":"fair_calendar","place_id":"PLC002215","place_name_modern":"Augsburg","place_name_historic":"Augsburg, AUGSBURG, Augspurg","place_type":"settlement","date":"1573-07-04","date_year":1573,"date_month":7,"date_day":4,"date_orig_text":"Ivillet 4 - Foire à Ausbourg.","duration":null},"geometry":{"type":"point","coordinates":[10.893103101485123,48.3707762940575]}},{"type":"Feature","properties":{"source_id":"SRC000122","event_no":"51","event_type":"fair_calendar","place_id":"PLC004938","place_name_modern":"Deinze","place_name_historic":", Deinze","place_type":"settlement","date":"1573-07-12","date_year":1573,"date_month":7,"date_day":12,"date_orig_text":"Ivillet 12 - F. à Teinsic en Flãdres.","duration":null},"geometry":{"type":"point","coordinates":[3.527163492547497,50.983268108630575]}},{"type":"Feature","properties":{"source_id":"SRC000122","event_no":"52","event_type":"fair_calendar","place_id":"PLC000363","place_name_modern":"Beaucaire","place_name_historic":"Beaucaire, Beaucave","place_type":"settlement","date":"1573-07-22","date_year":1573,"date_month":7,"date_day":22,"date_orig_text":"Ivillet 22 - Foire à Beaucaire.","duration":null},"geometry":{"type":"point","coordinates":[4.642729690200452,43.806403407970045]}},{"type":"Feature","properties":{"source_id":"SRC000122","event_no":"53","event_type":"fair_calendar","place_id":"PLC002064","place_name_modern":"Nürnberg","place_name_historic":"Nürnberg, NURNBERG, Nuremberg","place_type":"settlement","date":"1573-07-25","date_year":1573,"date_month":7,"date_day":25,"date_orig_text":"Ivillet 25 - F. à Neberg.","duration":null},"geometry":{"type":"point","coordinates":[11.076277748527682,49.45272813262063]}},{"type":"Feature","properties":{"source_id":"SRC000122","event_no":"54","event_type":"fair_calendar","place_id":"PLC003352","place_name_modern":"Krems an der Donau","place_name_historic":"Krems an der Donau, Krems, Crembs","place_type":"settlement","date":"1573-07-26","date_year":1573,"date_month":7,"date_day":26,"date_orig_text":"Ivillet 26 - F. a Crēbs, en Allemagne.","duration":null},"geometry":{"type":"point","coordinates":[15.60768377526018,48.40654638747437]}},{"type":"Feature","properties":{"source_id":"SRC000122","event_no":"55","event_type":"fair_calendar","place_id":"PLC001282","place_name_modern":"Aix-en-Provence","place_name_historic":"Aix-en-Provence, Aix, Ais","place_type":"settlement","date":"1573-07-30","date_year":1573,"date_month":7,"date_day":30,"date_orig_text":"Ivillet 30 - F. à Aix en Provence.","duration":null},"geometry":{"type":"point","coordinates":[5.449437402134167,43.523558587392806]}},{"type":"Feature","properties":{"source_id":"SRC000122","event_no":"56","event_type":"fair_calendar","place_id":"PLC001267","place_name_modern":"Geneva","place_name_historic":"Geneve, Genefus, GENEVORA, Geneva","place_type":"settlement","date":"1573-08-01","date_year":1573,"date_month":8,"date_day":1,"date_orig_text":"Aoust 1 - Foire à Geneue, ..., & ...","duration":null},"geometry":{"type":"point","coordinates":[6.146025385329027,46.202093660486575]}},{"type":"Feature","properties":{"source_id":"SRC000122","event_no":"57","event_type":"fair_calendar","place_id":"PLC004939","place_name_modern":"Payerne","place_name_historic":"Payerne","place_type":"settlement","date":"1573-08-01","date_year":1573,"date_month":8,"date_day":1,"date_orig_text":"Aoust 1 - Foire ..., à Payerne, & ...","duration":null},"geometry":{"type":"point","coordinates":[6.937676121810212,46.82078367563536]}},{"type":"Feature","properties":{"source_id":"SRC000122","event_no":"58","event_type":"fair_calendar","place_id":"PLC004937","place_name_modern":"Fontenay-sous-Bois","place_name_historic":"Fontenay-sous-Bois","place_type":"settlement","date":"1573-08-01","date_year":1573,"date_month":8,"date_day":1,"date_orig_text":"Aoust 1 - Foire à ..., ..., & a Fontenay.","duration":null},"geometry":{"type":"point","coordinates":[2.471756602903159,48.84770154345681]}},{"type":"Feature","properties":{"source_id":"SRC000122","event_no":"59","event_type":"fair_calendar","place_id":"PLC000406","place_name_modern":"Lyon","place_name_historic":", Lyon, Leon, Lion","place_type":"settlement","date":"1573-08-04","date_year":1573,"date_month":8,"date_day":4,"date_orig_text":"Aoust 4 - Foire a Lyon, & finit le 25. (d'Aoust).","duration":null},"geometry":{"type":"point","coordinates":[4.832640613902609,45.758817110591664]}},{"type":"Feature","properties":{"source_id":"SRC000122","event_no":"60","event_type":"fair_calendar","place_id":"PLC004883","place_name_modern":"Caux (en Normandie)","place_name_historic":"","place_type":"settlement","date":"1573-08-10","date_year":1573,"date_month":8,"date_day":10,"date_orig_text":"Aoust 10 - F. à Caux.","duration":null},"geometry":{"type":"point","coordinates":[0,0]}},{"type":"Feature","properties":{"source_id":"SRC000122","event_no":"61","event_type":"fair_calendar","place_id":"PLC000653","place_name_modern":"Falaise","place_name_historic":", Farlaise, Falaise","place_type":"settlement","date":"1573-08-14","date_year":1573,"date_month":8,"date_day":14,"date_orig_text":"Aoust 14 - Foire a la Guibray.","duration":null},"geometry":{"type":"point","coordinates":[-0.205424108942526,48.89191867490348]}},{"type":"Feature","properties":{"source_id":"SRC000122","event_no":"62","event_type":"fair_calendar","place_id":"PLC000384","place_name_modern":"Bordeaux","place_name_historic":"Bordeaux","place_type":"settlement","date":"1573-08-15","date_year":1573,"date_month":8,"date_day":15,"date_orig_text":"Aoust 15 - F. frãche à Bordeaux, & dure 15. iours: ...","duration":null},"geometry":{"type":"point","coordinates":[-0.571551052085272,44.837506785842315]}},{"type":"Feature","properties":{"source_id":"SRC000122","event_no":"63","event_type":"fair_calendar","place_id":"PLC000300","place_name_modern":"Thonon-les-Bains","place_name_historic":"Thonon-les-Bains, Thonon","place_type":"settlement","date":"1573-08-15","date_year":1573,"date_month":8,"date_day":15,"date_orig_text":"Aoust 15 - ... & a Thonon sur Crete.","duration":null},"geometry":{"type":"point","coordinates":[6.478974781821926,46.37187130143318]}},{"type":"Feature","properties":{"source_id":"SRC000122","event_no":"64","event_type":"fair_calendar","place_id":"PLC000554","place_name_modern":"London","place_name_historic":"London, Londres","place_type":"settlement","date":"1573-08-24","date_year":1573,"date_month":8,"date_day":24,"date_orig_text":"Aoust 24 - Foire a Londres, ..., & ...","duration":null},"geometry":{"type":"point","coordinates":[-0.108399748915334,51.51796945806352]}},{"type":"Feature","properties":{"source_id":"SRC000122","event_no":"65","event_type":"fair_calendar","place_id":"PLC004826","place_name_modern":"Ballon","place_name_historic":"Ballon","place_type":"settlement","date":"1573-08-24","date_year":1573,"date_month":8,"date_day":24,"date_orig_text":"Aoust 24 - Foire ..., a Ballon, & ...","duration":null},"geometry":{"type":"point","coordinates":[5.834864267850542,46.1168511007692]}},{"type":"Feature","properties":{"source_id":"SRC000122","event_no":"66","event_type":"fair_calendar","place_id":"PLC000367","place_name_modern":"Orange","place_name_historic":"Orange","place_type":"settlement","date":"1573-08-24","date_year":1573,"date_month":8,"date_day":24,"date_orig_text":"Aoust 24 - Foire ..., ..., & à Orenge.","duration":null},"geometry":{"type":"point","coordinates":[4.806038769164564,44.13815715396934]}},{"type":"Feature","properties":{"source_id":"SRC000122","event_no":"67","event_type":"fair_calendar","place_id":"PLC002532","place_name_modern":"Nantua","place_name_historic":"Nantua, Nantuas, Mantua, Nantia","place_type":"settlement","date":"1573-08-31","date_year":1573,"date_month":8,"date_day":31,"date_orig_text":"Aoust 31 - F. à Nãtua, ..., & ...","duration":null},"geometry":{"type":"point","coordinates":[5.604303766209631,46.15275897293645]}},{"type":"Feature","properties":{"source_id":"SRC000122","event_no":"68","event_type":"fair_calendar","place_id":"PLC004915","place_name_modern":"Samoussay","place_name_historic":"","place_type":"settlement","date":"1573-08-31","date_year":1573,"date_month":8,"date_day":31,"date_orig_text":"Aoust 31 - F. ..., a S. Mossey, & ...","duration":null},"geometry":{"type":"point","coordinates":[0,0]}},{"type":"Feature","properties":{"source_id":"SRC000122","event_no":"69","event_type":"fair_calendar","place_id":"PLC004828","place_name_modern":"Presinge","place_name_historic":"Presinge","place_type":"settlement","date":"1573-08-31","date_year":1573,"date_month":8,"date_day":31,"date_orig_text":"Aoust 31 - F. ..., ..., & a Prezinge.","duration":null},"geometry":{"type":"point","coordinates":[6.253314529681423,46.21864515733994]}},{"type":"Feature","properties":{"source_id":"SRC000122","event_no":"70","event_type":"fair_calendar","place_id":"PLC004763","place_name_modern":"Bad Zurzach","place_name_historic":"Bad Zurzach","place_type":"settlement","date":"1573-09-01","date_year":1573,"date_month":9,"date_day":1,"date_orig_text":"Septembre 1 - F. à Surzac, & ...","duration":null},"geometry":{"type":"point","coordinates":[8.29303871872076,47.58806648061113]}},{"type":"Feature","properties":{"source_id":"SRC000122","event_no":"71","event_type":"fair_calendar","place_id":"PLC000323","place_name_modern":"Digne-les-Bains","place_name_historic":"Digne-les-Bains, Digne","place_type":"settlement","date":"1573-09-01","date_year":1573,"date_month":9,"date_day":1,"date_orig_text":"Septembre 1 - F. ..., & à Dignes","duration":null},"geometry":{"type":"point","coordinates":[6.235628799468355,44.092567346349]}},{"type":"Feature","properties":{"source_id":"SRC000122","event_no":"72","event_type":"fair_calendar","place_id":"PLC001267","place_name_modern":"Geneva","place_name_historic":"Geneve, Genefus, GENEVORA, Geneva","place_type":"settlement","date":"1573-09-02","date_year":1573,"date_month":9,"date_day":2,"date_orig_text":"Septembre 2 - Foire à Geneue, dit le retour de Lyon","duration":null},"geometry":{"type":"point","coordinates":[6.146025385329027,46.202093660486575]}},{"type":"Feature","properties":{"source_id":"SRC000122","event_no":"73","event_type":"fair_calendar","place_id":"PLC000043","place_name_modern":"Frankfurt Main","place_name_historic":"Frankfurt am Main, Frankfurt, Franckfurt Main, Francfurt; Francfort, Francfort","place_type":"settlement","date":"1573-09-07","date_year":1573,"date_month":9,"date_day":7,"date_orig_text":"Septembre 7 - F. à Frãcfort & ...","duration":null},"geometry":{"type":"point","coordinates":[8.673089014562553,50.10997055280276]}},{"type":"Feature","properties":{"source_id":"SRC000122","event_no":"74","event_type":"fair_calendar","place_id":"PLC004943","place_name_modern":"Saint-Gervais-les-Bains","place_name_historic":"Saint-Gervais-les-Bains","place_type":"settlement","date":"1573-09-07","date_year":1573,"date_month":9,"date_day":7,"date_orig_text":"Septembre 7 - F. ... & à Geais.","duration":null},"geometry":{"type":"point","coordinates":[6.711830591962728,45.89743925673414]}},{"type":"Feature","properties":{"source_id":"SRC000122","event_no":"75","event_type":"fair_calendar","place_id":"PLC000225","place_name_modern":"Zürich","place_name_historic":"Zürich, Zurich","place_type":"settlement","date":"1573-09-12","date_year":1573,"date_month":9,"date_day":12,"date_orig_text":"Septembre 12 - Foire a Surich, ..., ... & ...","duration":null},"geometry":{"type":"point","coordinates":[8.542085565089215,47.373011068465786]}},{"type":"Feature","properties":{"source_id":"SRC000122","event_no":"76","event_type":"fair_calendar","place_id":"PLC004888","place_name_modern":"Porrentruy","place_name_historic":"Porrentruy","place_type":"settlement","date":"1573-09-12","date_year":1573,"date_month":9,"date_day":12,"date_orig_text":"Septembre 12 - Foire ..., a Porētru, ... & ...","duration":null},"geometry":{"type":"point","coordinates":[7.075957791246139,47.41662137173099]}},{"type":"Feature","properties":{"source_id":"SRC000122","event_no":"77","event_type":"fair_calendar","place_id":"PLC000299","place_name_modern":"Bonne","place_name_historic":"Bonne","place_type":"settlement","date":"1573-09-12","date_year":1573,"date_month":9,"date_day":12,"date_orig_text":"Septembre 12 - Foire ..., ...., A Bõne ... & ...","duration":null},"geometry":{"type":"point","coordinates":[6.314942766430103,46.1696709089327]}},{"type":"Feature","properties":{"source_id":"SRC000122","event_no":"78","event_type":"fair_calendar","place_id":"PLC004812","place_name_modern":"Sembrancher","place_name_historic":"Sembrancher","place_type":"settlement","date":"1573-09-12","date_year":1573,"date_month":9,"date_day":12,"date_orig_text":"Septembre 12 - Foire ..., ...., ... a S. Brãchi & ...","duration":null},"geometry":{"type":"point","coordinates":[7.146148898992268,46.07780480094568]}},{"type":"Feature","properties":{"source_id":"SRC000122","event_no":"79","event_type":"fair_calendar","place_id":"PLC004944","place_name_modern":"Vieu","place_name_historic":"","place_type":"settlement","date":"1573-09-12","date_year":1573,"date_month":9,"date_day":12,"date_orig_text":"Septembre 12 - Foire ..., ...., ... ... & a Vieu.","duration":null},"geometry":{"type":"point","coordinates":[5.6796703796724275,45.8955719732641]}},{"type":"Feature","properties":{"source_id":"SRC000122","event_no":"80","event_type":"fair_calendar","place_id":"PLC004945","place_name_modern":"Thônes","place_name_historic":"Thônes","place_type":"settlement","date":"1573-09-21","date_year":1573,"date_month":9,"date_day":21,"date_orig_text":"Septembre 21 - F. à Tõne en Fossigni, ..., & ...","duration":null},"geometry":{"type":"point","coordinates":[6.324769513560025,45.88132931282303]}},{"type":"Feature","properties":{"source_id":"SRC000122","event_no":"81","event_type":"fair_calendar","place_id":"PLC004819","place_name_modern":"Boëge","place_name_historic":"Boëge","place_type":"settlement","date":"1573-09-21","date_year":1573,"date_month":9,"date_day":21,"date_orig_text":"Septembre 21 - F. ..., à Boege, & ...","duration":null},"geometry":{"type":"point","coordinates":[6.404789176986513,46.20898507581466]}},{"type":"Feature","properties":{"source_id":"SRC000122","event_no":"82","event_type":"fair_calendar","place_id":"PLC002965","place_name_modern":"Orbe VD","place_name_historic":"Orbe VD, Orbe","place_type":"settlement","date":"1573-09-21","date_year":1573,"date_month":9,"date_day":21,"date_orig_text":"Septembre 21 - F. ..., ..., & à Orbe.","duration":null},"geometry":{"type":"point","coordinates":[6.528947663356377,46.72323976366736]}},{"type":"Feature","properties":{"source_id":"SRC000122","event_no":"83","event_type":"fair_calendar","place_id":"PLC001267","place_name_modern":"Geneva","place_name_historic":"Geneve, Genefus, GENEVORA, Geneva","place_type":"settlement","date":"1573-09-29","date_year":1573,"date_month":9,"date_day":29,"date_orig_text":"Septembre 29 - F. à Geneue, ..., ..., ... & ...","duration":null},"geometry":{"type":"point","coordinates":[6.146025385329027,46.202093660486575]}},{"type":"Feature","properties":{"source_id":"SRC000122","event_no":"84","event_type":"fair_calendar","place_id":"PLC000257","place_name_modern":"Solothurn","place_name_historic":"Solothurn, Solotoren, Sollathurn, Soloturn, Soleurne","place_type":"settlement","date":"1573-09-29","date_year":1573,"date_month":9,"date_day":29,"date_orig_text":"Septembre 29 - F. à ..., Saleurr, ..., ... & ...","duration":null},"geometry":{"type":"point","coordinates":[7.540755219724435,47.20682953081105]}},{"type":"Feature","properties":{"source_id":"SRC000122","event_no":"85","event_type":"fair_calendar","place_id":"PLC004946","place_name_modern":"Ciserieu","place_name_historic":"","place_type":"settlement","date":"1573-09-29","date_year":1573,"date_month":9,"date_day":29,"date_orig_text":"Septembre 29 - F. à ..., ..., Ciserieu, ... & ...","duration":null},"geometry":{"type":"point","coordinates":[0,0]}},{"type":"Feature","properties":{"source_id":"SRC000122","event_no":"86","event_type":"fair_calendar","place_id":"PLC001788","place_name_modern":"Villeneuve","place_name_historic":"Villeneuve, Villeneuf","place_type":"settlement","date":"1573-09-29","date_year":1573,"date_month":9,"date_day":29,"date_orig_text":"Septembre 29 - F. à ..., ..., ..., Villeneuue & ...","duration":null},"geometry":{"type":"point","coordinates":[6.926575271984825,46.39624744971097]}},{"type":"Feature","properties":{"source_id":"SRC000122","event_no":"87","event_type":"fair_calendar","place_id":"PLC004942","place_name_modern":"Lullin","place_name_historic":"Lullin","place_type":"settlement","date":"1573-09-29","date_year":1573,"date_month":9,"date_day":29,"date_orig_text":"Septembre 29 - F. à ..., ..., ..., ... & a Lullin","duration":null},"geometry":{"type":"point","coordinates":[6.52211645540636,46.28352552813878]}},{"type":"Feature","properties":{"source_id":"SRC000122","event_no":"88","event_type":"fair_calendar","place_id":"PLC000153","place_name_modern":"Reims","place_name_historic":"Reims, RAYNS","place_type":"settlement","date":"1573-10-01","date_year":1573,"date_month":10,"date_day":1,"date_orig_text":"Octobre 1 - F. à Reims, & ...","duration":null},"geometry":{"type":"point","coordinates":[4.024837846247693,49.25836202476998]}},{"type":"Feature","properties":{"source_id":"SRC000122","event_no":"89","event_type":"fair_calendar","place_id":"PLC000465","place_name_modern":"Troyes","place_name_historic":"Troyes, Troies, Troye","place_type":"settlement","date":"1573-10-01","date_year":1573,"date_month":10,"date_day":1,"date_orig_text":"Octobre 1 - F. ..., & à Troys.","duration":null},"geometry":{"type":"point","coordinates":[4.075642323584924,48.29807044303462]}},{"type":"Feature","properties":{"source_id":"SRC000122","event_no":"90","event_type":"fair_calendar","place_id":"PLC000263","place_name_modern":"Luzern","place_name_historic":"Luzern, LUCERN, Lucer, Lucern, Lucerna","place_type":"settlement","date":"1573-10-03","date_year":1573,"date_month":10,"date_day":3,"date_orig_text":"Octobre 3 - Foire à Lucerne","duration":null},"geometry":{"type":"point","coordinates":[8.300975853684587,47.05082258401305]}},{"type":"Feature","properties":{"source_id":"SRC000122","event_no":"91","event_type":"fair_calendar","place_id":"PLC004947","place_name_modern":"Les Saisies","place_name_historic":"Les Saisies","place_type":"settlement","date":"1573-10-05","date_year":1573,"date_month":10,"date_day":5,"date_orig_text":"Octobre 5 - F. à Cessay en Sauoye.","duration":null},"geometry":{"type":"point","coordinates":[6.539307388358157,45.75717217900298]}},{"type":"Feature","properties":{"source_id":"SRC000122","event_no":"92","event_type":"fair_calendar","place_id":"PLC004821","place_name_modern":"La Roche-sur-Foron","place_name_historic":"La Roche-sur-Foron","place_type":"settlement","date":"1573-10-09","date_year":1573,"date_month":10,"date_day":9,"date_orig_text":"Octobre 9 - F. a La Roche.","duration":null},"geometry":{"type":"point","coordinates":[6.312776583666143,46.0664723178894]}},{"type":"Feature","properties":{"source_id":"SRC000122","event_no":"93","event_type":"fair_calendar","place_id":"PLC000846","place_name_modern":"Uzès","place_name_historic":"Uzès, Lucstia, Usez, Uzes","place_type":"settlement","date":"1573-10-11","date_year":1573,"date_month":10,"date_day":11,"date_orig_text":"Octobre 11 - F. a Vsez en Prouence.","duration":null},"geometry":{"type":"point","coordinates":[4.419017253072856,44.01234348060701]}},{"type":"Feature","properties":{"source_id":"SRC000122","event_no":"94","event_type":"fair_calendar","place_id":"PLC000217","place_name_modern":"St. Gallen","place_name_historic":"St. Gallen, S. Galn, S. Gall","place_type":"settlement","date":"1573-10-16","date_year":1573,"date_month":10,"date_day":16,"date_orig_text":"Octobre 16 - F. à S. Gal & ...","duration":null},"geometry":{"type":"point","coordinates":[9.376679649666206,47.42463813888547]}},{"type":"Feature","properties":{"source_id":"SRC000122","event_no":"95","event_type":"fair_calendar","place_id":"PLC000250","place_name_modern":"Lausanne","place_name_historic":"Lausanne, LOZAN, Losanna, Lausanna; Losan","place_type":"settlement","date":"1573-10-16","date_year":1573,"date_month":10,"date_day":16,"date_orig_text":"Octobre 16 - F. ... & à Lausane.","duration":null},"geometry":{"type":"point","coordinates":[6.63685983777227,46.51798197364762]}},{"type":"Feature","properties":{"source_id":"SRC000122","event_no":"96","event_type":"fair_calendar","place_id":"PLC000296","place_name_modern":"Cluses","place_name_historic":"Cluses, Cluse","place_type":"settlement","date":"1573-10-18","date_year":1573,"date_month":10,"date_day":18,"date_orig_text":"Octobre 18 - Foire a Cluse.","duration":null},"geometry":{"type":"point","coordinates":[6.591292849087964,46.06409756839851]}},{"type":"Feature","properties":{"source_id":"SRC000122","event_no":"97","event_type":"fair_calendar","place_id":"PLC002703","place_name_modern":"Treviso","place_name_historic":"Treviso, Tervis","place_type":"settlement","date":"1573-10-22","date_year":1573,"date_month":10,"date_day":22,"date_orig_text":"Octobre 22 - F. a Treuis en Italie.","duration":null},"geometry":{"type":"point","coordinates":[12.246125768632636,45.661259788301635]}},{"type":"Feature","properties":{"source_id":"SRC000122","event_no":"98","event_type":"fair_calendar","place_id":"PLC000465","place_name_modern":"Troyes","place_name_historic":"Troyes, Troies, Troye","place_type":"settlement","date":"1573-10-24","date_year":1573,"date_month":10,"date_day":24,"date_orig_text":"Octobre 24 - F. a Troys en Chãpag.","duration":null},"geometry":{"type":"point","coordinates":[4.075642323584924,48.29807044303462]}},{"type":"Feature","properties":{"source_id":"SRC000122","event_no":"99","event_type":"fair_calendar","place_id":"PLC004949","place_name_modern":"Ermensee","place_name_historic":"","place_type":"settlement","date":"1573-10-26","date_year":1573,"date_month":10,"date_day":26,"date_orig_text":"Octobre 26 - Foire d'Armense.","duration":null},"geometry":{"type":"point","coordinates":[8.239837501197057,47.228792973495246]}},{"type":"Feature","properties":{"source_id":"SRC000122","event_no":"100","event_type":"fair_calendar","place_id":"PLC004934","place_name_modern":"Aubonne (VD)","place_name_historic":"Aubonne (VD)","place_type":"settlement","date":"1573-10-28","date_year":1573,"date_month":10,"date_day":28,"date_orig_text":"Octobre 28 - F. à Aubonne, ..., ..., & ...","duration":null},"geometry":{"type":"point","coordinates":[6.390353765469894,46.49593674688252]}},{"type":"Feature","properties":{"source_id":"SRC000122","event_no":"101","event_type":"fair_calendar","place_id":"PLC003582","place_name_modern":"Morges","place_name_historic":"Morges, Morgex","place_type":"settlement","date":"1573-10-28","date_year":1573,"date_month":10,"date_day":28,"date_orig_text":"Octobre 28 - F. ..., à Morges, ..., & ...","duration":null},"geometry":{"type":"point","coordinates":[6.495846414079646,46.51086158341995]}},{"type":"Feature","properties":{"source_id":"SRC000122","event_no":"102","event_type":"fair_calendar","place_id":"PLC004948","place_name_modern":"Sallanches","place_name_historic":"Sallanches","place_type":"settlement","date":"1573-10-28","date_year":1573,"date_month":10,"date_day":28,"date_orig_text":"Octobre 28 - F. ..., ..., à Chalãces, & ...","duration":null},"geometry":{"type":"point","coordinates":[6.63291261212889,45.934866612126676]}},{"type":"Feature","properties":{"source_id":"SRC000122","event_no":"103","event_type":"fair_calendar","place_id":"PLC004820","place_name_modern":"Arbent","place_name_historic":"Arbent","place_type":"settlement","date":"1573-10-28","date_year":1573,"date_month":10,"date_day":28,"date_orig_text":"Octobre 28 - F. ..., ..., ..., & à Arban.","duration":null},"geometry":{"type":"point","coordinates":[5.682087419427166,46.295084641946765]}},{"type":"Feature","properties":{"source_id":"SRC000122","event_no":"104","event_type":"fair_calendar","place_id":"PLC000406","place_name_modern":"Lyon","place_name_historic":", Lyon, Leon, Lion","place_type":"settlement","date":"1573-11-03","date_year":1573,"date_month":11,"date_day":3,"date_orig_text":"Novembre 3 - Foire à Lyon, & finira le 22. de ce mois.","duration":"20 days"},"geometry":{"type":"point","coordinates":[4.832640613902609,45.758817110591664]}},{"type":"Feature","properties":{"source_id":"SRC000122","event_no":"105","event_type":"fair_calendar","place_id":"PLC000410","place_name_modern":"Belley","place_name_historic":"Belley, Bele, Bellay","place_type":"settlement","date":"1573-11-07","date_year":1573,"date_month":11,"date_day":7,"date_orig_text":"Novembre 7 - Foire à Bellay, & ...","duration":null},"geometry":{"type":"point","coordinates":[5.684614607031206,45.75921618110567]}},{"type":"Feature","properties":{"source_id":"SRC000122","event_no":"106","event_type":"fair_calendar","place_id":"PLC000323","place_name_modern":"Digne-les-Bains","place_name_historic":"Digne-les-Bains, Digne","place_type":"settlement","date":"1573-11-07","date_year":1573,"date_month":11,"date_day":7,"date_orig_text":"Novembre 7 - Foire ..., & a Dignes en Prouence.","duration":null},"geometry":{"type":"point","coordinates":[6.235628799468355,44.092567346349]}},{"type":"Feature","properties":{"source_id":"SRC000122","event_no":"107","event_type":"fair_calendar","place_id":"PLC001243","place_name_modern":"Basel","place_name_historic":"Basel, Basle, PASEL, Bassel, Basilea","place_type":"settlement","date":"1573-11-11","date_year":1573,"date_month":11,"date_day":11,"date_orig_text":"Novembre 11 - F. à Basle, ..., ..., ..., ..., ..., ... & ...","duration":null},"geometry":{"type":"point","coordinates":[7.585919621522472,47.5585013916897]}},{"type":"Feature","properties":{"source_id":"SRC000122","event_no":"108","event_type":"fair_calendar","place_id":"PLC000256","place_name_modern":"Bern","place_name_historic":"Bern, PERN, Berne","place_type":"settlement","date":"1573-11-11","date_year":1573,"date_month":11,"date_day":11,"date_orig_text":"Novembre 11 - F. à ..., Berne, ..., ..., ..., ..., ... & ...","duration":null},"geometry":{"type":"point","coordinates":[7.458990895022672,46.95103869258574]}},{"type":"Feature","properties":{"source_id":"SRC000122","event_no":"109","event_type":"fair_calendar","place_id":"PLC001265","place_name_modern":"Nyon","place_name_historic":"Nyon, Nieon, Nion","place_type":"settlement","date":"1573-11-11","date_year":1573,"date_month":11,"date_day":11,"date_orig_text":"Novembre 11 - F. à ..., ..., Nion, ..., ..., ..., ... & ...","duration":null},"geometry":{"type":"point","coordinates":[6.233338102392308,46.381289538064664]}},{"type":"Feature","properties":{"source_id":"SRC000122","event_no":"110","event_type":"fair_calendar","place_id":"PLC000291","place_name_modern":"Bourg-Saint-Maurice","place_name_historic":"Bourg-Saint-Maurice, Monstiers en Tar","place_type":"settlement","date":"1573-11-11","date_year":1573,"date_month":11,"date_day":11,"date_orig_text":"Novembre 11 - F. à ..., ..., ..., Bourg, ..., ..., ... & ...","duration":null},"geometry":{"type":"point","coordinates":[6.769184040511691,45.618489944432106]}},{"type":"Feature","properties":{"source_id":"SRC000122","event_no":"111","event_type":"fair_calendar","place_id":"PLC000297","place_name_modern":"Bonneville","place_name_historic":"Bonneville","place_type":"settlement","date":"1573-11-11","date_year":1573,"date_month":11,"date_day":11,"date_orig_text":"Novembre 11 - F. à ..., ..., ..., ..., La Bõne ville, ..., ... & ...","duration":null},"geometry":{"type":"point","coordinates":[6.408181510857137,46.07372191024591]}},{"type":"Feature","properties":{"source_id":"SRC000122","event_no":"112","event_type":"fair_calendar","place_id":"PLC004947","place_name_modern":"Les Saisies","place_name_historic":"Les Saisies","place_type":"settlement","date":"1573-11-11","date_year":1573,"date_month":11,"date_day":11,"date_orig_text":"Novembre 11 - F. à ..., ..., ..., ..., ..., Cessay, ... & ...","duration":null},"geometry":{"type":"point","coordinates":[6.539307388358157,45.75717217900298]}},{"type":"Feature","properties":{"source_id":"SRC000122","event_no":"113","event_type":"fair_calendar","place_id":"PLC000230","place_name_modern":"Chur","place_name_historic":"Chur, Chrois","place_type":"settlement","date":"1573-11-11","date_year":1573,"date_month":11,"date_day":11,"date_orig_text":"Novembre 11 - F. à ..., ..., ..., ..., ..., ..., Chur, aux Gris. & ...","duration":null},"geometry":{"type":"point","coordinates":[9.51977281621111,46.849592088313315]}},{"type":"Feature","properties":{"source_id":"SRC000122","event_no":"114","event_type":"fair_calendar","place_id":"PLC001810","place_name_modern":"Baden","place_name_historic":", Baden, Paden","place_type":"settlement","date":"1573-11-11","date_year":1573,"date_month":11,"date_day":11,"date_orig_text":"Novembre 11 - F. à ..., ..., ..., ..., ..., ..., ... & Baden en Suisse.","duration":null},"geometry":{"type":"point","coordinates":[8.307728978733822,47.47437429294879]}},{"type":"Feature","properties":{"source_id":"SRC000122","event_no":"115","event_type":"fair_calendar","place_id":"PLC000300","place_name_modern":"Thonon-les-Bains","place_name_historic":"Thonon-les-Bains, Thonon","place_type":"settlement","date":"1573-11-18","date_year":1573,"date_month":11,"date_day":18,"date_orig_text":"Novembre 18 - Foire à Thonon, & ...","duration":null},"geometry":{"type":"point","coordinates":[6.478974781821926,46.37187130143318]}},{"type":"Feature","properties":{"source_id":"SRC000122","event_no":"116","event_type":"fair_calendar","place_id":"PLC004862","place_name_modern":"Besse-et-Saint-Anastaise","place_name_historic":"Besse-et-Saint-Anastaise","place_type":"settlement","date":"1573-11-18","date_year":1573,"date_month":11,"date_day":18,"date_orig_text":"Novembre 18 - Foire ..., & a Besse en Auuergne.","duration":null},"geometry":{"type":"point","coordinates":[2.933072887493271,45.51156828818926]}},{"type":"Feature","properties":{"source_id":"SRC000122","event_no":"117","event_type":"fair_calendar","place_id":"PLC000214","place_name_modern":"Konstanz","place_name_historic":"Konstanz, COSTNICZ, Cosenitz, Constentz; Costnitz, Constanza","place_type":"settlement","date":"1573-11-25","date_year":1573,"date_month":11,"date_day":25,"date_orig_text":"Novembre 25 - F. à Constãce, & ...","duration":null},"geometry":{"type":"point","coordinates":[9.177387497762808,47.666933063204986]}},{"type":"Feature","properties":{"source_id":"SRC000122","event_no":"118","event_type":"fair_calendar","place_id":"PLC000831","place_name_modern":"Langeac","place_name_historic":"Langeac, Langeai","place_type":"settlement","date":"1573-11-25","date_year":1573,"date_month":11,"date_day":25,"date_orig_text":"Novembre 25 - F. ..., & à Langeac en Auuergne.","duration":null},"geometry":{"type":"point","coordinates":[3.49640350609838,45.09965934988818]}},{"type":"Feature","properties":{"source_id":"SRC000122","event_no":"119","event_type":"fair_calendar","place_id":"PLC001267","place_name_modern":"Geneva","place_name_historic":"Geneve, Genefus, GENEVORA, Geneva","place_type":"settlement","date":"1573-11-30","date_year":1573,"date_month":11,"date_day":30,"date_orig_text":"Novembre 30 - Foire à Geneue.","duration":null},"geometry":{"type":"point","coordinates":[6.146025385329027,46.202093660486575]}},{"type":"Feature","properties":{"source_id":"SRC000122","event_no":"120","event_type":"fair_calendar","place_id":"PLC004943","place_name_modern":"Saint-Gervais-les-Bains","place_name_historic":"Saint-Gervais-les-Bains","place_type":"settlement","date":"1573-11-30","date_year":1573,"date_month":11,"date_day":30,"date_orig_text":"Novembre 30 - F. à Geais, ..., & ...","duration":null},"geometry":{"type":"point","coordinates":[6.711830591962728,45.89743925673414]}},{"type":"Feature","properties":{"source_id":"SRC000122","event_no":"121","event_type":"fair_calendar","place_id":"PLC004947","place_name_modern":"Les Saisies","place_name_historic":"Les Saisies","place_type":"settlement","date":"1573-11-30","date_year":1573,"date_month":11,"date_day":30,"date_orig_text":"Novembre 30 - F. ..., à Cessay, & ...","duration":null},"geometry":{"type":"point","coordinates":[6.539307388358157,45.75717217900298]}},{"type":"Feature","properties":{"source_id":"SRC000122","event_no":"122","event_type":"fair_calendar","place_id":"PLC000296","place_name_modern":"Cluses","place_name_historic":"Cluses, Cluse","place_type":"settlement","date":"1573-11-30","date_year":1573,"date_month":11,"date_day":30,"date_orig_text":"Novembre 30 - F. ..., ..., & à Cluse.","duration":null},"geometry":{"type":"point","coordinates":[6.591292849087964,46.06409756839851]}},{"type":"Feature","properties":{"source_id":"SRC000122","event_no":"123","event_type":"fair_calendar","place_id":"PLC004876","place_name_modern":"Lourmarin","place_name_historic":"Lourmarin","place_type":"settlement","date":"1573-12-01","date_year":1573,"date_month":12,"date_day":1,"date_orig_text":"Decembre 1 - Foire à Lourmarin.","duration":null},"geometry":{"type":"point","coordinates":[5.363324652121471,43.763707067972426]}},{"type":"Feature","properties":{"source_id":"SRC000122","event_no":"124","event_type":"fair_calendar","place_id":"PLC000365","place_name_modern":"Carpantras","place_name_historic":"Carpantras","place_type":"settlement","date":"1573-12-05","date_year":1573,"date_month":12,"date_day":5,"date_orig_text":"Decembre 5 - F. à Carpētras, 8. iours.","duration":null},"geometry":{"type":"point","coordinates":[5.04781996708124,44.05535030794885]}},{"type":"Feature","properties":{"source_id":"SRC000122","event_no":"125","event_type":"fair_calendar","place_id":"PLC000299","place_name_modern":"Bonne","place_name_historic":"Bonne","place_type":"settlement","date":"1573-12-06","date_year":1573,"date_month":12,"date_day":6,"date_orig_text":"Decembre 6 - F. à Bonne, ..., & à Carpētras.","duration":null},"geometry":{"type":"point","coordinates":[6.314942766430103,46.1696709089327]}},{"type":"Feature","properties":{"source_id":"SRC000122","event_no":"126","event_type":"fair_calendar","place_id":"PLC000251","place_name_modern":"Yverdon-les-Bains","place_name_historic":"Yverdon-les-Bains, Yverdon","place_type":"settlement","date":"1573-12-06","date_year":1573,"date_month":12,"date_day":6,"date_orig_text":"Decembre 6 - F. ..., à Yuerdũ, & à Carpētras.","duration":null},"geometry":{"type":"point","coordinates":[6.643313115630811,46.767017088407385]}},{"type":"Feature","properties":{"source_id":"SRC000122","event_no":"127","event_type":"fair_calendar","place_id":"PLC004821","place_name_modern":"La Roche-sur-Foron","place_name_historic":"La Roche-sur-Foron","place_type":"settlement","date":"1573-12-21","date_year":1573,"date_month":12,"date_day":21,"date_orig_text":"Decembre 21 - F. à la Roche.","duration":null},"geometry":{"type":"point","coordinates":[6.312776583666143,46.0664723178894]}},{"type":"Feature","properties":{"source_id":"SRC000122","event_no":"128","event_type":"fair_calendar","place_id":"PLC000073","place_name_modern":"Strasbourg","place_name_historic":"Strasbourg, STRASBURG, Strasburg, Strassbourg","place_type":"settlement","date":"1573-12-25","date_year":1573,"date_month":12,"date_day":25,"date_orig_text":"Decembre 25 - F. à Strasbourg.","duration":null},"geometry":{"type":"point","coordinates":[7.747529973447003,48.584862875424925]}}]}