{"type":"FeatureCollection","name":"CoMOR-FairCalendars","collection_id":"COL0098","records":9,"download_user":"admin","download_date":"2026-08-10T18:45:53.171+02:00","readme":"See the readme file included in this download for details about this file.","features":[{"type":"Feature","properties":{"source_id":"SRC000778","event_no":"4","event_type":"fair_calendar","place_id":"PLC001267","place_name_modern":"Geneva","place_name_historic":"Geneve, Genefus, GENEVORA, Geneva","place_type":"settlement","date":"1433-04-12","date_year":1433,"date_month":4,"date_day":12,"date_orig_text":"","duration":null},"geometry":{"type":"point","coordinates":[6.146025385329027,46.202093660486575]}},{"type":"Feature","properties":{"source_id":"SRC000779","event_no":"2","event_type":"fair_calendar","place_id":"PLC001267","place_name_modern":"Geneva","place_name_historic":"Geneve, Genefus, GENEVORA, Geneva","place_type":"settlement","date":"1433-04-12","date_year":1433,"date_month":4,"date_day":12,"date_orig_text":"","duration":null},"geometry":{"type":"point","coordinates":[6.146025385329027,46.202093660486575]}},{"type":"Feature","properties":{"source_id":"SRC000788","event_no":"3","event_type":"fair_calendar","place_id":"PLC001267","place_name_modern":"Geneva","place_name_historic":"Geneve, Genefus, GENEVORA, Geneva","place_type":"settlement","date":"1433-06-29","date_year":1433,"date_month":6,"date_day":29,"date_orig_text":"","duration":null},"geometry":{"type":"point","coordinates":[6.146025385329027,46.202093660486575]}},{"type":"Feature","properties":{"source_id":"SRC000792","event_no":"1","event_type":"fair_calendar","place_id":"PLC001267","place_name_modern":"Geneva","place_name_historic":"Geneve, Genefus, GENEVORA, Geneva","place_type":"settlement","date":"1433-08-24","date_year":1433,"date_month":8,"date_day":24,"date_orig_text":"","duration":null},"geometry":{"type":"point","coordinates":[6.146025385329027,46.202093660486575]}},{"type":"Feature","properties":{"source_id":"SRC000796","event_no":"4","event_type":"fair_calendar","place_id":"PLC001267","place_name_modern":"Geneva","place_name_historic":"Geneve, Genefus, GENEVORA, Geneva","place_type":"settlement","date":"1433-10-28","date_year":1433,"date_month":10,"date_day":28,"date_orig_text":"","duration":null},"geometry":{"type":"point","coordinates":[6.146025385329027,46.202093660486575]}},{"type":"Feature","properties":{"source_id":"SRC000796","event_no":"5","event_type":"fair_calendar","place_id":"PLC001267","place_name_modern":"Geneva","place_name_historic":"Geneve, Genefus, GENEVORA, Geneva","place_type":"settlement","date":"1433-11-01","date_year":1433,"date_month":11,"date_day":1,"date_orig_text":"","duration":null},"geometry":{"type":"point","coordinates":[6.146025385329027,46.202093660486575]}},{"type":"Feature","properties":{"source_id":"SRC000800","event_no":"1","event_type":"fair_calendar","place_id":"PLC001788","place_name_modern":"Villeneuve","place_name_historic":"Villeneuve, Villeneuf","place_type":"settlement","date":"1433-12-06","date_year":1433,"date_month":12,"date_day":6,"date_orig_text":"die beati Nicolay","duration":null},"geometry":{"type":"point","coordinates":[6.926575271984825,46.39624744971097]}},{"type":"Feature","properties":{"source_id":"SRC000801","event_no":"4","event_type":"fair_calendar","place_id":"PLC001267","place_name_modern":"Geneva","place_name_historic":"Geneve, Genefus, GENEVORA, Geneva","place_type":"settlement","date":"1434-01-06","date_year":1434,"date_month":1,"date_day":6,"date_orig_text":"","duration":null},"geometry":{"type":"point","coordinates":[6.146025385329027,46.202093660486575]}},{"type":"Feature","properties":{"source_id":"SRC000807","event_no":"3","event_type":"fair_calendar","place_id":"PLC001267","place_name_modern":"Geneva","place_name_historic":"Geneve, Genefus, GENEVORA, Geneva","place_type":"settlement","date":"1434-02-22","date_year":1434,"date_month":2,"date_day":22,"date_orig_text":"","duration":null},"geometry":{"type":"point","coordinates":[6.146025385329027,46.202093660486575]}}]}