{"type":"FeatureCollection","name":"CoMOR-FairCalendars","collection_id":"COL0088","records":3,"download_user":"admin","download_date":"2026-08-10T18:45:50.853+02:00","readme":"See the readme file included in this download for details about this file.","features":[{"type":"Feature","properties":{"source_id":"SRC000602","event_no":"1","event_type":"fair_calendar","place_id":"PLC001267","place_name_modern":"Geneva","place_name_historic":"Geneve, Genefus, GENEVORA, Geneva","place_type":"settlement","date":"1484-11-08","date_year":1484,"date_month":11,"date_day":8,"date_orig_text":"nundine Lune proxime futura","duration":null},"geometry":{"type":"point","coordinates":[6.146025385329027,46.202093660486575]}},{"type":"Feature","properties":{"source_id":"SRC000599","event_no":"1","event_type":"fair_calendar","place_id":"PLC001267","place_name_modern":"Geneva","place_name_historic":"Geneve, Genefus, GENEVORA, Geneva","place_type":"settlement","date":"1484-08-09","date_year":1484,"date_month":8,"date_day":9,"date_orig_text":"nundine hujus mensis incipient nona hujus augusti","duration":null},"geometry":{"type":"point","coordinates":[6.146025385329027,46.202093660486575]}},{"type":"Feature","properties":{"source_id":"SRC000621","event_no":"1","event_type":"fair_calendar","place_id":"PLC001267","place_name_modern":"Geneva","place_name_historic":"Geneve, Genefus, GENEVORA, Geneva","place_type":"settlement","date":"1485-08-02","date_year":1485,"date_month":8,"date_day":2,"date_orig_text":"nundine augustine","duration":null},"geometry":{"type":"point","coordinates":[6.146025385329027,46.202093660486575]}}]}