{"type":"FeatureCollection","name":"CoMOR-FairCalendars","collection_id":"COL0021","records":123,"download_user":"admin","download_date":"2026-08-10T18:45:45.298+02:00","readme":"See the readme file included in this download for details about this file.","features":[{"type":"Feature","properties":{"source_id":"SRC000043","event_no":"1","event_type":"fair_calendar","place_id":"PLC000113","place_name_modern":"Antwerpen","place_name_historic":", Antwerpen, Antverpe","place_type":"settlement","date":"1576-02-02","date_year":1576,"date_month":2,"date_day":2,"date_orig_text":"on Candelmas","duration":null},"geometry":{"type":"point","coordinates":[4.399684477601141,51.22083350522394]}},{"type":"Feature","properties":{"source_id":"SRC000043","event_no":"2","event_type":"fair_calendar","place_id":"PLC000113","place_name_modern":"Antwerpen","place_name_historic":", Antwerpen, Antverpe","place_type":"settlement","date":"1576-06-10","date_year":1576,"date_month":6,"date_day":10,"date_orig_text":"at Whitsontide","duration":null},"geometry":{"type":"point","coordinates":[4.399684477601141,51.22083350522394]}},{"type":"Feature","properties":{"source_id":"SRC000043","event_no":"3","event_type":"fair_calendar","place_id":"PLC000113","place_name_modern":"Antwerpen","place_name_historic":", Antwerpen, Antverpe","place_type":"settlement","date":"1576-09-02","date_year":1576,"date_month":9,"date_day":2,"date_orig_text":"after Egidy","duration":null},"geometry":{"type":"point","coordinates":[4.399684477601141,51.22083350522394]}},{"type":"Feature","properties":{"source_id":"SRC000043","event_no":"4","event_type":"fair_calendar","place_id":"PLC002215","place_name_modern":"Augsburg","place_name_historic":"Augsburg, AUGSBURG, Augspurg","place_type":"settlement","date":"1576-07-04","date_year":1576,"date_month":7,"date_day":4,"date_orig_text":"vpon Sainct Ulriches day","duration":null},"geometry":{"type":"point","coordinates":[10.893103101485123,48.3707762940575]}},{"type":"Feature","properties":{"source_id":"SRC000043","event_no":"5","event_type":"fair_calendar","place_id":"PLC002215","place_name_modern":"Augsburg","place_name_historic":"Augsburg, AUGSBURG, Augspurg","place_type":"settlement","date":"1576-09-29","date_year":1576,"date_month":9,"date_day":29,"date_orig_text":"at Michelmas","duration":null},"geometry":{"type":"point","coordinates":[10.893103101485123,48.3707762940575]}},{"type":"Feature","properties":{"source_id":"SRC000043","event_no":"6","event_type":"fair_calendar","place_id":"PLC002065","place_name_modern":"Amberg","place_name_historic":"Amberg","place_type":"settlement","date":"1576-06-10","date_year":1576,"date_month":6,"date_day":10,"date_orig_text":"at Whitsontide","duration":null},"geometry":{"type":"point","coordinates":[11.856817136629498,49.445381792938804]}},{"type":"Feature","properties":{"source_id":"SRC000043","event_no":"7","event_type":"fair_calendar","place_id":"PLC002065","place_name_modern":"Amberg","place_name_historic":"Amberg","place_type":"settlement","date":"1576-09-26","date_year":1576,"date_month":9,"date_day":26,"date_orig_text":"on the Sonday next after Sainct Mathew in haruest","duration":null},"geometry":{"type":"point","coordinates":[11.856817136629498,49.445381792938804]}},{"type":"Feature","properties":{"source_id":"SRC000043","event_no":"8","event_type":"fair_calendar","place_id":"PLC002034","place_name_modern":"Annaberg","place_name_historic":"Annaberg, Anenberg","place_type":"settlement","date":"1576-07-25","date_year":1576,"date_month":7,"date_day":25,"date_orig_text":"on Sainct James day","duration":null},"geometry":{"type":"point","coordinates":[13.01132788904598,50.58054987531258]}},{"type":"Feature","properties":{"source_id":"SRC000043","event_no":"9","event_type":"fair_calendar","place_id":"PLC001810","place_name_modern":"Baden","place_name_historic":", Baden, Paden","place_type":"settlement","date":"1576-04-23","date_year":1576,"date_month":4,"date_day":23,"date_orig_text":"on Seinct George his day","duration":null},"geometry":{"type":"point","coordinates":[8.307728978733822,47.47437429294879]}},{"type":"Feature","properties":{"source_id":"SRC000043","event_no":"10","event_type":"fair_calendar","place_id":"PLC001810","place_name_modern":"Baden","place_name_historic":", Baden, Paden","place_type":"settlement","date":"1576-11-16","date_year":1576,"date_month":11,"date_day":16,"date_orig_text":"on Othmary","duration":null},"geometry":{"type":"point","coordinates":[8.307728978733822,47.47437429294879]}},{"type":"Feature","properties":{"source_id":"SRC000043","event_no":"11","event_type":"fair_calendar","place_id":"PLC001243","place_name_modern":"Basel","place_name_historic":"Basel, Basle, PASEL, Bassel, Basilea","place_type":"settlement","date":"1576-10-27","date_year":1576,"date_month":10,"date_day":27,"date_orig_text":"Faire of Basill beginneth on the Eue of Simon & Jude, and endeth on the eue of Sainct Martin","duration":"14 days"},"geometry":{"type":"point","coordinates":[7.585919621522472,47.5585013916897]}},{"type":"Feature","properties":{"source_id":"SRC000043","event_no":"12","event_type":"fair_calendar","place_id":"PLC000256","place_name_modern":"Bern","place_name_historic":"Bern, PERN, Berne","place_type":"settlement","date":"1576-11-11","date_year":1576,"date_month":11,"date_day":11,"date_orig_text":"on saint Martins day","duration":null},"geometry":{"type":"point","coordinates":[7.458990895022672,46.95103869258574]}},{"type":"Feature","properties":{"source_id":"SRC000043","event_no":"13","event_type":"fair_calendar","place_id":"PLC000256","place_name_modern":"Bern","place_name_historic":"Bern, PERN, Berne","place_type":"settlement","date":"1576-12-13","date_year":1576,"date_month":12,"date_day":13,"date_orig_text":"on saynt Luices","duration":null},"geometry":{"type":"point","coordinates":[7.458990895022672,46.95103869258574]}},{"type":"Feature","properties":{"source_id":"SRC000043","event_no":"14","event_type":"fair_calendar","place_id":"PLC000215","place_name_modern":"Bischofszell","place_name_historic":"Bischofszell, Bischof Zell","place_type":"settlement","date":"1576-08-28","date_year":1576,"date_month":8,"date_day":28,"date_orig_text":"on Pelagu","duration":null},"geometry":{"type":"point","coordinates":[9.249875271204454,47.49322921809197]}},{"type":"Feature","properties":{"source_id":"SRC000043","event_no":"15","event_type":"fair_calendar","place_id":"PLC004756","place_name_modern":"Bozen [Bolzano]","place_name_historic":"Bozen [Bolzano]","place_type":"settlement","date":"1576-04-01","date_year":1576,"date_month":4,"date_day":1,"date_orig_text":"at Midlente","duration":null},"geometry":{"type":"point","coordinates":[11.354967819139139,46.49655837493802]}},{"type":"Feature","properties":{"source_id":"SRC000043","event_no":"16","event_type":"fair_calendar","place_id":"PLC004756","place_name_modern":"Bozen [Bolzano]","place_name_historic":"Bozen [Bolzano]","place_type":"settlement","date":"1576-09-01","date_year":1576,"date_month":9,"date_day":1,"date_orig_text":"at Egidy","duration":null},"geometry":{"type":"point","coordinates":[11.354967819139139,46.49655837493802]}},{"type":"Feature","properties":{"source_id":"SRC000043","event_no":"17","event_type":"fair_calendar","place_id":"PLC001809","place_name_modern":"Brugg","place_name_historic":"Brugg, Bruck","place_type":"settlement","date":"1576-09-14","date_year":1576,"date_month":9,"date_day":14,"date_orig_text":"on the day of the Anding of the holy Crosse","duration":null},"geometry":{"type":"point","coordinates":[8.207565551556002,47.48147012081473]}},{"type":"Feature","properties":{"source_id":"SRC000043","event_no":"18","event_type":"fair_calendar","place_id":"PLC001809","place_name_modern":"Brugg","place_name_historic":"Brugg, Bruck","place_type":"settlement","date":"1576-12-06","date_year":1576,"date_month":12,"date_day":6,"date_orig_text":"on saint Nicholas day","duration":null},"geometry":{"type":"point","coordinates":[8.207565551556002,47.48147012081473]}},{"type":"Feature","properties":{"source_id":"SRC000043","event_no":"19","event_type":"fair_calendar","place_id":"PLC003338","place_name_modern":"Bruck an der Mur","place_name_historic":"Bruck an der Mur, Bruck, Pruck","place_type":"settlement","date":"1576","date_year":1576,"date_month":0,"date_day":0,"date_orig_text":"","duration":"8 days"},"geometry":{"type":"point","coordinates":[15.265810697376745,47.4149904579293]}},{"type":"Feature","properties":{"source_id":"SRC000043","event_no":"20","event_type":"fair_calendar","place_id":"PLC000214","place_name_modern":"Konstanz","place_name_historic":"Konstanz, COSTNICZ, Cosenitz, Constentz; Costnitz, Constanza","place_type":"settlement","date":"1576-09-09","date_year":1576,"date_month":9,"date_day":9,"date_orig_text":"the nienth day of September","duration":null},"geometry":{"type":"point","coordinates":[9.177387497762808,47.666933063204986]}},{"type":"Feature","properties":{"source_id":"SRC000043","event_no":"21","event_type":"fair_calendar","place_id":"PLC000214","place_name_modern":"Konstanz","place_name_historic":"Konstanz, COSTNICZ, Cosenitz, Constentz; Costnitz, Constanza","place_type":"settlement","date":"1576","date_year":1576,"date_month":0,"date_day":0,"date_orig_text":"on S. Condrads day","duration":null},"geometry":{"type":"point","coordinates":[9.177387497762808,47.666933063204986]}},{"type":"Feature","properties":{"source_id":"SRC000043","event_no":"22","event_type":"fair_calendar","place_id":"PLC000230","place_name_modern":"Chur","place_name_historic":"Chur, Chrois","place_type":"settlement","date":"1576-01-25","date_year":1576,"date_month":1,"date_day":25,"date_orig_text":"on the conuersion of Paule","duration":null},"geometry":{"type":"point","coordinates":[9.51977281621111,46.849592088313315]}},{"type":"Feature","properties":{"source_id":"SRC000043","event_no":"23","event_type":"fair_calendar","place_id":"PLC000230","place_name_modern":"Chur","place_name_historic":"Chur, Chrois","place_type":"settlement","date":"1576-11-11","date_year":1576,"date_month":11,"date_day":11,"date_orig_text":"at S. Martins tide","duration":null},"geometry":{"type":"point","coordinates":[9.51977281621111,46.849592088313315]}},{"type":"Feature","properties":{"source_id":"SRC000043","event_no":"24","event_type":"fair_calendar","place_id":"PLC002223","place_name_modern":"Dinkelsbühl","place_name_historic":"Dinkelsbühl, Dunkelsbuhl, Dunkelspil, Dinckelsbuhl","place_type":"settlement","date":"1576-04-23","date_year":1576,"date_month":4,"date_day":23,"date_orig_text":"on Saynt Georges day","duration":null},"geometry":{"type":"point","coordinates":[10.322550551930233,49.07041288691291]}},{"type":"Feature","properties":{"source_id":"SRC000043","event_no":"25","event_type":"fair_calendar","place_id":"PLC002223","place_name_modern":"Dinkelsbühl","place_name_historic":"Dinkelsbühl, Dunkelsbuhl, Dunkelspil, Dinckelsbuhl","place_type":"settlement","date":"1576-10-21","date_year":1576,"date_month":10,"date_day":21,"date_orig_text":"on S. Ursulas","duration":null},"geometry":{"type":"point","coordinates":[10.322550551930233,49.07041288691291]}},{"type":"Feature","properties":{"source_id":"SRC000043","event_no":"26","event_type":"fair_calendar","place_id":"PLC000064","place_name_modern":"Durlach","place_name_historic":"Durlach","place_type":"settlement","date":"1576-07-25","date_year":1576,"date_month":7,"date_day":25,"date_orig_text":"on S. James","duration":null},"geometry":{"type":"point","coordinates":[8.482793379305312,48.99749913217691]}},{"type":"Feature","properties":{"source_id":"SRC000043","event_no":"27","event_type":"fair_calendar","place_id":"PLC000064","place_name_modern":"Durlach","place_name_historic":"Durlach","place_type":"settlement","date":"1576-10-16","date_year":1576,"date_month":10,"date_day":16,"date_orig_text":"at Galli","duration":null},"geometry":{"type":"point","coordinates":[8.482793379305312,48.99749913217691]}},{"type":"Feature","properties":{"source_id":"SRC000043","event_no":"28","event_type":"fair_calendar","place_id":"PLC001566","place_name_modern":"Erfurt","place_name_historic":"Erfurt, ERTEVERT","place_type":"settlement","date":"1576-06-17","date_year":1576,"date_month":6,"date_day":17,"date_orig_text":"on the Sundaye after Whitsontide","duration":null},"geometry":{"type":"point","coordinates":[11.022879822475867,50.97652627499558]}},{"type":"Feature","properties":{"source_id":"SRC000043","event_no":"29","event_type":"fair_calendar","place_id":"PLC001566","place_name_modern":"Erfurt","place_name_historic":"Erfurt, ERTEVERT","place_type":"settlement","date":"1576-11-01","date_year":1576,"date_month":11,"date_day":1,"date_orig_text":"at Hollantide","duration":null},"geometry":{"type":"point","coordinates":[11.022879822475867,50.97652627499558]}},{"type":"Feature","properties":{"source_id":"SRC000043","event_no":"30","event_type":"fair_calendar","place_id":"PLC001608","place_name_modern":"Eger","place_name_historic":"Eger, Egra","place_type":"settlement","date":"1576-02-02","date_year":1576,"date_month":2,"date_day":2,"date_orig_text":"Candelmas day","duration":null},"geometry":{"type":"point","coordinates":[12.363292335012977,50.079648451242846]}},{"type":"Feature","properties":{"source_id":"SRC000043","event_no":"31","event_type":"fair_calendar","place_id":"PLC001608","place_name_modern":"Eger","place_name_historic":"Eger, Egra","place_type":"settlement","date":"1576-09-16","date_year":1576,"date_month":9,"date_day":16,"date_orig_text":"one Sonday before S. Mathews day","duration":null},"geometry":{"type":"point","coordinates":[12.363292335012977,50.079648451242846]}},{"type":"Feature","properties":{"source_id":"SRC000043","event_no":"32","event_type":"fair_calendar","place_id":"PLC002206","place_name_modern":"Esslingen","place_name_historic":"Esslingen, Esling, Esingen, Eßling","place_type":"settlement","date":"1576-11-25","date_year":1576,"date_month":11,"date_day":25,"date_orig_text":"on the day of Sainct Katherin","duration":null},"geometry":{"type":"point","coordinates":[9.306814254058311,48.73053665613219]}},{"type":"Feature","properties":{"source_id":"SRC000043","event_no":"33","event_type":"fair_calendar","place_id":"PLC000043","place_name_modern":"Frankfurt Main","place_name_historic":"Frankfurt am Main, Frankfurt, Franckfurt Main, Francfurt; Francfort, Francfort","place_type":"settlement","date":"1576-04-01","date_year":1576,"date_month":4,"date_day":1,"date_orig_text":"in midlent","duration":null},"geometry":{"type":"point","coordinates":[8.673089014562553,50.10997055280276]}},{"type":"Feature","properties":{"source_id":"SRC000043","event_no":"34","event_type":"fair_calendar","place_id":"PLC000043","place_name_modern":"Frankfurt Main","place_name_historic":"Frankfurt am Main, Frankfurt, Franckfurt Main, Francfurt; Francfort, Francfort","place_type":"settlement","date":"1576-09-07","date_year":1576,"date_month":9,"date_day":7,"date_orig_text":"on the 7 daye in September","duration":null},"geometry":{"type":"point","coordinates":[8.673089014562553,50.10997055280276]}},{"type":"Feature","properties":{"source_id":"SRC000043","event_no":"35","event_type":"fair_calendar","place_id":"PLC000221","place_name_modern":"Feldkirch","place_name_historic":"Feldkirch, Feldkirchi, Veldkirch","place_type":"settlement","date":"1576-06-24","date_year":1576,"date_month":6,"date_day":24,"date_orig_text":"on the day of S. John the Baptist","duration":null},"geometry":{"type":"point","coordinates":[9.59480202565481,47.23679995220749]}},{"type":"Feature","properties":{"source_id":"SRC000043","event_no":"36","event_type":"fair_calendar","place_id":"PLC000221","place_name_modern":"Feldkirch","place_name_historic":"Feldkirch, Feldkirchi, Veldkirch","place_type":"settlement","date":"1576-09-01","date_year":1576,"date_month":9,"date_day":1,"date_orig_text":"on the day of Uerene","duration":null},"geometry":{"type":"point","coordinates":[9.59480202565481,47.23679995220749]}},{"type":"Feature","properties":{"source_id":"SRC000043","event_no":"37","event_type":"fair_calendar","place_id":"PLC000221","place_name_modern":"Feldkirch","place_name_historic":"Feldkirch, Feldkirchi, Veldkirch","place_type":"settlement","date":"1576-09-29","date_year":1576,"date_month":9,"date_day":29,"date_orig_text":"at Michelmas","duration":null},"geometry":{"type":"point","coordinates":[9.59480202565481,47.23679995220749]}},{"type":"Feature","properties":{"source_id":"SRC000043","event_no":"38","event_type":"fair_calendar","place_id":"PLC001785","place_name_modern":"Fribourg","place_name_historic":"Fribourg, Freiburg, Fryburg, Friburg","place_type":"settlement","date":"1576-01-05","date_year":1576,"date_month":1,"date_day":5,"date_orig_text":"on Twelfe day","duration":null},"geometry":{"type":"point","coordinates":[7.149052273745331,46.80261276627797]}},{"type":"Feature","properties":{"source_id":"SRC000043","event_no":"39","event_type":"fair_calendar","place_id":"PLC002066","place_name_modern":"Freystadt","place_name_historic":"Freystadt, Freyenstat","place_type":"settlement","date":"1576-01-25","date_year":1576,"date_month":1,"date_day":25,"date_orig_text":"on the day of the conuersion of Paule","duration":null},"geometry":{"type":"point","coordinates":[11.328973758652962,49.200859100623184]}},{"type":"Feature","properties":{"source_id":"SRC000043","event_no":"40","event_type":"fair_calendar","place_id":"PLC001454","place_name_modern":"Fulda","place_name_historic":"Fulda, Fuld","place_type":"settlement","date":"1576-06-14","date_year":1576,"date_month":6,"date_day":14,"date_orig_text":"on the day of saynt Boniface","duration":null},"geometry":{"type":"point","coordinates":[9.675917200984884,50.55146517423659]}},{"type":"Feature","properties":{"source_id":"SRC000043","event_no":"41","event_type":"fair_calendar","place_id":"PLC003617","place_name_modern":"Frauenfeld","place_name_historic":"Frauenfeld, Frwenfeld","place_type":"settlement","date":"1576-12-06","date_year":1576,"date_month":12,"date_day":6,"date_orig_text":"on S. Nicholas day","duration":null},"geometry":{"type":"point","coordinates":[8.89486920715262,47.555312242015376]}},{"type":"Feature","properties":{"source_id":"SRC000043","event_no":"42","event_type":"fair_calendar","place_id":"PLC001267","place_name_modern":"Geneva","place_name_historic":"Geneve, Genefus, GENEVORA, Geneva","place_type":"settlement","date":"1576-11-25","date_year":1576,"date_month":11,"date_day":25,"date_orig_text":"on the day of saint Kathirine","duration":null},"geometry":{"type":"point","coordinates":[6.146025385329027,46.202093660486575]}},{"type":"Feature","properties":{"source_id":"SRC000043","event_no":"43","event_type":"fair_calendar","place_id":"PLC002142","place_name_modern":"Hall in Tirol","place_name_historic":"Hall in Tirol, Hall, Hel","place_type":"settlement","date":"1576-05-13","date_year":1576,"date_month":5,"date_day":13,"date_orig_text":"on the 3. Sonday after Saint Georg","duration":null},"geometry":{"type":"point","coordinates":[11.508562535022412,47.28103694187015]}},{"type":"Feature","properties":{"source_id":"SRC000043","event_no":"44","event_type":"fair_calendar","place_id":"PLC002142","place_name_modern":"Hall in Tirol","place_name_historic":"Hall in Tirol, Hall, Hel","place_type":"settlement","date":"1576-11-04","date_year":1576,"date_month":11,"date_day":4,"date_orig_text":"on the 3. Sonday after Galli","duration":null},"geometry":{"type":"point","coordinates":[11.508562535022412,47.28103694187015]}},{"type":"Feature","properties":{"source_id":"SRC000043","event_no":"45","event_type":"fair_calendar","place_id":"PLC002219","place_name_modern":"Schwäbisch Hall","place_name_historic":"Schwäbisch Hall, Hall","place_type":"settlement","date":"1576-12-25","date_year":1576,"date_month":12,"date_day":25,"date_orig_text":"at Christmas","duration":null},"geometry":{"type":"point","coordinates":[9.734418821357528,49.1170509096262]}},{"type":"Feature","properties":{"source_id":"SRC000043","event_no":"46","event_type":"fair_calendar","place_id":"PLC002036","place_name_modern":"Hof","place_name_historic":"Hof, Hoff","place_type":"settlement","date":"1576-01-25","date_year":1576,"date_month":1,"date_day":25,"date_orig_text":"on the conuersion of Paule","duration":null},"geometry":{"type":"point","coordinates":[11.914486845556718,50.31379172638024]}},{"type":"Feature","properties":{"source_id":"SRC000043","event_no":"47","event_type":"fair_calendar","place_id":"PLC002036","place_name_modern":"Hof","place_name_historic":"Hof, Hoff","place_type":"settlement","date":"1576-08-10","date_year":1576,"date_month":8,"date_day":10,"date_orig_text":"on Saint Lawrance day","duration":null},"geometry":{"type":"point","coordinates":[11.914486845556718,50.31379172638024]}},{"type":"Feature","properties":{"source_id":"SRC000043","event_no":"48","event_type":"fair_calendar","place_id":"PLC004213","place_name_modern":"Sankt Joachimsthal [Jáchymov]","place_name_historic":"Sankt Joachimsthal [Jáchymov], Tall, Thall","place_type":"settlement","date":"1576-07-20","date_year":1576,"date_month":7,"date_day":20,"date_orig_text":"on the day of Saint Marget","duration":null},"geometry":{"type":"point","coordinates":[12.935087365203342,50.35841649599272]}},{"type":"Feature","properties":{"source_id":"SRC000043","event_no":"49","event_type":"fair_calendar","place_id":"PLC004213","place_name_modern":"Sankt Joachimsthal [Jáchymov]","place_name_historic":"Sankt Joachimsthal [Jáchymov], Tall, Thall","place_type":"settlement","date":"1576-02-05","date_year":1576,"date_month":2,"date_day":5,"date_orig_text":"the Sonday after Candelmas","duration":null},"geometry":{"type":"point","coordinates":[12.935087365203342,50.35841649599272]}},{"type":"Feature","properties":{"source_id":"SRC000043","event_no":"50","event_type":"fair_calendar","place_id":"PLC002100","place_name_modern":"Ingolstadt","place_name_historic":"Ingolstadt, Inglstad, Ingelstadt, Inzelstat","place_type":"settlement","date":"1576-09-14","date_year":1576,"date_month":9,"date_day":14,"date_orig_text":"on the inuension of the Crosse","duration":null},"geometry":{"type":"point","coordinates":[11.424291137914336,48.765191725161]}},{"type":"Feature","properties":{"source_id":"SRC000043","event_no":"51","event_type":"fair_calendar","place_id":"PLC002100","place_name_modern":"Ingolstadt","place_name_historic":"Ingolstadt, Inglstad, Ingelstadt, Inzelstat","place_type":"settlement","date":"1576-09-21","date_year":1576,"date_month":9,"date_day":21,"date_orig_text":"on saint Mathewes day","duration":null},"geometry":{"type":"point","coordinates":[11.424291137914336,48.765191725161]}},{"type":"Feature","properties":{"source_id":"SRC000043","event_no":"52","event_type":"fair_calendar","place_id":"PLC003336","place_name_modern":"Judenburg","place_name_historic":"Judenburg, iudenburg, Iudenburg, Judenborg","place_type":"settlement","date":"1576-10-21","date_year":1576,"date_month":10,"date_day":21,"date_orig_text":"on saint Ursulas day","duration":null},"geometry":{"type":"point","coordinates":[14.663231858146371,47.16886397880219]}},{"type":"Feature","properties":{"source_id":"SRC000043","event_no":"53","event_type":"fair_calendar","place_id":"PLC003352","place_name_modern":"Krems an der Donau","place_name_historic":"Krems an der Donau, Krems, Crembs","place_type":"settlement","date":"1576-07-25","date_year":1576,"date_month":7,"date_day":25,"date_orig_text":"on S. James tide","duration":null},"geometry":{"type":"point","coordinates":[15.60768377526018,48.40654638747437]}},{"type":"Feature","properties":{"source_id":"SRC000043","event_no":"54","event_type":"fair_calendar","place_id":"PLC003352","place_name_modern":"Krems an der Donau","place_name_historic":"Krems an der Donau, Krems, Crembs","place_type":"settlement","date":"1576-10-28","date_year":1576,"date_month":10,"date_day":28,"date_orig_text":"on S. Simon and Judes day","duration":null},"geometry":{"type":"point","coordinates":[15.60768377526018,48.40654638747437]}},{"type":"Feature","properties":{"source_id":"SRC000043","event_no":"55","event_type":"fair_calendar","place_id":"PLC002179","place_name_modern":"Kempten","place_name_historic":"Kempten","place_type":"settlement","date":"1576-05-10","date_year":1576,"date_month":5,"date_day":10,"date_orig_text":"on the daye of Gordiany","duration":null},"geometry":{"type":"point","coordinates":[10.312434572990378,47.72663289946243]}},{"type":"Feature","properties":{"source_id":"SRC000043","event_no":"56","event_type":"fair_calendar","place_id":"PLC002212","place_name_modern":"Lauingen","place_name_historic":"Lauingen","place_type":"settlement","date":"1576-08-24","date_year":1576,"date_month":8,"date_day":24,"date_orig_text":"on the daye of Saynt Bartlmew","duration":null},"geometry":{"type":"point","coordinates":[10.425241977176535,48.57351955413796]}},{"type":"Feature","properties":{"source_id":"SRC000043","event_no":"57","event_type":"fair_calendar","place_id":"PLC003370","place_name_modern":"Landshut","place_name_historic":"Landshut, LACZHUT","place_type":"settlement","date":"1576-08-24","date_year":1576,"date_month":8,"date_day":24,"date_orig_text":"on Saynte Bartlemewes day","duration":null},"geometry":{"type":"point","coordinates":[12.15185994797194,48.53641918230154]}},{"type":"Feature","properties":{"source_id":"SRC000043","event_no":"58","event_type":"fair_calendar","place_id":"PLC001568","place_name_modern":"Leipzig","place_name_historic":"Leipzig, LIPCZ","place_type":"settlement","date":"1576-01-06","date_year":1576,"date_month":1,"date_day":6,"date_orig_text":"the Saterdaye after newyeares daye","duration":null},"geometry":{"type":"point","coordinates":[12.374406700864903,51.34030646147477]}},{"type":"Feature","properties":{"source_id":"SRC000043","event_no":"59","event_type":"fair_calendar","place_id":"PLC001568","place_name_modern":"Leipzig","place_name_historic":"Leipzig, LIPCZ","place_type":"settlement","date":"1576-05-12","date_year":1576,"date_month":5,"date_day":12,"date_orig_text":"on the third saterday after Easter","duration":null},"geometry":{"type":"point","coordinates":[12.374406700864903,51.34030646147477]}},{"type":"Feature","properties":{"source_id":"SRC000043","event_no":"60","event_type":"fair_calendar","place_id":"PLC001568","place_name_modern":"Leipzig","place_name_historic":"Leipzig, LIPCZ","place_type":"settlement","date":"1576-10-06","date_year":1576,"date_month":10,"date_day":6,"date_orig_text":"on the saterday after Michelmas","duration":null},"geometry":{"type":"point","coordinates":[12.374406700864903,51.34030646147477]}},{"type":"Feature","properties":{"source_id":"SRC000043","event_no":"61","event_type":"fair_calendar","place_id":"PLC003345","place_name_modern":"Linz","place_name_historic":"Linz, UNCZ, Lintz, Lincs","place_type":"settlement","date":"1576-04-23","date_year":1576,"date_month":4,"date_day":23,"date_orig_text":"8 daies after Easter","duration":"8 days"},"geometry":{"type":"point","coordinates":[14.286684102572764,48.30560216143704]}},{"type":"Feature","properties":{"source_id":"SRC000043","event_no":"62","event_type":"fair_calendar","place_id":"PLC003345","place_name_modern":"Linz","place_name_historic":"Linz, UNCZ, Lintz, Lincs","place_type":"settlement","date":"1576-08-25","date_year":1576,"date_month":8,"date_day":25,"date_orig_text":"2 after saint Bartelmew","duration":"2 days"},"geometry":{"type":"point","coordinates":[14.286684102572764,48.30560216143704]}},{"type":"Feature","properties":{"source_id":"SRC000043","event_no":"63","event_type":"fair_calendar","place_id":"PLC000406","place_name_modern":"Lyon","place_name_historic":", Lyon, Leon, Lion","place_type":"settlement","date":"1576-04-23","date_year":1576,"date_month":4,"date_day":23,"date_orig_text":"8 dayes after Easter","duration":"8 days"},"geometry":{"type":"point","coordinates":[4.832640613902609,45.758817110591664]}},{"type":"Feature","properties":{"source_id":"SRC000043","event_no":"64","event_type":"fair_calendar","place_id":"PLC000406","place_name_modern":"Lyon","place_name_historic":", Lyon, Leon, Lion","place_type":"settlement","date":"1576-08-14","date_year":1576,"date_month":8,"date_day":14,"date_orig_text":"the 14 of August","duration":null},"geometry":{"type":"point","coordinates":[4.832640613902609,45.758817110591664]}},{"type":"Feature","properties":{"source_id":"SRC000043","event_no":"65","event_type":"fair_calendar","place_id":"PLC000406","place_name_modern":"Lyon","place_name_historic":", Lyon, Leon, Lion","place_type":"settlement","date":"1576-11-01","date_year":1576,"date_month":11,"date_day":1,"date_orig_text":"on Alholland day","duration":null},"geometry":{"type":"point","coordinates":[4.832640613902609,45.758817110591664]}},{"type":"Feature","properties":{"source_id":"SRC000043","event_no":"66","event_type":"fair_calendar","place_id":"PLC000209","place_name_modern":"Lindau","place_name_historic":"Lindau, Lindaw","place_type":"settlement","date":"1576-10-29","date_year":1576,"date_month":10,"date_day":29,"date_orig_text":"after Simons day and Jude","duration":null},"geometry":{"type":"point","coordinates":[9.682967456621624,47.54644077181661]}},{"type":"Feature","properties":{"source_id":"SRC000043","event_no":"67","event_type":"fair_calendar","place_id":"PLC000263","place_name_modern":"Luzern","place_name_historic":"Luzern, LUCERN, Lucer, Lucern, Lucerna","place_type":"settlement","date":"1576-03-07","date_year":1576,"date_month":3,"date_day":7,"date_orig_text":"after chrouetide","duration":null},"geometry":{"type":"point","coordinates":[8.300975853684587,47.05082258401305]}},{"type":"Feature","properties":{"source_id":"SRC000043","event_no":"68","event_type":"fair_calendar","place_id":"PLC000263","place_name_modern":"Luzern","place_name_historic":"Luzern, LUCERN, Lucer, Lucern, Lucerna","place_type":"settlement","date":"1576-10-02","date_year":1576,"date_month":10,"date_day":2,"date_orig_text":"after Leodegary","duration":null},"geometry":{"type":"point","coordinates":[8.300975853684587,47.05082258401305]}},{"type":"Feature","properties":{"source_id":"SRC000043","event_no":"69","event_type":"fair_calendar","place_id":"PLC002171","place_name_modern":"München","place_name_historic":"München, MUNGEN, Munchen","place_type":"settlement","date":"1576-07-25","date_year":1576,"date_month":7,"date_day":25,"date_orig_text":"on S. James his day","duration":null},"geometry":{"type":"point","coordinates":[11.575561896285542,48.1372432211546]}},{"type":"Feature","properties":{"source_id":"SRC000043","event_no":"70","event_type":"fair_calendar","place_id":"PLC002186","place_name_modern":"Memmingen","place_name_historic":"Memmingen, Memingen","place_type":"settlement","date":"1576-07-04","date_year":1576,"date_month":7,"date_day":4,"date_orig_text":"on sainte Ulriches day","duration":null},"geometry":{"type":"point","coordinates":[10.15915251527869,47.99004671498059]}},{"type":"Feature","properties":{"source_id":"SRC000043","event_no":"71","event_type":"fair_calendar","place_id":"PLC002064","place_name_modern":"Nürnberg","place_name_historic":"Nürnberg, NURNBERG, Nuremberg","place_type":"settlement","date":"1576-04-27","date_year":1576,"date_month":4,"date_day":27,"date_orig_text":"on the Friday after Easter","duration":null},"geometry":{"type":"point","coordinates":[11.076277748527682,49.45272813262063]}},{"type":"Feature","properties":{"source_id":"SRC000043","event_no":"72","event_type":"fair_calendar","place_id":"PLC002099","place_name_modern":"Nördlingen","place_name_historic":"Nördlingen, Norlingen, Nordlingen","place_type":"settlement","date":"1576-06-24","date_year":1576,"date_month":6,"date_day":24,"date_orig_text":"is 14 dayes after Whitsontide","duration":null},"geometry":{"type":"point","coordinates":[10.49236007556872,48.8501423347542]}},{"type":"Feature","properties":{"source_id":"SRC000043","event_no":"73","event_type":"fair_calendar","place_id":"PLC002099","place_name_modern":"Nördlingen","place_name_historic":"Nördlingen, Norlingen, Nordlingen","place_type":"settlement","date":"1576-01-15","date_year":1576,"date_month":1,"date_day":15,"date_orig_text":"14 dayes after new yeares day","duration":null},"geometry":{"type":"point","coordinates":[10.49236007556872,48.8501423347542]}},{"type":"Feature","properties":{"source_id":"SRC000043","event_no":"74","event_type":"fair_calendar","place_id":"PLC001580","place_name_modern":"Naumburg","place_name_historic":"Naumburg, Nauburg","place_type":"settlement","date":"1576-06-29","date_year":1576,"date_month":6,"date_day":29,"date_orig_text":"on the day of Peter and Paule","duration":null},"geometry":{"type":"point","coordinates":[11.812366154582973,51.15156434997887]}},{"type":"Feature","properties":{"source_id":"SRC000043","event_no":"75","event_type":"fair_calendar","place_id":"PLC000504","place_name_modern":"Paris","place_name_historic":"Paris, PARISIUS","place_type":"settlement","date":"1576-01-05","date_year":1576,"date_month":1,"date_day":5,"date_orig_text":"on Twelfe daye","duration":null},"geometry":{"type":"point","coordinates":[2.350731157935796,48.855283980547]}},{"type":"Feature","properties":{"source_id":"SRC000043","event_no":"76","event_type":"fair_calendar","place_id":"PLC004105","place_name_modern":"Praha","place_name_historic":"Praha, Prag","place_type":"settlement","date":"1576-09-28","date_year":1576,"date_month":9,"date_day":28,"date_orig_text":"on Wencesla","duration":null},"geometry":{"type":"point","coordinates":[14.421488530828533,50.0871993158607]}},{"type":"Feature","properties":{"source_id":"SRC000043","event_no":"77","event_type":"fair_calendar","place_id":"PLC004105","place_name_modern":"Praha","place_name_historic":"Praha, Prag","place_type":"settlement","date":"1576-02-02","date_year":1576,"date_month":2,"date_day":2,"date_orig_text":"at Candelmas","duration":null},"geometry":{"type":"point","coordinates":[14.421488530828533,50.0871993158607]}},{"type":"Feature","properties":{"source_id":"SRC000043","event_no":"78","event_type":"fair_calendar","place_id":"PLC004105","place_name_modern":"Praha","place_name_historic":"Praha, Prag","place_type":"settlement","date":"1576-04-01","date_year":1576,"date_month":4,"date_day":1,"date_orig_text":"in midlent","duration":null},"geometry":{"type":"point","coordinates":[14.421488530828533,50.0871993158607]}},{"type":"Feature","properties":{"source_id":"SRC000043","event_no":"79","event_type":"fair_calendar","place_id":"PLC004227","place_name_modern":"Kutna Hora","place_name_historic":"Kutna Hora, Kutnbg, Kuttnberg, Kuttenberg","place_type":"settlement","date":"1576-02-02","date_year":1576,"date_month":2,"date_day":2,"date_orig_text":"on Candelmas day","duration":null},"geometry":{"type":"point","coordinates":[15.267238704791417,49.9517303822146]}},{"type":"Feature","properties":{"source_id":"SRC000043","event_no":"80","event_type":"fair_calendar","place_id":"PLC004227","place_name_modern":"Kutna Hora","place_name_historic":"Kutna Hora, Kutnbg, Kuttnberg, Kuttenberg","place_type":"settlement","date":"1576-11-11","date_year":1576,"date_month":11,"date_day":11,"date_orig_text":"on Saint Martins daye","duration":null},"geometry":{"type":"point","coordinates":[15.267238704791417,49.9517303822146]}},{"type":"Feature","properties":{"source_id":"SRC000043","event_no":"81","event_type":"fair_calendar","place_id":"PLC004227","place_name_modern":"Kutna Hora","place_name_historic":"Kutna Hora, Kutnbg, Kuttnberg, Kuttenberg","place_type":"settlement","date":"1576-03-11","date_year":1576,"date_month":3,"date_day":11,"date_orig_text":"the first Sonday in Lent","duration":null},"geometry":{"type":"point","coordinates":[15.267238704791417,49.9517303822146]}},{"type":"Feature","properties":{"source_id":"SRC000043","event_no":"82","event_type":"fair_calendar","place_id":"PLC002079","place_name_modern":"Pilzen","place_name_historic":"Pilzen, Pilsen","place_type":"settlement","date":"1576-03-11","date_year":1576,"date_month":3,"date_day":11,"date_orig_text":"on the first Sonday in Lent","duration":null},"geometry":{"type":"point","coordinates":[13.375944575837089,49.74760212248768]}},{"type":"Feature","properties":{"source_id":"SRC000043","event_no":"83","event_type":"fair_calendar","place_id":"PLC002079","place_name_modern":"Pilzen","place_name_historic":"Pilzen, Pilsen","place_type":"settlement","date":"1576-08-24","date_year":1576,"date_month":8,"date_day":24,"date_orig_text":"at Bartlemewtide","duration":null},"geometry":{"type":"point","coordinates":[13.375944575837089,49.74760212248768]}},{"type":"Feature","properties":{"source_id":"SRC000043","event_no":"84","event_type":"fair_calendar","place_id":"PLC002188","place_name_modern":"Ravensburg","place_name_historic":"Ravensburg, Raispurg, Rauenspurg","place_type":"settlement","date":"1576-06-15","date_year":1576,"date_month":6,"date_day":15,"date_orig_text":"on Saynt Ueytes day","duration":null},"geometry":{"type":"point","coordinates":[9.60887332115687,47.78624547812796]}},{"type":"Feature","properties":{"source_id":"SRC000043","event_no":"85","event_type":"fair_calendar","place_id":"PLC001923","place_name_modern":"Rothenburg ob der Tauber","place_name_historic":"Rothenburg ob der Tauber, Rotnburg, Rotenburg","place_type":"settlement","date":"1576-07-25","date_year":1576,"date_month":7,"date_day":25,"date_orig_text":"on saint James day","duration":null},"geometry":{"type":"point","coordinates":[10.184761887468422,49.37593424961579]}},{"type":"Feature","properties":{"source_id":"SRC000043","event_no":"86","event_type":"fair_calendar","place_id":"PLC001923","place_name_modern":"Rothenburg ob der Tauber","place_name_historic":"Rothenburg ob der Tauber, Rotnburg, Rotenburg","place_type":"settlement","date":"1576-12-10","date_year":1576,"date_month":12,"date_day":10,"date_orig_text":"the monday after saint Nicholas day","duration":null},"geometry":{"type":"point","coordinates":[10.184761887468422,49.37593424961579]}},{"type":"Feature","properties":{"source_id":"SRC000043","event_no":"87","event_type":"fair_calendar","place_id":"PLC000073","place_name_modern":"Strasbourg","place_name_historic":"Strasbourg, STRASBURG, Strasburg, Strassbourg","place_type":"settlement","date":"1576-06-24","date_year":1576,"date_month":6,"date_day":24,"date_orig_text":"on S. John Baptistes day","duration":null},"geometry":{"type":"point","coordinates":[7.747529973447003,48.584862875424925]}},{"type":"Feature","properties":{"source_id":"SRC000043","event_no":"88","event_type":"fair_calendar","place_id":"PLC002859","place_name_modern":"Salzburg","place_name_historic":"Salzburg, SALCZBURG, Saltzburg","place_type":"settlement","date":"1576-09-21","date_year":1576,"date_month":9,"date_day":21,"date_orig_text":"8. dayes beefore Michelmas","duration":"8 days"},"geometry":{"type":"point","coordinates":[13.042854454362358,47.79948177177722]}},{"type":"Feature","properties":{"source_id":"SRC000043","event_no":"89","event_type":"fair_calendar","place_id":"PLC000227","place_name_modern":"Schwyz","place_name_historic":"Schwyz, Suiz","place_type":"settlement","date":"1576-01-30","date_year":1576,"date_month":1,"date_day":30,"date_orig_text":"the monday before Candelmas","duration":null},"geometry":{"type":"point","coordinates":[8.664473871708935,47.02815862980513]}},{"type":"Feature","properties":{"source_id":"SRC000043","event_no":"90","event_type":"fair_calendar","place_id":"PLC000227","place_name_modern":"Schwyz","place_name_historic":"Schwyz, Suiz","place_type":"settlement","date":"1576-03-17","date_year":1576,"date_month":3,"date_day":17,"date_orig_text":"on Saint Gertrudes day","duration":null},"geometry":{"type":"point","coordinates":[8.664473871708935,47.02815862980513]}},{"type":"Feature","properties":{"source_id":"SRC000043","event_no":"91","event_type":"fair_calendar","place_id":"PLC000227","place_name_modern":"Schwyz","place_name_historic":"Schwyz, Suiz","place_type":"settlement","date":"1576-10-16","date_year":1576,"date_month":10,"date_day":16,"date_orig_text":"on the day Galli","duration":null},"geometry":{"type":"point","coordinates":[8.664473871708935,47.02815862980513]}},{"type":"Feature","properties":{"source_id":"SRC000043","event_no":"92","event_type":"fair_calendar","place_id":"PLC000227","place_name_modern":"Schwyz","place_name_historic":"Schwyz, Suiz","place_type":"settlement","date":"1576-11-11","date_year":1576,"date_month":11,"date_day":11,"date_orig_text":"at Saint martines day","duration":null},"geometry":{"type":"point","coordinates":[8.664473871708935,47.02815862980513]}},{"type":"Feature","properties":{"source_id":"SRC000043","event_no":"93","event_type":"fair_calendar","place_id":"PLC001904","place_name_modern":"Schweinfurt","place_name_historic":"Schweinfurt, Sveinfurt, Schwenfurth","place_type":"settlement","date":"1576-09-17","date_year":1576,"date_month":9,"date_day":17,"date_orig_text":"on saynt Elysabethes day","duration":null},"geometry":{"type":"point","coordinates":[10.229612083120939,50.040058676636384]}},{"type":"Feature","properties":{"source_id":"SRC000043","event_no":"94","event_type":"fair_calendar","place_id":"PLC000257","place_name_modern":"Solothurn","place_name_historic":"Solothurn, Solotoren, Sollathurn, Soloturn, Soleurne","place_type":"settlement","date":"1576-02-19","date_year":1576,"date_month":2,"date_day":19,"date_orig_text":"at chrouetide","duration":null},"geometry":{"type":"point","coordinates":[7.540755219724435,47.20682953081105]}},{"type":"Feature","properties":{"source_id":"SRC000043","event_no":"95","event_type":"fair_calendar","place_id":"PLC000257","place_name_modern":"Solothurn","place_name_historic":"Solothurn, Solotoren, Sollathurn, Soloturn, Soleurne","place_type":"settlement","date":"1576-09-30","date_year":1576,"date_month":9,"date_day":30,"date_orig_text":"the last day of Septembre","duration":null},"geometry":{"type":"point","coordinates":[7.540755219724435,47.20682953081105]}},{"type":"Feature","properties":{"source_id":"SRC000043","event_no":"96","event_type":"fair_calendar","place_id":"PLC000212","place_name_modern":"Überlingen","place_name_historic":"Überlingen, Uberlingen","place_type":"settlement","date":"1576-07-04","date_year":1576,"date_month":7,"date_day":4,"date_orig_text":"on Saint Ulriches daye","duration":null},"geometry":{"type":"point","coordinates":[9.16577894445165,47.76702161249852]}},{"type":"Feature","properties":{"source_id":"SRC000043","event_no":"97","event_type":"fair_calendar","place_id":"PLC000212","place_name_modern":"Überlingen","place_name_historic":"Überlingen, Uberlingen","place_type":"settlement","date":"1576-10-21","date_year":1576,"date_month":10,"date_day":21,"date_orig_text":"on saynt Ursulas day","duration":null},"geometry":{"type":"point","coordinates":[9.16577894445165,47.76702161249852]}},{"type":"Feature","properties":{"source_id":"SRC000043","event_no":"98","event_type":"fair_calendar","place_id":"PLC000212","place_name_modern":"Überlingen","place_name_historic":"Überlingen, Uberlingen","place_type":"settlement","date":"1576-12-06","date_year":1576,"date_month":12,"date_day":6,"date_orig_text":"on Saint Nicholas day","duration":null},"geometry":{"type":"point","coordinates":[9.16577894445165,47.76702161249852]}},{"type":"Feature","properties":{"source_id":"SRC000043","event_no":"99","event_type":"fair_calendar","place_id":"PLC003644","place_name_modern":"Wangen im Allgäu","place_name_historic":"Wangen im Allgäu, Wangen","place_type":"settlement","date":"1576","date_year":1576,"date_month":0,"date_day":0,"date_orig_text":"on saint maurice day","duration":null},"geometry":{"type":"point","coordinates":[9.82926675139476,47.68630337547671]}},{"type":"Feature","properties":{"source_id":"SRC000043","event_no":"100","event_type":"fair_calendar","place_id":"PLC003619","place_name_modern":"Waldshut-Tiengen","place_name_historic":"Waldshut-Tiengen, Waldshuth","place_type":"settlement","date":"1576-05-01","date_year":1576,"date_month":5,"date_day":1,"date_orig_text":"on may day","duration":null},"geometry":{"type":"point","coordinates":[8.266329398964421,47.63194629671521]}},{"type":"Feature","properties":{"source_id":"SRC000043","event_no":"101","event_type":"fair_calendar","place_id":"PLC003619","place_name_modern":"Waldshut-Tiengen","place_name_historic":"Waldshut-Tiengen, Waldshuth","place_type":"settlement","date":"1576-07-25","date_year":1576,"date_month":7,"date_day":25,"date_orig_text":"on saint James day","duration":null},"geometry":{"type":"point","coordinates":[8.266329398964421,47.63194629671521]}},{"type":"Feature","properties":{"source_id":"SRC000043","event_no":"102","event_type":"fair_calendar","place_id":"PLC003619","place_name_modern":"Waldshut-Tiengen","place_name_historic":"Waldshut-Tiengen, Waldshuth","place_type":"settlement","date":"1576-10-16","date_year":1576,"date_month":10,"date_day":16,"date_orig_text":"on the day of Gally","duration":null},"geometry":{"type":"point","coordinates":[8.266329398964421,47.63194629671521]}},{"type":"Feature","properties":{"source_id":"SRC000043","event_no":"103","event_type":"fair_calendar","place_id":"PLC003619","place_name_modern":"Waldshut-Tiengen","place_name_historic":"Waldshut-Tiengen, Waldshuth","place_type":"settlement","date":"1576-12-06","date_year":1576,"date_month":12,"date_day":6,"date_orig_text":"on saynt Nicholas day","duration":null},"geometry":{"type":"point","coordinates":[8.266329398964421,47.63194629671521]}},{"type":"Feature","properties":{"source_id":"SRC000043","event_no":"104","event_type":"fair_calendar","place_id":"PLC004771","place_name_modern":"Wil","place_name_historic":"Wil","place_type":"settlement","date":"1576-04-24","date_year":1576,"date_month":4,"date_day":24,"date_orig_text":"after Saint George","duration":null},"geometry":{"type":"point","coordinates":[9.04386122443198,47.463519912230005]}},{"type":"Feature","properties":{"source_id":"SRC000043","event_no":"105","event_type":"fair_calendar","place_id":"PLC004771","place_name_modern":"Wil","place_name_historic":"Wil","place_type":"settlement","date":"1576-11-17","date_year":1576,"date_month":11,"date_day":17,"date_orig_text":"after Othomary","duration":null},"geometry":{"type":"point","coordinates":[9.04386122443198,47.463519912230005]}},{"type":"Feature","properties":{"source_id":"SRC000043","event_no":"106","event_type":"fair_calendar","place_id":"PLC001820","place_name_modern":"Winterthur","place_name_historic":"Winterthur, Winterthür","place_type":"settlement","date":"1576-01-26","date_year":1576,"date_month":1,"date_day":26,"date_orig_text":"the Thursday before Candelmas","duration":null},"geometry":{"type":"point","coordinates":[8.738125702384234,47.49549613107648]}},{"type":"Feature","properties":{"source_id":"SRC000043","event_no":"107","event_type":"fair_calendar","place_id":"PLC001820","place_name_modern":"Winterthur","place_name_historic":"Winterthur, Winterthür","place_type":"settlement","date":"1576-10-11","date_year":1576,"date_month":10,"date_day":11,"date_orig_text":"the Thursday before Gally","duration":null},"geometry":{"type":"point","coordinates":[8.738125702384234,47.49549613107648]}},{"type":"Feature","properties":{"source_id":"SRC000043","event_no":"108","event_type":"fair_calendar","place_id":"PLC001820","place_name_modern":"Winterthur","place_name_historic":"Winterthur, Winterthür","place_type":"settlement","date":"1576-11-08","date_year":1576,"date_month":11,"date_day":8,"date_orig_text":"the Thursday before saynt martine","duration":null},"geometry":{"type":"point","coordinates":[8.738125702384234,47.49549613107648]}},{"type":"Feature","properties":{"source_id":"SRC000043","event_no":"109","event_type":"fair_calendar","place_id":"PLC001820","place_name_modern":"Winterthur","place_name_historic":"Winterthur, Winterthür","place_type":"settlement","date":"1576-12-21","date_year":1576,"date_month":12,"date_day":21,"date_orig_text":"saynt Thomas","duration":null},"geometry":{"type":"point","coordinates":[8.738125702384234,47.49549613107648]}},{"type":"Feature","properties":{"source_id":"SRC000043","event_no":"110","event_type":"fair_calendar","place_id":"PLC001905","place_name_modern":"Würzburg","place_name_historic":"Würzburg, Würzpg, Würtzburg, Wurtzburg; Wirtzburg","place_type":"settlement","date":"1576-04-01","date_year":1576,"date_month":4,"date_day":1,"date_orig_text":"in midlent","duration":null},"geometry":{"type":"point","coordinates":[9.931880566467216,49.79269425949147]}},{"type":"Feature","properties":{"source_id":"SRC000043","event_no":"111","event_type":"fair_calendar","place_id":"PLC001905","place_name_modern":"Würzburg","place_name_historic":"Würzburg, Würzpg, Würtzburg, Wurtzburg; Wirtzburg","place_type":"settlement","date":"1576-07-08","date_year":1576,"date_month":7,"date_day":8,"date_orig_text":"Kiliany","duration":null},"geometry":{"type":"point","coordinates":[9.931880566467216,49.79269425949147]}},{"type":"Feature","properties":{"source_id":"SRC000043","event_no":"112","event_type":"fair_calendar","place_id":"PLC001905","place_name_modern":"Würzburg","place_name_historic":"Würzburg, Würzpg, Würtzburg, Wurtzburg; Wirtzburg","place_type":"settlement","date":"1576-09-29","date_year":1576,"date_month":9,"date_day":29,"date_orig_text":"at michelmas","duration":null},"geometry":{"type":"point","coordinates":[9.931880566467216,49.79269425949147]}},{"type":"Feature","properties":{"source_id":"SRC000043","event_no":"113","event_type":"fair_calendar","place_id":"PLC001905","place_name_modern":"Würzburg","place_name_historic":"Würzburg, Würzpg, Würtzburg, Wurtzburg; Wirtzburg","place_type":"settlement","date":"1576-11-01","date_year":1576,"date_month":11,"date_day":1,"date_orig_text":"at Alholantide","duration":null},"geometry":{"type":"point","coordinates":[9.931880566467216,49.79269425949147]}},{"type":"Feature","properties":{"source_id":"SRC000043","event_no":"114","event_type":"fair_calendar","place_id":"PLC003341","place_name_modern":"Wien","place_name_historic":"Wien, VIEN","place_type":"settlement","date":"1576-11-25","date_year":1576,"date_month":11,"date_day":25,"date_orig_text":"on the feaste of Saint Katherin","duration":null},"geometry":{"type":"point","coordinates":[16.37305500840773,48.20866498819257]}},{"type":"Feature","properties":{"source_id":"SRC000043","event_no":"115","event_type":"fair_calendar","place_id":"PLC000225","place_name_modern":"Zürich","place_name_historic":"Zürich, Zurich","place_type":"settlement","date":"1576-06-11","date_year":1576,"date_month":6,"date_day":11,"date_orig_text":"at 14 dayes after whitsonday","duration":"14 days"},"geometry":{"type":"point","coordinates":[8.542085565089215,47.373011068465786]}},{"type":"Feature","properties":{"source_id":"SRC000043","event_no":"116","event_type":"fair_calendar","place_id":"PLC000225","place_name_modern":"Zürich","place_name_historic":"Zürich, Zurich","place_type":"settlement","date":"1576-09-11","date_year":1576,"date_month":9,"date_day":11,"date_orig_text":"the 11 day of September","duration":null},"geometry":{"type":"point","coordinates":[8.542085565089215,47.373011068465786]}},{"type":"Feature","properties":{"source_id":"SRC000043","event_no":"117","event_type":"fair_calendar","place_id":"PLC004763","place_name_modern":"Bad Zurzach","place_name_historic":"Bad Zurzach","place_type":"settlement","date":"1576-05-31","date_year":1576,"date_month":5,"date_day":31,"date_orig_text":"on Aufardaye","duration":null},"geometry":{"type":"point","coordinates":[8.29303871872076,47.58806648061113]}},{"type":"Feature","properties":{"source_id":"SRC000043","event_no":"118","event_type":"fair_calendar","place_id":"PLC004763","place_name_modern":"Bad Zurzach","place_name_historic":"Bad Zurzach","place_type":"settlement","date":"1576-09-01","date_year":1576,"date_month":9,"date_day":1,"date_orig_text":"at Egidy","duration":null},"geometry":{"type":"point","coordinates":[8.29303871872076,47.58806648061113]}},{"type":"Feature","properties":{"source_id":"SRC000043","event_no":"119","event_type":"fair_calendar","place_id":"PLC000226","place_name_modern":"Zug","place_name_historic":"Zug","place_type":"settlement","date":"1576-10-16","date_year":1576,"date_month":10,"date_day":16,"date_orig_text":"upon Galli","duration":null},"geometry":{"type":"point","coordinates":[8.51924179020059,47.16700315212191]}},{"type":"Feature","properties":{"source_id":"SRC000043","event_no":"120","event_type":"fair_calendar","place_id":"PLC002033","place_name_modern":"Zwickau","place_name_historic":"Zwickau, Zwicka","place_type":"settlement","date":"1576-06-17","date_year":1576,"date_month":6,"date_day":17,"date_orig_text":"on the Sonday after Whitsontyde","duration":null},"geometry":{"type":"point","coordinates":[12.495202370611768,50.71924274409014]}},{"type":"Feature","properties":{"source_id":"SRC000043","event_no":"121","event_type":"fair_calendar","place_id":"PLC002033","place_name_modern":"Zwickau","place_name_historic":"Zwickau, Zwicka","place_type":"settlement","date":"1576-11-25","date_year":1576,"date_month":11,"date_day":25,"date_orig_text":"on the day of Saint Katherin","duration":null},"geometry":{"type":"point","coordinates":[12.495202370611768,50.71924274409014]}},{"type":"Feature","properties":{"source_id":"SRC000043","event_no":"122","event_type":"fair_calendar","place_id":"PLC001267","place_name_modern":"Geneva","place_name_historic":"Geneve, Genefus, GENEVORA, Geneva","place_type":"settlement","date":"1576-04-01","date_year":1576,"date_month":4,"date_day":1,"date_orig_text":"in Midlent","duration":null},"geometry":{"type":"point","coordinates":[6.146025385329027,46.202093660486575]}},{"type":"Feature","properties":{"source_id":"SRC000043","event_no":"123","event_type":"fair_calendar","place_id":"PLC001267","place_name_modern":"Geneva","place_name_historic":"Geneve, Genefus, GENEVORA, Geneva","place_type":"settlement","date":"1576-09-01","date_year":1576,"date_month":9,"date_day":1,"date_orig_text":"on the day of Saint Egidi","duration":null},"geometry":{"type":"point","coordinates":[6.146025385329027,46.202093660486575]}}]}