{"type":"FeatureCollection","name":"CoMOR-FairCalendars","collection_id":"COL0037","records":4,"download_user":"admin","download_date":"2026-08-10T18:45:48.866+02:00","readme":"See the readme file included in this download for details about this file.","features":[{"type":"Feature","properties":{"source_id":"SRC000131","event_no":"2","event_type":"fair_calendar","place_id":"PLC005358","place_name_modern":"Miribel","place_name_historic":"","place_type":"settlement","date":"1444-08-15","date_year":1444,"date_month":8,"date_day":15,"date_orig_text":"","duration":"1 day"},"geometry":{"type":"point","coordinates":[4.953586,45.822564]}},{"type":"Feature","properties":{"source_id":"SRC000131","event_no":"3","event_type":"fair_calendar","place_id":"PLC005358","place_name_modern":"Miribel","place_name_historic":"","place_type":"settlement","date":"1444-09-08","date_year":1444,"date_month":9,"date_day":8,"date_orig_text":"","duration":"1 day"},"geometry":{"type":"point","coordinates":[4.953586,45.822564]}},{"type":"Feature","properties":{"source_id":"SRC000131","event_no":"4","event_type":"fair_calendar","place_id":"PLC005358","place_name_modern":"Miribel","place_name_historic":"","place_type":"settlement","date":"1444-10-28","date_year":1444,"date_month":10,"date_day":28,"date_orig_text":"","duration":"1 day"},"geometry":{"type":"point","coordinates":[4.953586,45.822564]}},{"type":"Feature","properties":{"source_id":"SRC000131","event_no":"5","event_type":"fair_calendar","place_id":"PLC005358","place_name_modern":"Miribel","place_name_historic":"","place_type":"settlement","date":"1445-05-01","date_year":1445,"date_month":5,"date_day":1,"date_orig_text":"","duration":"1 day"},"geometry":{"type":"point","coordinates":[4.953586,45.822564]}}]}