{"type":"FeatureCollection","name":"CoMOR-FairCalendars","collection_id":"COL0099","records":5,"download_user":"admin","download_date":"2026-08-10T18:45:53.743+02:00","readme":"See the readme file included in this download for details about this file.","features":[{"type":"Feature","properties":{"source_id":"SRC000808","event_no":"12","event_type":"fair_calendar","place_id":"PLC001267","place_name_modern":"Geneva","place_name_historic":"Geneve, Genefus, GENEVORA, Geneva","place_type":"settlement","date":"1434-03-28","date_year":1434,"date_month":3,"date_day":28,"date_orig_text":"","duration":null},"geometry":{"type":"point","coordinates":[6.146025385329027,46.202093660486575]}},{"type":"Feature","properties":{"source_id":"SRC000813","event_no":"6","event_type":"fair_calendar","place_id":"PLC001267","place_name_modern":"Geneva","place_name_historic":"Geneve, Genefus, GENEVORA, Geneva","place_type":"settlement","date":"1434-06-29","date_year":1434,"date_month":6,"date_day":29,"date_orig_text":"","duration":null},"geometry":{"type":"point","coordinates":[6.146025385329027,46.202093660486575]}},{"type":"Feature","properties":{"source_id":"SRC000818","event_no":"1","event_type":"fair_calendar","place_id":"PLC001267","place_name_modern":"Geneva","place_name_historic":"Geneve, Genefus, GENEVORA, Geneva","place_type":"settlement","date":"1434-08-24","date_year":1434,"date_month":8,"date_day":24,"date_orig_text":"","duration":null},"geometry":{"type":"point","coordinates":[6.146025385329027,46.202093660486575]}},{"type":"Feature","properties":{"source_id":"SRC000821","event_no":"3","event_type":"fair_calendar","place_id":"PLC001267","place_name_modern":"Geneva","place_name_historic":"Geneve, Genefus, GENEVORA, Geneva","place_type":"settlement","date":"1434-10-28","date_year":1434,"date_month":10,"date_day":28,"date_orig_text":"","duration":null},"geometry":{"type":"point","coordinates":[6.146025385329027,46.202093660486575]}},{"type":"Feature","properties":{"source_id":"SRC000822","event_no":"1","event_type":"fair_calendar","place_id":"PLC001267","place_name_modern":"Geneva","place_name_historic":"Geneve, Genefus, GENEVORA, Geneva","place_type":"settlement","date":"1434-11-01","date_year":1434,"date_month":11,"date_day":1,"date_orig_text":"","duration":null},"geometry":{"type":"point","coordinates":[6.146025385329027,46.202093660486575]}}]}