{"type":"FeatureCollection","name":"CoMOR-FairCalendars","collection_id":"COL0096","records":10,"download_user":"admin","download_date":"2026-08-10T18:45:52.597+02:00","readme":"See the readme file included in this download for details about this file.","features":[{"type":"Feature","properties":{"source_id":"SRC000748","event_no":"1","event_type":"fair_calendar","place_id":"PLC001267","place_name_modern":"Geneva","place_name_historic":"Geneve, Genefus, GENEVORA, Geneva","place_type":"settlement","date":"1432-04-20","date_year":1432,"date_month":4,"date_day":20,"date_orig_text":"","duration":null},"geometry":{"type":"point","coordinates":[6.146025385329027,46.202093660486575]}},{"type":"Feature","properties":{"source_id":"SRC000753","event_no":"2","event_type":"fair_calendar","place_id":"PLC001267","place_name_modern":"Geneva","place_name_historic":"Geneve, Genefus, GENEVORA, Geneva","place_type":"settlement","date":"1432-06-29","date_year":1432,"date_month":6,"date_day":29,"date_orig_text":"","duration":null},"geometry":{"type":"point","coordinates":[6.146025385329027,46.202093660486575]}},{"type":"Feature","properties":{"source_id":"SRC000757","event_no":"13","event_type":"fair_calendar","place_id":"PLC001267","place_name_modern":"Geneva","place_name_historic":"Geneve, Genefus, GENEVORA, Geneva","place_type":"settlement","date":"1432-06-29","date_year":1432,"date_month":6,"date_day":29,"date_orig_text":"","duration":null},"geometry":{"type":"point","coordinates":[6.146025385329027,46.202093660486575]}},{"type":"Feature","properties":{"source_id":"SRC000761","event_no":"5","event_type":"fair_calendar","place_id":"PLC001267","place_name_modern":"Geneva","place_name_historic":"Geneve, Genefus, GENEVORA, Geneva","place_type":"settlement","date":"1432-08-24","date_year":1432,"date_month":8,"date_day":24,"date_orig_text":"","duration":null},"geometry":{"type":"point","coordinates":[6.146025385329027,46.202093660486575]}},{"type":"Feature","properties":{"source_id":"SRC000765","event_no":"1","event_type":"fair_calendar","place_id":"PLC001788","place_name_modern":"Villeneuve","place_name_historic":"Villeneuve, Villeneuf","place_type":"settlement","date":"1432-09-29","date_year":1432,"date_month":9,"date_day":29,"date_orig_text":"die nundinarum beati Michaelis","duration":null},"geometry":{"type":"point","coordinates":[6.926575271984825,46.39624744971097]}},{"type":"Feature","properties":{"source_id":"SRC000767","event_no":"5","event_type":"fair_calendar","place_id":"PLC001267","place_name_modern":"Geneva","place_name_historic":"Geneve, Genefus, GENEVORA, Geneva","place_type":"settlement","date":"1432-10-28","date_year":1432,"date_month":10,"date_day":28,"date_orig_text":"","duration":null},"geometry":{"type":"point","coordinates":[6.146025385329027,46.202093660486575]}},{"type":"Feature","properties":{"source_id":"SRC000767","event_no":"6","event_type":"fair_calendar","place_id":"PLC001267","place_name_modern":"Geneva","place_name_historic":"Geneve, Genefus, GENEVORA, Geneva","place_type":"settlement","date":"1432-11-01","date_year":1432,"date_month":11,"date_day":1,"date_orig_text":"","duration":null},"geometry":{"type":"point","coordinates":[6.146025385329027,46.202093660486575]}},{"type":"Feature","properties":{"source_id":"SRC000770","event_no":"1","event_type":"fair_calendar","place_id":"PLC001788","place_name_modern":"Villeneuve","place_name_historic":"Villeneuve, Villeneuf","place_type":"settlement","date":"1432-12-06","date_year":1432,"date_month":12,"date_day":6,"date_orig_text":"die festi beati Nycolay yemalis","duration":null},"geometry":{"type":"point","coordinates":[6.926575271984825,46.39624744971097]}},{"type":"Feature","properties":{"source_id":"SRC000771","event_no":"8","event_type":"fair_calendar","place_id":"PLC001267","place_name_modern":"Geneva","place_name_historic":"Geneve, Genefus, GENEVORA, Geneva","place_type":"settlement","date":"1433-01-06","date_year":1433,"date_month":1,"date_day":6,"date_orig_text":"","duration":null},"geometry":{"type":"point","coordinates":[6.146025385329027,46.202093660486575]}},{"type":"Feature","properties":{"source_id":"SRC000776","event_no":"2","event_type":"fair_calendar","place_id":"PLC001267","place_name_modern":"Geneva","place_name_historic":"Geneve, Genefus, GENEVORA, Geneva","place_type":"settlement","date":"1433-02-22","date_year":1433,"date_month":2,"date_day":22,"date_orig_text":"","duration":null},"geometry":{"type":"point","coordinates":[6.146025385329027,46.202093660486575]}}]}