{"type":"FeatureCollection","name":"CoMOR-FairCalendars","collection_id":"COL0018","records":30,"download_user":"admin","download_date":"2026-08-10T18:45:43.637+02:00","readme":"See the readme file included in this download for details about this file.","features":[{"type":"Feature","properties":{"source_id":"SRC000032","event_no":"1","event_type":"fair_calendar","place_id":"PLC003744","place_name_modern":"Ascoli Satriano","place_name_historic":"Ascoli Satriano","place_type":"settlement","date":"1338-01-05","date_year":1338,"date_month":1,"date_day":5,"date_orig_text":"","duration":"8 days"},"geometry":{"type":"point","coordinates":[15.563257,41.205602]}},{"type":"Feature","properties":{"source_id":"SRC000032","event_no":"2","event_type":"fair_calendar","place_id":"PLC003751","place_name_modern":"Bitonto","place_name_historic":"Bitonto","place_type":"settlement","date":"1338-04","date_year":1338,"date_month":4,"date_day":0,"date_orig_text":"","duration":"8 days"},"geometry":{"type":"point","coordinates":[16.689439,41.106329]}},{"type":"Feature","properties":{"source_id":"SRC000032","event_no":"3","event_type":"fair_calendar","place_id":"PLC002782","place_name_modern":"Manfredonia","place_name_historic":"Manfredonia","place_type":"settlement","date":"1338-04-18","date_year":1338,"date_month":4,"date_day":18,"date_orig_text":"","duration":"8 days"},"geometry":{"type":"point","coordinates":[15.887720294648433,41.61324382199986]}},{"type":"Feature","properties":{"source_id":"SRC000032","event_no":"4","event_type":"fair_calendar","place_id":"PLC003752","place_name_modern":"Brindisi","place_name_historic":"Brindisi","place_type":"settlement","date":"1338-04-24","date_year":1338,"date_month":4,"date_day":24,"date_orig_text":"","duration":"8 days"},"geometry":{"type":"point","coordinates":[17.955168,40.643405]}},{"type":"Feature","properties":{"source_id":"SRC000032","event_no":"5","event_type":"fair_calendar","place_id":"PLC003753","place_name_modern":"Taranto","place_name_historic":"Taranto","place_type":"settlement","date":"1338-04-26","date_year":1338,"date_month":4,"date_day":26,"date_orig_text":"","duration":"8 days"},"geometry":{"type":"point","coordinates":[17.245866,40.466998]}},{"type":"Feature","properties":{"source_id":"SRC000032","event_no":"6","event_type":"fair_calendar","place_id":"PLC004767","place_name_modern":"Corleto","place_name_historic":"Corleto","place_type":"settlement","date":"1338-05-02","date_year":1338,"date_month":5,"date_day":2,"date_orig_text":"","duration":"8 days"},"geometry":{"type":"point","coordinates":[15.671288,41.198908]}},{"type":"Feature","properties":{"source_id":"SRC000032","event_no":"7","event_type":"fair_calendar","place_id":"PLC004767","place_name_modern":"Corleto","place_name_historic":"Corleto","place_type":"settlement","date":"1338-08-26","date_year":1338,"date_month":8,"date_day":26,"date_orig_text":"","duration":"8 days"},"geometry":{"type":"point","coordinates":[15.671288,41.198908]}},{"type":"Feature","properties":{"source_id":"SRC000032","event_no":"8","event_type":"fair_calendar","place_id":"PLC002786","place_name_modern":"Bari","place_name_historic":", Bari, Barri","place_type":"settlement","date":"1338-12","date_year":1338,"date_month":12,"date_day":0,"date_orig_text":"","duration":"8 days"},"geometry":{"type":"point","coordinates":[16.867652334561388,41.12500049366243]}},{"type":"Feature","properties":{"source_id":"SRC000032","event_no":"9","event_type":"fair_calendar","place_id":"PLC002786","place_name_modern":"Bari","place_name_historic":", Bari, Barri","place_type":"settlement","date":"1338-05-06","date_year":1338,"date_month":5,"date_day":6,"date_orig_text":"","duration":"8 days"},"geometry":{"type":"point","coordinates":[16.867652334561388,41.12500049366243]}},{"type":"Feature","properties":{"source_id":"SRC000032","event_no":"10","event_type":"fair_calendar","place_id":"PLC002786","place_name_modern":"Bari","place_name_historic":", Bari, Barri","place_type":"settlement","date":"1338-08-28","date_year":1338,"date_month":8,"date_day":28,"date_orig_text":"","duration":"8 days"},"geometry":{"type":"point","coordinates":[16.867652334561388,41.12500049366243]}},{"type":"Feature","properties":{"source_id":"SRC000032","event_no":"11","event_type":"fair_calendar","place_id":"PLC003755","place_name_modern":"Trani","place_name_historic":"Trani","place_type":"settlement","date":"1338-05-26","date_year":1338,"date_month":5,"date_day":26,"date_orig_text":"","duration":"8 days"},"geometry":{"type":"point","coordinates":[16.418129,41.281981]}},{"type":"Feature","properties":{"source_id":"SRC000032","event_no":"12","event_type":"fair_calendar","place_id":"PLC003756","place_name_modern":"San Giovanni Rotondo","place_name_historic":"San Giovanni Rotondo","place_type":"settlement","date":"1338-06-10","date_year":1338,"date_month":6,"date_day":10,"date_orig_text":"","duration":"8 days"},"geometry":{"type":"point","coordinates":[15.728571,41.708051]}},{"type":"Feature","properties":{"source_id":"SRC000032","event_no":"13","event_type":"fair_calendar","place_id":"PLC003757","place_name_modern":"Barletta","place_name_historic":"Barletta","place_type":"settlement","date":"1338-08-08","date_year":1338,"date_month":8,"date_day":8,"date_orig_text":"","duration":"8 days"},"geometry":{"type":"point","coordinates":[16.287408,41.320526]}},{"type":"Feature","properties":{"source_id":"SRC000032","event_no":"14","event_type":"fair_calendar","place_id":"PLC003757","place_name_modern":"Barletta","place_name_historic":"Barletta","place_type":"settlement","date":"1338-11-12","date_year":1338,"date_month":11,"date_day":12,"date_orig_text":"","duration":"8 days"},"geometry":{"type":"point","coordinates":[16.287408,41.320526]}},{"type":"Feature","properties":{"source_id":"SRC000032","event_no":"15","event_type":"fair_calendar","place_id":"PLC003758","place_name_modern":"Foggia","place_name_historic":"Foggia","place_type":"settlement","date":"1338-08-24","date_year":1338,"date_month":8,"date_day":24,"date_orig_text":"","duration":"8 days"},"geometry":{"type":"point","coordinates":[15.543642,41.463323]}},{"type":"Feature","properties":{"source_id":"SRC000032","event_no":"16","event_type":"fair_calendar","place_id":"PLC002796","place_name_modern":"Salerno","place_name_historic":"Salerno","place_type":"settlement","date":"1338-09-14","date_year":1338,"date_month":9,"date_day":14,"date_orig_text":"","duration":"8 days"},"geometry":{"type":"point","coordinates":[14.774087390517625,40.681988256866816]}},{"type":"Feature","properties":{"source_id":"SRC000032","event_no":"17","event_type":"fair_calendar","place_id":"PLC003759","place_name_modern":"Giovinazzo","place_name_historic":"Giovinazzo","place_type":"settlement","date":"1338-08-31","date_year":1338,"date_month":8,"date_day":31,"date_orig_text":"","duration":"8 days"},"geometry":{"type":"point","coordinates":[16.6745,41.189343]}},{"type":"Feature","properties":{"source_id":"SRC000032","event_no":"18","event_type":"fair_calendar","place_id":"PLC003760","place_name_modern":"Noccia di Savaccino","place_name_historic":"","place_type":"settlement","date":"1338-10-26","date_year":1338,"date_month":10,"date_day":26,"date_orig_text":"","duration":"8 days"},"geometry":{"type":"point","coordinates":[0,0]}},{"type":"Feature","properties":{"source_id":"SRC000032","event_no":"19","event_type":"fair_calendar","place_id":"PLC003054","place_name_modern":"Potenza","place_name_historic":"Potenza","place_type":"settlement","date":"1338-11-24","date_year":1338,"date_month":11,"date_day":24,"date_orig_text":"","duration":"8 days"},"geometry":{"type":"point","coordinates":[15.791021404368548,40.640221824805025]}},{"type":"Feature","properties":{"source_id":"SRC000025","event_no":"1","event_type":"fair_calendar","place_id":"PLC000505","place_name_modern":"Lagny-sur-marne","place_name_historic":"Lagny-sur-marne, Lanigny, Lagny","place_type":"settlement","date":"1338-01","date_year":1338,"date_month":1,"date_day":0,"date_orig_text":"","duration":null},"geometry":{"type":"point","coordinates":[2.704242420449686,48.87799603811283]}},{"type":"Feature","properties":{"source_id":"SRC000025","event_no":"2","event_type":"fair_calendar","place_id":"PLC000468","place_name_modern":"Bar-sur-Aube","place_name_historic":"Bar-sur-Aube, Bar, Bars S. A.","place_type":"settlement","date":"1338-03","date_year":1338,"date_month":3,"date_day":0,"date_orig_text":"","duration":null},"geometry":{"type":"point","coordinates":[4.715788839329814,48.2284834441182]}},{"type":"Feature","properties":{"source_id":"SRC000025","event_no":"3","event_type":"fair_calendar","place_id":"PLC003725","place_name_modern":"Provins","place_name_historic":"Provins","place_type":"settlement","date":"1338-05","date_year":1338,"date_month":5,"date_day":0,"date_orig_text":"","duration":null},"geometry":{"type":"point","coordinates":[3.290145,48.561104]}},{"type":"Feature","properties":{"source_id":"SRC000025","event_no":"4","event_type":"fair_calendar","place_id":"PLC003725","place_name_modern":"Provins","place_name_historic":"Provins","place_type":"settlement","date":"1338-08","date_year":1338,"date_month":8,"date_day":0,"date_orig_text":"","duration":null},"geometry":{"type":"point","coordinates":[3.290145,48.561104]}},{"type":"Feature","properties":{"source_id":"SRC000025","event_no":"5","event_type":"fair_calendar","place_id":"PLC000465","place_name_modern":"Troyes","place_name_historic":"Troyes, Troies, Troye","place_type":"settlement","date":"1338-07","date_year":1338,"date_month":7,"date_day":0,"date_orig_text":"","duration":null},"geometry":{"type":"point","coordinates":[4.075642323584924,48.29807044303462]}},{"type":"Feature","properties":{"source_id":"SRC000025","event_no":"6","event_type":"fair_calendar","place_id":"PLC000465","place_name_modern":"Troyes","place_name_historic":"Troyes, Troies, Troye","place_type":"settlement","date":"1338-11","date_year":1338,"date_month":11,"date_day":0,"date_orig_text":"","duration":null},"geometry":{"type":"point","coordinates":[4.075642323584924,48.29807044303462]}},{"type":"Feature","properties":{"source_id":"SRC000067","event_no":"1","event_type":"fair_calendar","place_id":"PLC000529","place_name_modern":"Ypres","place_name_historic":"Ypres, Ypera, Iperen, Ipren","place_type":"settlement","date":"1338-02","date_year":1338,"date_month":2,"date_day":0,"date_orig_text":"The fair started on the first day of Lent.","duration":"15 days"},"geometry":{"type":"point","coordinates":[2.88897478356826,50.85100321024055]}},{"type":"Feature","properties":{"source_id":"SRC000067","event_no":"2","event_type":"fair_calendar","place_id":"PLC000524","place_name_modern":"Brügge","place_name_historic":"Brügge, Bruges, Brugk, Brugge, Brugges","place_type":"settlement","date":"1338-04","date_year":1338,"date_month":4,"date_day":0,"date_orig_text":"The fair started 8 days after Easter.","duration":"18 days"},"geometry":{"type":"point","coordinates":[3.224798683805872,51.207851547571416]}},{"type":"Feature","properties":{"source_id":"SRC000067","event_no":"3","event_type":"fair_calendar","place_id":"PLC004806","place_name_modern":"Thourotte","place_name_historic":"Thourotte","place_type":"settlement","date":"1338-06-29","date_year":1338,"date_month":6,"date_day":29,"date_orig_text":"","duration":"14 days"},"geometry":{"type":"point","coordinates":[2.883258,49.479832]}},{"type":"Feature","properties":{"source_id":"SRC000067","event_no":"4","event_type":"fair_calendar","place_id":"PLC000531","place_name_modern":"Lille","place_name_historic":"Lille, Rüssel","place_type":"settlement","date":"1338-08-15","date_year":1338,"date_month":8,"date_day":15,"date_orig_text":"","duration":"13 days"},"geometry":{"type":"point","coordinates":[3.065705984590668,50.628231324715834]}},{"type":"Feature","properties":{"source_id":"SRC000067","event_no":"5","event_type":"fair_calendar","place_id":"PLC004807","place_name_modern":"Mesen","place_name_historic":"Mesen","place_type":"settlement","date":"1338-10-01","date_year":1338,"date_month":10,"date_day":1,"date_orig_text":"","duration":"14 days"},"geometry":{"type":"point","coordinates":[2.89694,50.764976]}}]}